name,address,email,website,phone,postalCode
Best Western Plus Hôtel Mirabeau,"Avenue de la Gare 31, 1003 Lausanne",reservation@mirabeau.ch,http://www.mirabeau.ch/,+41213414243,1000
White Horse,"Avenue d'Ouchy 66, 1006 Lausanne",,http://www.whitehorse.ch/,+41216167575,1000
Vertigo by Anna,"Avenue des Bains 4C, 1007 Lausanne",,,+41766152884,1000
The secret of garden Swiss Sàrl,"Rue du Petit-Chêne 27, 1003 Lausanne",,https://www.bagelontheway.ch/,+41213110488,1000
au Charbon,"Avenue de Chailly 13, 1012 Lausanne",,http://www.pizzacharbon.ch/,+41216520793,1000
"Berges de Vidy, les","Chemin du Camping 3, 1007 Lausanne",,http://www.clv.ch/,+41216225005,1000
57° Grill,"Place du Port 2, 1006 Lausanne",,http://www.chateaudouchy.ch/,+41213313232,1000
Suprême Tacos - Offre 30%,"Rue du Simplon 16, 1006 Lausanne",,https://www.ubereats.com/ch-fr/lausanne/food-delivery/supreme-tacos-lausanne-centre/FDdIfbB3RLWX6LGvpHF-_w,+41213574707,1000
Au Carrefour,"Rue du Midi 15, 1003 Lausanne",,,+41213239505,1000
Restaurant HOIAN BBQ,"Chemin des Pêcheurs 7, 1007 Lausanne",hoianrestaurant.bbq@gmail.com,http://hoianbbq.com/,+41216177151,1000
la Nonna,"Rue du Maupas 17, 1004 Lausanne",,http://www.pizzeria-lanonna.ch/,+41216465412,1000
Grotto 2 Sàrl,"Avenue des Deux-Ponts 13, 1009 Pully",legrotto@hotmail.com,http://www.grotto2.ch/,+41217280130,1000
Origin'L Tacos,"Avenue Bergières 20, 1004 Lausanne",,https://www.originl.ch/,+41223000206,1000
Taiyo Sushi Bar,"Rue du Midi 4, 1003 Lausanne",,http://www.taiyo.ch/,+41213124312,1000
café restaurant Le Valentin,"Rue du Valentin 30, 1004 Lausanne",,,+41213121300,1000
Restaurant Osteria Balsamico Sàrl,"Avenue d'Ouchy 14, 1006 Lausanne",info@osteriabalsamico.ch,http://www.osteriabalsamico.ch/,+41216160121,1000
Restaurant Le Chalet du Désert,"Chemin de Pierrefleur 74, 1004 Lausanne",info@chaletdudesert.ch,http://www.chaletdudesert.ch/,+41215565507,1000
Delta du Mékong,"Route des Flumeaux 1, 1008 Prilly",Deltadumekong@gmail.com,http://www.delta-mekong-restaurant.ch/,+41216257361,1000
la Stella,"Grand-Rue 22, 1009 Pully",,http://www.restaurantlastella.ch/,+41217280660,1000
Ming Xuan,"Rue Caroline 5, 1003 Lausanne",,http://www.mingxuan-resto.ch/,+41213238910,1000
Le Montelly,"Chemin de Montelly 1, 1007 Lausanne",,http://lemontelly.ch/,+41216250352,1000
le Milan,"Boulevard de Grancy 54, 1006 Lausanne",,https://www.lemilan.ch/,+41216165343,1000
La Torre,"Rue de l'Ale 44, 1003 Lausanne",restaurant.latorre.lausanne@gmail.com,http://www.restaurant-latorre.ch/home.html,+41213112866,1000
Chinatown,"Rue Grand-St-Jean 1, 1003 Lausanne",,http://www.restaurantchinatown.ch/,+41213123934,1000
Keyann Bistrot Libanais,"Avenue Frédéric-César-de-la-Harpe 43B, 1007 Lausanne",info@keyann.ch,https://bistro-keyann.ch/,+41216010070,1000
Café Restaurant Rodizio le Mont-d'or,"Chemin de Contigny 1, 1007 Lausanne",rodiziogrill.lausanne@gmail.com,http://www.restaurant-lemontdor.ch/,+41216170010,1000
Ristorante St Paul,"Avenue d'Echallens 72, 1004 Lausanne",ristorante.st.paul@gmail.com,http://www.ristorante-st-paul.ch/,+41215447391,1000
Restaurant Chalet Suisse,"Route du Signal 40, 1018 Lausanne",info@chaletsuisse.ch,https://www.chaletsuisse.ch/,+41213122312,1000
Café L'Evêché,"Rue Louis-Curtat 4, 1005 Lausanne",,http://www.leveche.ch/public/index.php,+41213239323,1000
Dun-Huang,"Chemin de Pierrefleur 40, 1004 Lausanne",kuifungfung@gmail.com,http://www.dun-huang.ch/,+41216460202,1000
Chez Xu 1,"Rue du Tunnel 10, 1005 Lausanne",,,+41213124087,1000
L'étoile blanche,"Avenue du Tribunal-Fédéral 1, 1005 Lausanne",,,+41213512460,1000
Au Gourmand,"Rue du Grand-Pont 18, 1003 Lausanne",,,+41213127989,1000
Café des Avenues Sàrl,"Avenue de Jurigoz 20, 1006 Lausanne",,http://www.cafe-des-avenues.ch/,+41216161111,1000
Hôtel Restaurant du Port,"Place du Port 5, 1006 Lausanne",info@hotel-du-port.ch,http://www.hotel-du-port.ch/,+41216120444,1000
Karma,"Rue du Pont 22, 1003 Lausanne",,,+41213518181,1000
La Couronne d'Or,"Rue des Deux-Marchés 13, 1005 Lausanne",,,+41213113817,1000
Restaurant Perbacco & Bottega,"Rue du Flon 12, 1003 Lausanne",perbaccooo@icloud.com,https://www.perbaccooo.com/,+41213111865,1000
le Cazard,"Rue Pré-du-Marché 15, 1004 Lausanne",,,+41213129687,1000
le Byblos,"Rue Cheneau-de-Bourg 2, 1003 Lausanne",info@lebyblos.ch,http://www.lebyblos.ch/public/contact.php,+41213118373,1000
Manora,"Rue Pichard 3, 1003 Lausanne",,,+41213213680,1000
Au Chat Noir,"Rue Beau-Séjour 27, 1003 Lausanne",,,+41213129585,1000
Il Vesuvio,"Chemin de Lucinge 12, 1006 Lausanne",ilvesuvioristorante@gmail.com,http://www.il-vesuvio.ch/,+41217841919,1000
Café Restaurant Le Tandem,"Avenue des Mousquines 1, 1005 Lausanne",,,+41213233204,1000
Café restaurant de la Bourdonnette,"Route de Chavannes 201, 1007 Lausanne",,http://www.restaurant-de-la-bourdonnette.com/,+41216256262,1000
le Saxo,"Rue Pré-du-Marché 37, 1004 Lausanne",,,+41213234683,1000
La Sosta,"Route du Châtelard 56, 1018 Lausanne",,,+41216463142,1000
le Lapin Vert,"Ruelle du Lapin-Vert 2, 1005 Lausanne",,,+41213121317,1000
Swisshallal Food Sàrl,"Avenue Louis-Ruchonnet 9, 1003 Lausanne",info@swisshallal.ch,http://www.swisshallal.ch/,+41213120422,1000
el Chiringuito,"Rue Saint-Laurent 38, 1003 Lausanne",,,+41213127347,1000
de Tivoli,"Avenue de Tivoli 1, 1007 Lausanne",,,+41213237088,1000
Pré-Fleuri,"Avenue d'Ouchy 22, 1006 Lausanne",,,+41216166367,1000
Tennis de Montchoisi,"Avenue de l'Elysée 15, 1006 Lausanne",,,+41216169062,1000
Restaurant Shangri-La,"Avenue Gratta-Paille 2, 1018 Lausanne",,http://www.shangrila-lausanne.ch/,+41216411888,1000
Aux 3 Tonneaux,"Rue Grand-St-Jean 18, 1003 Lausanne",,,+41213120266,1000
Côté Jardin,"Rue du Grand-Chêne 7, 1003 Lausanne",restauration@lausanne-palace.ch,,+41213313208,1000
Ouchycrep SA,"Place du Port 7, 1006 Lausanne",,http://www.ouchycrep.ch/,+41216162607,1000
Brasserie du Grand-Chêne,"Rue du Grand-Chêne 7, 1003 Lausanne",,,+41213313224,1000
Le Central Lausanne,"Rue Centrale 5, 1003 Lausanne",info@lecentral-lausanne.ch,https://www.central-lausanne.ch/Contact_Reservation.c.htm,+41213205575,1000
Restaurant du Tennis Lausanne-Sport,"Route des Plaines-du-Loup 7, 1018 Lausanne",,http://bin.staticlocal.ch/restaurant-menu/7a/7a96e4933b7895fd1473fbc319161bf182ca0471/MENU%20MERCREDI.pdf,+41216461348,1000
Restaurant Piment Rouge,"Avenue de Cour 38A, 1007 Lausanne",,http://www.restaurantslausanne.ch/piment-rouge-lausanne/,+41216164633,1000
Auberge Fleur-de-Lys SA,"Route de Neuchâtel 73, 1008 Prilly",,http://www.aubergedelafleurdelys.ch/,+41216470909,1000
Le chamarel cuisine mauricienne,"Route du Port 40, 1009 Pully",lechamarelresto@gmail.com,https://www.lechamarelresto.ch/,+41217111487,1000
Café LeMontriond,"Avenue Edouard-Dapples 25, 1006 Lausanne",info@lemontriond.ch,http://lemontriond.ch/,+41213121006,1000
Made in Italy Pizzeria,"Route Aloys-Fauquez 32, 1018 Lausanne",,https://pizzamadeinitaly.ch/,+41216833040,1000
Brasserie St-Laurent,"Rue Saint-Laurent 16, 1003 Lausanne",,http://www.brasserie-saint-laurent.ch/,+41213121444,1000
shangrila-epfl,"EPFL, 1015 Lausanne",vallotton.epfl@gmail.com,http://www.shangrila-epfl.ch/,+41216932069,1000
le Galion,"Chemin du Martinet 28, 1007 Lausanne",,,+41216249857,1000
ONIWA Sàrl,"Avenue de Tivoli 8, 1007 Lausanne",oniwasushi@hotmail.com,https://www.oniwa-sushi.com/,+41213126969,1000
Tropicana Restaurant,"Place Saint-François 2, 1003 Lausanne",,https://www.tropicana-restaurant.ch/,+41213118383,1000
La Riviera Lausanne-Ouchy,"Place de la Navigation 8, 1006 Lausanne",info@brasserieriviera.com,http://www.brasserieriviera.com/,+41216165309,1000
l'Atlantic,"Avenue du Chablais 29, 1008 Prilly",,http://www.restaurant-atlantic.ch/,+41216247223,1000
Café Mozart,"Rue de la Grotte 2, 1003 Lausanne",cafe.mozart@hotmail.com,http://www.mozartcafe.ch/,+41213231030,1000
Brasserie des Abattoirs,"Avenue du Chablais 28, 1007 Lausanne",,http://lesabattoirs.pagesjaunes.ch/,+41216611150,1000
Restaurant La Pyramide,"Route de Chavannes 35, 1007 Lausanne",info@lapyramide.ch,https://lapyramide.ch/,+41216251448,1000
Alliés (les),"Rue de la Pontaise 48, 1018 Lausanne",info@lesallies.ch,,+41216486940,1000
Bleu Lézard,"Rue Enning 10, 1003 Lausanne",bleulezard@littlebigfood.ch,,+41213213830,1000
Bollywood Bar Restaurant,"Rue de la Tour 6, 1004 Lausanne",,,+41213511818,1000
Café de Béthusy Thankavadivel,"Avenue de Béthusy 27, 1005 Lausanne",,,+41213128858,1000
Chalet des Bains,"Avenue Emile-Henri-Jaques-Dalcroze 1, 1007 Lausanne",info@chaletdesbains.ch,,+41216171919,1000
Eligo,"Rue du Flon 8, 1003 Lausanne",,,+41213200003,1000
Fook Moon,"Rue Saint-Martin 9, 1003 Lausanne",,,+41213125868,1000
Hong Yan,"Avenue du Mont-Blanc 1, 1018 Lausanne",,,+41216830022,1000
Hôtel de Ville,"Place de la Palud 10, 1003 Lausanne",cafedelhoteldevillelausanne@gmail.com,,+41213121012,1000
il Gambero,"Avenue des Figuiers 2, 1007 Lausanne",,,+41216166764,1000
Istanbul Grill & More Lausanne,"Rue Côtes-de-Montbenon 20, 1003 Lausanne",eat@istanbul-grill.ch,https://www.istanbul-grill.ch/,+41213111493,1000
Java,"Rue Marterey 36, 1005 Lausanne",,,+41213213837,1000
L'Antica Trattoria,"Rue Marterey 9, 1005 Lausanne",,,+41213121933,1000
L'Ardoise,"Avenue de Cour 4, 1007 Lausanne",contact@carltonlausanne.ch,,+41216130707,1000
la Carillère,"Route du Jorat 73, 1000 Lausanne 26",info@lacarillere.ch,http://lacarillere.ch/wordpress,+41217840425,1000
La Paix Restaurant,"Avenue Benjamin-Constant 5, 1003 Lausanne",,,+41213107171,1000
La Radio,"Route d'Oron 11, 1010 Lausanne",,,+41216521618,1000
Laxmi,"Escaliers du Marché 5, 1003 Lausanne",laxmi@bluewin.ch,http://www.laxmi.ch/,+41213230313,1000
Le Berceau des Sens,"Route de Cojonnex 18, 1000 Lausanne 25",berceaudessens@ehl.ch,,+41217851221,1000
le Cyrano,"Rue de Bourg 16, 1003 Lausanne",restlecyrano@hotmail.com,,+41213121452,1000
Le Gros Minet,"Avenue de Cour 67, 1007 Lausanne",legrosminet2016@hotmail.com,,+41216012929,1000
Le Lyrique,"Rue Beau-Séjour 29, 1003 Lausanne",,,+41213128887,1000
Le Tirol Sàrl,"Chemin des Bossons 3, 1018 Lausanne",contact@letirol.ch,,+41216463033,1000
Oh! Liban,"Avenue de la Gare 29, 1003 Lausanne",info@ohliban.ch,,+41213115756,1000
Petit Boeuf,"Avenue Vingt-Quatre-Janvier 4, 1004 Lausanne",,,+41216489101,1000
Restaurant Al Dente,"Chemin de Maillefer 121, 1018 Lausanne",,,+41216464440,1000
Restaurant Dalat,"Place du Vallon 5, 1005 Lausanne",,,+41213124368,1000
Restaurant de l'Aéroport Blécherette,"Avenue du Grey 117, 1018 Lausanne",restaurant.aeroport@bluewin.ch,,+41216486100,1000
Restaurant de l'Ours,"Rue du Bugnon 2, 1005 Lausanne",,,+41213126869,1000
Restaurant Tennis - Club Pully,"Avenue de Rochettaz 48, 1009 Pully",resto@tcpully.ch,,+41217283121,1000
SUD Simplement Gourmand,"Avenue du Théâtre 1, 1005 Lausanne",,,+41213208383,1000
Tao-Lounge-Bar,"Rue Côtes-de-Montbenon 20, 1003 Lausanne",contact@tao-lounge-bar.ch,,+41213128818,1000
Tribeca,"Place de la Riponne 4, 1005 Lausanne",info@tribeca-lausanne.ch,,+41213111133,1000
Turkan Yasar,"Avenue de Tivoli 1, 1007 Lausanne",,,+41213237088,1000
Au Couscous,"Rue Enning 2, 1003 Lausanne",info@au-couscous.ch,,+41213129800,1000
Bamee Bar,"Avenue de la Gare 32, 1003 Lausanne",,,+41213202011,1000
Bar à tapas Aipes,"Rue de la Tour 8, 1004 Lausanne",aipes.bar.tapas@gmail.com,,+41213128444,1000
Bar - Restaurant 44,"Rue de Genève 91, 1004 Lausanne",,,+41216249507,1000
Bosphore,"Rue de la Louve 7, 1003 Lausanne",,,+41213110770,1000
Brasserie de Chailly,"Chemin de Rovéréaz 5, 1012 Lausanne",,,+41216533535,1000
Café de Prélaz titulaire,"Avenue de Morges 141, 1004 Lausanne",cafedeprelaz@gmail.com,,+41215584090,1000
Café des Artisans,"Rue Centrale 16, 1003 Lausanne",,,+41213110600,1000
Café du Centre,"Rue du Centre 16, 1009 Pully",,,+41215462112,1000
"Café La Siesta, Aslan Ismail","Place Grand-St-Jean 2, 1003 Lausanne",,,+41213233644,1000
Café-restaurant Blackbird Downtown Diner,"Route de Bel-Air 1, 1003 Lausanne",,https://www.downtowndiner.ch/,+41213127224,1000
Café Restaurant des Boveresses,"Avenue des Boveresses 29, 1010 Lausanne",,,+41216535340,1000
Café Restaurant PortoNovo,"Rue de Genève 98, 1004 Lausanne",,,+41213208885,1000
Chez Pitch,"Chemin des Bains 1, 1009 Pully",,,+41217282743,1000
Chez Xu 2,"Rue du Petit-Chêne 27, 1003 Lausanne",,,+41213207268,1000
Coccinelle Café,"Rue Pichard 20, 1003 Lausanne",,,+41213120890,1000
Coteau-Fleuri,"Route d'Oron 77, 1010 Lausanne",,,+41216530470,1000
"CREACION DEL TATA, Hector Nunez","Rue de la Borde 9, 1018 Lausanne",,,+41216470336,1000
Crêperie de Grancy,"Boulevard de Grancy 4, 1006 Lausanne",creperiedegrancy@gmail.com,,+41216169191,1000
Gertrude Café,"Rue Caroline 12, 1003 Lausanne",,,+41213113648,1000
L'AO,"Pont Bessières 3, 1005 Lausanne",,,+41213237314,1000
l'Indochine,"Avenue d'Echallens 82, 1004 Lausanne",,,+41216258888,1000
l'Orchidée,"Rue de l'Ale 25, 1003 Lausanne",,,+41213128626,1000
la Cascade,"Chemin du Centenaire 4, 1008 Prilly",,,+41216247061,1000
La Croix d'Ouchy,"Avenue d'Ouchy 43, 1006 Lausanne",,,+41216162233,1000
Lausanne-Moudon,"Rue du Tunnel 20, 1005 Lausanne",,,+41213290471,1000
Le Bellini's,"Rue de la Barre 5, 1005 Lausanne",,,+41213512440,1000
le Delta,"Place Neuve 3, 1009 Pully",delta@pre-pariset.ch,,+41217211858,1000
Le Fraisier,"Ruelle Grand-St-Jean 9, 1003 Lausanne",f_ribeiro@bluewin.ch,http://www.lefraisier.ch/,+41216253192,1000
Le Kiosque Saint-François,"Place Saint-François 13, 1003 Lausanne",,,+41213240505,1000
le Pinocchio,"Avenue Frédéric-César-de-la-Harpe 16, 1007 Lausanne",le-pinocchio@bluewin.ch,,+41216164037,1000
MG 21 Bar,"Avenue de Mont-Goulin 21, 1008 Prilly",,,+41216480344,1000
Minuit Soleil,"Rue Centrale 23, 1003 Lausanne",minuitsoleil@bluewin.ch,,+41213235364,1000
Pomodoro della Nona,"Rue Louis-Curtat 6, 1005 Lausanne",,,+41213122616,1000
Restaurant de Fontenay,"Chemin de Fontenay 7B, 1007 Lausanne",,,+41216166969,1000
Restaurant du Port de Pully,"Route du Port 7, 1009 Pully",contact@pullyport.ch,,+41217287878,1000
"Restaurant du Tennis-Club, Stade Lausanne","Avenue de Rhodanie 53, 1007 Lausanne",,,+41216162687,1000
Restaurant FU LI,"Avenue de Chailly 21, 1012 Lausanne",chailly.fuli@gmail.com,,+41216530328,1000
Restaurant Il Ghiotto,"Rue Cité-Devant 6, 1005 Lausanne",,,+41213120757,1000
Restaurant La Bohème,"Rue du Tunnel 1, 1005 Lausanne",,,+41213129090,1000
Restaurant LA NAUTICA OUCHY,"Chemin des Pêcheurs 7, 1007 Lausanne",info@lanautica.ch,,+41216160111,1000
Restaurant le Tokyo,"Rue Côtes-de-Montbenon 22, 1003 Lausanne",le.tokyo.restaurant@gmail.com,,+41213110013,1000
Anne-Sophie Pic,"Chemin de Beau-Rivage 21, 1006 Lausanne",asp@brp.ch,,+41216133339,1000
Aquatis Hotel SA,"Route de Berne 150, 1010 Lausanne",info@aquatis-hotel.ch,,+41216542424,1000
Au Canard Pékinois,"Place Chauderon 16, 1003 Lausanne",,,+41213290323,1000
Broadway Av.,"Place du Tunnel 9, 1005 Lausanne",,,+41213230009,1000
Café Beau-Rivage,"Place du Port 17, 1006 Lausanne",cafe@brp.ch,,+41216133330,1000
Café de Boisy,"Chemin du Boisy 41, 1004 Lausanne",boisy@restaurant.ch,,+41216461844,1000
Café du Vieil-Ouchy,"Place du Port 3, 1006 Lausanne",,,+41216162194,1000
du Village,"Avenue de Chailly 59, 1012 Lausanne",,,+41217289243,1000
l'Esquisse,"Route du Signal 2B, 1018 Lausanne",,,+41213205007,1000
Le Carrousel de Vidy SA,"Allée du Bornan 8, 1007 Lausanne",carrousel-vidy@bluewin.ch,,+41216014030,1000
Les Bosquets,"Avenue d'Echallens 54, 1004 Lausanne",,,+41216247446,1000
Miyako,"Place du Port 17, 1006 Lausanne",miyako@brp.ch,,+41216133391,1000
Piazza San Marco,"Avenue d'Ouchy 38, 1006 Lausanne",,,+41216012720,1000
Red-Sea,"Rue de la Tour 17, 1004 Lausanne",,,+41213110387,1000
Restaurant et café maison de Faverges,"Chemin des Faverges 17, 1006 Lausanne",Chsacramento74@gmail.com,,+41217287009,1000
Restaurant La Muraille,"Rue de Bourg 10, 1003 Lausanne",,,+41213117002,1000
Sidewalk Café,"Place du Tunnel 9, 1005 Lausanne",,,+41213238008,1000
Brasserie des Sauges,"Avenue du Grey 58, 1018 Lausanne",info@brasserie-des-sauges.com,,+41216477486,1000
1004 Café Restaurant,"Rue de Genève 87, 1004 Lausanne",,,+41216261004,1000
à la Bossette,"Place du Nord 4, 1005 Lausanne",,,+41213201585,1000
A La Pomme de Pin,"Rue Cité-Derrière 11, 1005 Lausanne",,,+41213234656,1000
Barberousse Bar,"Rue de Genève 17, 1003 Lausanne",,,+41213230707,1000
BG Café Bongénie Brunschwig Group,"Place Saint-François 10, 1003 Lausanne",,,+41213452745,1000
Brasserie de la forêt,"Route du Pavement 75, 1018 Lausanne",,,+41216480815,1000
Brasserie du Château,"Place du Tunnel 1, 1005 Lausanne",,,+41213126011,1000
Brasserie LesTrois Rois,"Rue du Simplon 7, 1006 Lausanne",,,+41216163822,1000
Café de Grancy,"Avenue du Rond-Point 1, 1006 Lausanne",,,+41216168666,1000
"Café, Restaurant des Alpes","Avenue des Alpes 20, 1009 Pully",,,+41217283311,1000
Cavallo Bianco,"Place Chauderon 24, 1003 Lausanne",,,+41216250970,1000
Chez Loïc Sàrl,"Avenue de Cour 63, 1007 Lausanne",,,+41216255512,1000
Chez ma Cousine,"Place Pépinet 1, 1003 Lausanne",,,+41213114868,1000
Culture Café,"Rue de Genève 6, 1003 Lausanne",,,+41212138547,1000
Eat Me Restaurant & Coktail Lounge,"Rue Pépinet 3, 1003 Lausanne",,,+41213117659,1000
Ephese,"Rue Neuve 4, 1003 Lausanne",,,+41213118209,1000
Grütli,"Rue Mercerie 4, 1003 Lausanne",,,+41213129493,1000
Gymnase du Bugnon,"Rue du Bugnon 5, 1005 Lausanne",,,+41213163685,1000
Hoa Sen,"Rue du Clos-de-Bulle 5, 1004 Lausanne",,,+41213235540,1000
Holy Cow ! Gourmet Burger Company SA,"Rue Cheneau-de-Bourg 17, 1003 Lausanne",,,+41213122404,1000
l'Amica M.F. Alves da Cunha,"Avenue de la Sallaz 31, 1010 Lausanne",,,+41216522944,1000
la Pêcherie,"Chemin des Bains 1, 1009 Pully",,,+41217282743,1000
"la Pinte Vaudoise, Association Restaurant d'Application","Avenue Général-Guisan 42, 1009 Pully",,,+41217210728,1000
la Rotonde,"Avenue du Temple 65, 1012 Lausanne",,,+41216520971,1000
La Suite,"Rue du Petit-Chêne 28, 1003 Lausanne",,,+41213206030,1000
la Terrasse,"Avenue de Montchoisi 26, 1006 Lausanne",,,+41216166400,1000
Lausanne CFF Subway,"Place de la Gare, 1003 Lausanne",,,+41215550260,1000
Le Bistrot de Fernand,"Avenue de Lavaux 63, 1009 Pully",,,+41217291020,1000
Le Copernic,1015 Lausanne,,,+41216932014,1000
le Florida,"Avenue Frédéric-César-de-la-Harpe 19, 1007 Lausanne",,,+41216165399,1000
Le Musée Olympique,"Quai d'Ouchy 1, 1006 Lausanne",tomcafe@olympic.org,,+41216216708,1000
Le Petit Central,"Chemin des Bluets 9, 1009 Pully",,,+41218610797,1000
Ma-Jong SA,"Escaliers du Grand-Pont 3, 1003 Lausanne",,,+41213290525,1000
Naville Café Presse Lausanne Maternite,"Avenue Pierre-Decker 3, 1005 Lausanne",,,+41213111040,1000
Nazar,"Avenue de Morges 26, 1004 Lausanne",,,+41216252510,1000
Pat' Pizza et Kebab,"Chemin des Croix-Rouges 2, 1007 Lausanne",,,+41213511515,1000
Patinoire et Piscine de Montchoisi,"Avenue Antoine-Michel-Servan 30, 1006 Lausanne",,,+41216161064,1000
Populaire,"Route du Jorat 67, 1000 Lausanne 26",,,+41217841131,1000
Restaurant-Brasserie de la Treille,"Route de Cossonay 26, 1008 Prilly",treille@hotmail.com,,+41216260340,1000
restaurant du Bourg,"Rue de Bourg 51, 1003 Lausanne",,,+41213231423,1000
Saint Pierre,"Galeries Benjamin-Constant 1, 1003 Lausanne",,,+41213233636,1000
Sushi Shop Lausanne Sàrl,"Galerie Saint-François A, 1003 Lausanne",,,+41900826826,1000
Tradiswiss,"Avenue Emile-Henri-Jaques-Dalcroze 9, 1007 Lausanne",,,+41216165555,1000
Vapiano,"Place de la Gare 4, 1003 Lausanne",,,+41213204848,1000
Villeclair,"Route Aloys-Fauquez 110, 1018 Lausanne",,,+41216472196,1000
Takayama Restaurant Japonais,"Avenue d'Ouchy 58, 1006 Lausanne",,http://www.takayama-sushibar-lausanne.ch/,+41216019888,1000
Restaurant Japonais Sakura,"Chemin de Pierrefleur 30, 1004 Lausanne",fleursakura@hotmail.com,https://www.restaurant-sakura.ch/,+41216469966,1000
Song Phi Nong Traiteur,"Rue Beau-Séjour 27, 1003 Lausanne",songphinongtraiteur@gmail.com,https://www.songphinongtraiteur.com/,+41213121305,1000
Oy Isan Thaï Food,"Avenue Juste-Olivier 5, 1006 Lausanne",,https://www.oyisan.ch/,+41215520969,1000
dieci Pizza Lausanne Est-Pully,"Avenue Samson-Reymondin 27, 1009 Pully",,http://www.dieci.ch/,+41219071010,1000
Le Juventino,"Avenue Collonges 1, 1004 Lausanne",,https://www.juventino-bar.ch/,+41216476598,1000
Restaurant le Rossignol,"Avenue du Léman 36, 1005 Lausanne",,https://www.restaurantlerossignol.ch/,+41217280956,1000
Obeirut restaurant,"Rue Bellefontaine 2, 1003 Lausanne",,,+41213491010,1000
Barbecue Coréen - Au Gourmand,"Avenue Louis-Ruchonnet 26, 1003 Lausanne",augourmand@bluewin.ch,,+41213115474,1000
Ho-Wan SA,"Route de Vevey 43, 1009 Pully",howan-pully@hotmail.com,,+41217286685,1000
Le Thaï au Lac,"Avenue Emile-Henri-Jaques-Dalcroze 9, 1007 Lausanne",info@thaiaulac.ch,,+41216011000,1000
Non Solo,"Avenue du Tribunal-Fédéral 5, 1005 Lausanne",info@non-solo.ch,,+41213111612,1000
Ristorante Amici,"Rue Dr César-Roux 5, 1005 Lausanne",,,+41213115125,1000
7 Kings Curry,"Rue du Grand-Pont 18, 1003 Lausanne",,,+41213115594,1000
Café - Restaurant La Gourmandine Chew,"Chemin de Fontanettaz 11, 1009 Pully",,,+41217296086,1000
Dario Traiteur SA,"Avenue de Jurigoz 20, 1006 Lausanne",,,+41216016060,1000
Giraf restaurant Vieux-Lausanne,"Rue Pierre-Viret 6, 1003 Lausanne",vieuxlo@vtxnet.ch,,+41213235390,1000
Le Papillon Chinois,"Rue Couchirard 8, 1004 Lausanne",,,+41793475007,1000
Tacos Planet,"Avenue Marc-Dufour 19, 1007 Lausanne",,,+41215252818,1000
Titti Multi-services,"Chemin du Furet 9, 1018 Lausanne",,,+41774355368,1000
Café-Restaurant Chinois Dongpo,"Rue du Maupas 34, 1004 Lausanne",,,+41216472504,1000
Café Restaurant New Delhi,"Avenue Louis-Ruchonnet 2, 1003 Lausanne",,,+41213236461,1000
Code bar restaurant Sàrl,"Avenue Louis-Ruchonnet 2, 1003 Lausanne",,,+41213124477,1000
Cuba Libre Restaurant,"Chemin de Boissonnet 77, 1010 Lausanne",,,,1000
L'Accademia,"Place du Port 11, 1006 Lausanne",accademia@brp.ch,,+41216133434,1000
Le Théâtre Restaurant,"Avenue du Théâtre 12, 1005 Lausanne",rest.theatre@bluewin.ch,,+41213515115,1000
Maison Thai Pully,"Avenue de Lavaux 61, 1009 Pully",,,+41217112624,1000
Palace Sushi Zen,"Rue du Grand-Chêne 7, 1003 Lausanne",,,+41213313988,1000
Restaurant Abyssinia,"Rue du Valentin 14, 1004 Lausanne",info@abyssinia.ch,,+41213114907,1000
Restaurant Atlantic,"avenue du Chablais, 1007 Lausanne",,,,1000
Restaurant Da Nino,"Dorigny, 1015 Ecublens",info@restaurant-danino.ch,,+41216922688,1000
Restaurant Italien Ulivo,"Chemin de Couvaloup 13, 1005 Lausanne",,,+41215446682,1000
Restaurant L'Echo Sàrl,"Rue de Bourg 13, 1003 Lausanne",,,+41213120808,1000
Restaurant l'Etoile,"Rue de Genève 102, 1004 Lausanne",,,+41216251544,1000
Restaurant le Piranha,"Route de Berne 144, 1010 Lausanne",info@aquatis-hotel.ch,,+41216542411,1000
Restaurant Le Vieux-Lausanne,"Rue Pierre-Viret 6, 1003 Lausanne",vieuxlo@vtxnet.ch,,+41213235390,1000
takasan asia fusion restaurant,"Avenue du Théâtre 7, 1005 Lausanne",,,+41213237484,1000
Zafferano Restaurant,"Avenue de Tivoli 60, 1007 Lausanne",,,+41216244302,1000
Restaurant de Dorigny,1015 Lausanne,,,+41216922688,1000
Café-Restaurant à l’étage,1003 Lausanne,,,,1000
Café Restaurant du Nord,"Route Aloys-Fauquez 98, 1018 Lausanne",,,+41216477732,1000
Café-restaurant La Gourmandise,"Avenue de Beaumont 22, 1012 Lausanne",,,+41215257039,1000
Café-restaurant Lausanne-Moudon SA,"Rue du Tunnel 20, 1005 Lausanne",,,+41213290471,1000
Café-Restaurant Red Sea Sàrl,"Rue de la Tour 17, 1004 Lausanne",,,+41213110387,1000
Eritrean Bar Restaurant,"Rue de la Borde 3B, 1018 Lausanne",,,+41764881984,1000
Herat Restaurant,"Avenue Alexandre-Vinet 22, 1004 Lausanne",heratkebab@gmail.com,,+41216473035,1000
Kazoku Sushi bar & Restaurant,"Avenue d'Echallens 60, 1004 Lausanne",info@kazoku.ch,,+41216252566,1000
La Pinte Besson,"Rue de l'Ale 4, 1003 Lausanne",,,+41213125969,1000
Luigia - Restaurant Pizzeria,"Rue Saint-Pierre 3, 1003 Lausanne",,,+41215520303,1000
M.E.H. Restaurant Sàrl,"Avenue de Morges 119, 1004 Lausanne",,,+41216250554,1000
Maharaja,"Avenue de France 2, 1004 Lausanne",commande@maharaja-lausanne.ch,,+41216243033,1000
McDonald's Restaurant,"Rue Saint-Laurent 20, 1003 Lausanne",,,+41213204679,1000
McDonald's Restaurant,"Rue de Bourg 47, 1003 Lausanne",,,+41213110022,1000
Migros Restaurant Bergières,"Avenue Bergières 50, 1004 Lausanne",,,+41585736580,1000
Migros Restaurant Métropole,"Rue des Terreaux 25, 1003 Lausanne",,,+41585735080,1000
Migros Restaurant Pully,"Chemin du Pré-de-la-Tour 3, 1009 Pully",,,+41585735852,1000
Quai 14 - Cafe - Restaurant,"Avenue de Sévelin 14, 1004 Lausanne",,,+41213158061,1000
Restaurant & Bar 'Chez elle',"Passage Saint-François 2, 1003 Lausanne",,,+41217296520,1000
Restaurant Café-Café,"Chemin du Bois-de-Vaux 20, 1007 Lausanne",,,+41213571800,1000
Restaurant chez Giovanni,"Avenue de France 18A, 1004 Lausanne",,,+41216240763,1000
Restaurant de l'E.T.M.L.,"Rue de Sébeillon 12, 1004 Lausanne",,,,1000
Restaurant de la Tour,"Rue de la Tour 14, 1004 Lausanne",,,+41213230937,1000
Restaurant de la Vallonnette,"Avenue de la Vallonnette 24, 1012 Lausanne",,,+41216525158,1000
"Restaurant Delta du Mékong, Mo","Route des Flumeaux 1, 1008 Prilly",,,+41216257361,1000
Restaurant des Falaises,"Chemin des Falaises 1, 1005 Lausanne",,,+41223641035,1000
Restaurant du Golf,"Route du Golf 3, 1000 Lausanne",,,+41217848484,1000
Restaurant Gambatte,"Rue Pré-du-Marché 15, 1004 Lausanne",,,+41213201818,1000
Restaurant Isshin,"Place Chauderon 30, 1003 Lausanne",,,+41216248221,1000
Restaurant Ium,"Place du Tunnel 8, 1005 Lausanne",,,+41213116311,1000
Restaurant Jacques,"Rue Beau-Séjour 15, 1003 Lausanne",,,+41215448875,1000
Restaurant KR,"Avenue de France 38, 1004 Lausanne",,,+41216253737,1000
Restaurant L'Esplanade Messidor,"Chemin Messidor 7, 1006 Lausanne",,,+41213206050,1000
Restaurant l'Esprit Bistrot - Hôtel Alpha-Palmiers,"Rue du Petit-Chêne 34, 1003 Lausanne",,,+41215555991,1000
Restaurant La Poesia,"Avenue du Chablais 53, 1007 Lausanne",,,+41215255585,1000
Restaurant Le Fontan,"Chemin de Fontadel 2, 1008 Prilly",,,+41791326860,1000
Restaurant le Jardin Thaï - Hôtel Alpha-Palmiers,"Rue du Petit-Chêne 34, 1003 Lausanne",r@byf.ch,,+41215555990,1000
Restaurant Le Prieuré,"Avenue du Prieuré 2A, 1009 Pully",,,+41217282740,1000
Restaurant Le Shanghai Sàrl,"Place du Tunnel 6, 1005 Lausanne",,,+41213126280,1000
Restaurant Le Tournesol,"Chemin du Petit-Flon 49, 1018 Lausanne",,,+41216414029,1000
Restaurant LStadio,"Route de Romanel 10, 1018 Lausanne",,,+41216833000,1000
Restaurant Tang Roulou,"Chemin Antoine-de-Chandieu 2, 1006 Lausanne",,,+41216165519,1000
Restaurant Troubadour,"Rue Dr César-Roux 6, 1005 Lausanne",,,+41213123715,1000
Sakura Japanese Restaurant,"Chemin de Pierrefleur 30, 1004 Lausanne",,,+41216469966,1000
Sicily Restaurant,"Avenue de la Vallonnette 24, 1012 Lausanne",,,+41216530402,1000
Uchitomi SA,"Ruelle Grand-St-Jean 5, 1003 Lausanne",,,+41213124001,1000
Juillerat Lepori architectes & Partenaires SA,"Avenue Eugène-Rambert 24, 1005 Lausanne",info@jlparchitectes.ch,http://www.jlparchitectes.com/,+41217210010,1000
Hotel & Gastro Union,"Avenue des Acacias 16, 1006 Lausanne",info.vd@hotelgastrounion.ch,http://www.hotelgastrounion.ch/,+41216162707,1000
Coop,"Route de Cossonay 28, 1008 Prilly",,,+41216200723,1000
Hôtel du Raisin,"Place de la Palud 19, 1003 Lausanne",info@leraisin-lausanne.ch,,+41213122756,1000
Boulangerie des Bergières,"Avenue Bergières 30, 1004 Lausanne",boulangerie.bergieres@gmail.com,https://www.boulangerie-bergieres.ch/,+41216472646,1000
dieci Pizza Lausanne-Ouest,"Avenue de Morges 74, 1004 Lausanne",,http://www.dieci.ch/,+41216481010,1000
le Petit Coin Gourmand,"Avenue de Cour 6A, 1007 Lausanne",info@lepetitcoingourmand-lausanne.ch,https://www.lepetitcoingourmand-lausanne.ch/,+41216178838,1000
LABO Gelateria,"Avenue de Chailly 1b, 1012 Lausanne",info@labo-gelateria.ch,http://www.labo-gelateria.ch/,+41794111043,1000
Montchoisi Gourmand,"Avenue Antoine-Michel-Servan 36, 1006 Lausanne",,http://www.lepetitcoingourmand-lausanne.ch/,+41215464249,1000
Tennis-Club Stade-Lausanne,"Avenue de Rhodanie 53, 1007 Lausanne",,http://www.tennislausanne.ch/,+41216163800,1000
Uchitomi SA,"Rue Grand-St-Jean 4, 1003 Lausanne",,http://www.uchitomi.ch/,+41213124001,1000
Brasserie des Bergières SA,"Avenue Bergières 42, 1004 Lausanne",,https://www.brasserie-des-bergieres.com/,+41216481415,1000
Tea Room de Beaulieu,"Avenue Alexandre-Vinet 39, 1004 Lausanne",info@tearoomdebeaulieu.ch,http://www.tearoomdebeaulieu.ch/,+41216478220,1000
Coffee Shop Sleepy Bear,"Rue du Simplon 3A, 1006 Lausanne",,https://sleepybearcoffee.ch/,+41216164000,1000
Swiss Rent Car Sàrl,"Avenue du Mont-d'Or 48, 1007 Lausanne",info@swissrentcar.ch,http://www.swissrentcar.ch/,+41840900900,1000
Cuppin's Minedine & Co Sàrl,"Rue du Petit-Chêne 20, 1003 Lausanne",info@cuppins.ch,,+41213110373,1000
"Food Halal, Saghrouni","Rue des Oliviers 1, 1018 Lausanne",info@foodhalal.ch,,+41213200200,1000
La BOUCHE qui RIT Madeleine,"Rue Madeleine 10, 1003 Lausanne",,,+41213119595,1000
Pz Pizza,"Rue Grand-St-Jean 5, 1003 Lausanne",info@pzpizza.ch,,+41213128282,1000
Yatus - Lausanne,"Rue du Petit-Chêne 11, 1003 Lausanne",lausanne@yatus.ch,,+41213124501,1000
Au Solstice,"Chemin du Levant 1, 1005 Lausanne",,,+41213123336,1000
Myò Sushi,"Allée Ernest-Ansermet 1, 1003 Lausanne",,,+41213232288,1000
Almara Sàrl,"Sentier de Fleur-de-Lys 4, 1008 Prilly",,,+41216251666,1000
BP Service Blécherette,"Avenue du Grey 119, 1018 Lausanne",,,+41216482340,1000
Coop,"Rue Saint-Laurent 24-30, 1003 Lausanne",,,+41213217070,1000
Ecole hôtelière de Lausanne (EHL),"Route de Cojonnex 18, 1000 Lausanne 25",,,+41217851111,1000
Fleur de Pains SA,"Avenue d'Ouchy 73, 1006 Lausanne",,,+41216138001,1000
Fleur de Pains SA,"Route de Berne 1, 1010 Lausanne",,,+41216138007,1000
Fleur de Pains SA,"Route des Plaines-du-Loup 11, 1018 Lausanne",,,+41216138006,1000
GeA Gelateria Artigianale Sàrl,"Rue Enning 8, 1003 Lausanne",gea.gelato@gmail.com,,+41213116400,1000
Il Forno Bellantoni Sàrl,"Avenue de Rumine 7, 1005 Lausanne",,,+41213119292,1000
Le Marrakech,"Chemin des Falaises 2, 1005 Lausanne",info@restaurant-lemarrakech.ch,,+41213240101,1000
le Romantica,"Boulevard de Grancy 24, 1006 Lausanne",,,+41216162772,1000
Mexicana - Traiteur Mexicain,"Rue Centrale 5, 1003 Lausanne",mexicanalausanne@gmail.com,,+41782594636,1000
NOLF Bar,"Rue du Port-Franc 11, 1003 Lausanne",,https://www.facebook.com/NOLF-bar-2235250676802502,+41213110497,1000
Pouly,"Rue Centrale 5, 1003 Lausanne",,,+41213125294,1000
Pouly,"Rue de la Grotte 1, 1003 Lausanne",,,+41213126837,1000
Pouly,"Rue du Petit-Chêne 1, 1003 Lausanne",,,+41213123153,1000
Pouly,"Rue Marterey 76, 1005 Lausanne",,,+41213117656,1000
speed food,"Route de Cossonay 25, 1008 Prilly",,,+41213113064,1000
Sucré-Salé SA,"Avenue de Cour 80, 1007 Lausanne",,,+41216013379,1000
Sushi Metropole,"Rue des Terreaux 25, 1003 Lausanne",,,+41213318888,1000
The Great Escape,"Rue Madeleine 18, 1003 Lausanne",,,+41213123194,1000
ATA SA,"Avenue de Rumine 22, 1005 Lausanne",,,+41213120909,1000
Au vieux Caveau,"Rue de la Gare 11, 1009 Pully",,,+41217282749,1000
Aux fleurs de la Terre,"Avenue de Cour 74, 1007 Lausanne",info@auxfleursdelaterre.ch,,+41216178525,1000
aux Trois Bonheurs,"Avenue du Tribunal-Fédéral 1, 1005 Lausanne",,,+41213121155,1000
Bambou,"Avenue Général-Guisan 16, 1009 Pully",,,+41217112088,1000
Bar Le 20,"Rue du Petit-Chêne 11, 1003 Lausanne",,,,1000
Base Bar,"Avenue de Sévelin 46, 1004 Lausanne",info@basebarlausanne.com,,+41216255681,1000
Be Oh! Sàrl,"Rue de Bourg 16-20, 1003 Lausanne",contact@beoh.ch,,+41213110220,1000
Bibibowl,"Place Grand-St-Jean 2, 1003 Lausanne",info@bibibowl.ch,,+41212192915,1000
Blackbird Downtown Diner,"Route de Bel-Air 1, 1003 Lausanne",,,,1000
Boky,"place de la Gare 2, 1003 Lausanne",,,+41213127030,1000
Bravissimo,"Rue Marterey 25, 1005 Lausanne",,,+41213231827,1000
Cafe Barath,"Rue Pichard 8, 1003 Lausanne",kabinan@gmail.com,,+41213115612,1000
Café-Café,"Chemin du Bois-de-Vaux 20, 1007 Lausanne",,,,1000
Café des Bouchers,"Avenue du Chablais 21, 1008 Prilly",,,+41216240808,1000
Cafe Enning,"Rue Enning 10 bis, 1003 Lausanne",lausanne@ecocafe.ch,,+41213110953,1000
Chez Jaime,"Rue de l'Ale 43, 1003 Lausanne",,,,1000
Churrasco,"Rue de Bourg 51, 1003 Lausanne",,,+41213231423,1000
Churrasqueira Lausannoise,"Rue du Tunnel 14, 1005 Lausanne",,,,1000
Cipollino,"Passage Saint-François 2, 1003 Lausanne",,,,1000
Cipriano - wine & ham,"Rue du Port-Franc 11, 1003 Lausanne",drink@cipriano-bar.ch,,+41215330015,1000
Coin Cafe,"Rue Caroline 17, 1003 Lausanne",info@coincafe.ch,,,1000
Cuisine Orientale,"Avenue Emile-Henri-Jaques-Dalcroze 9, 1007 Lausanne",info@cuisineorientale.ch,,+41216165555,1000
Cuisine Orientale C&O,"Avenue Emile-Henri-Jaques-Dalcroze, 1007 Lausanne",,,,1000
Cups n' Cakes,"Avenue du Tribunal-Fédéral 2, 1005 Lausanne",mail@cupsncakes.ch,,+41797027918,1000
Cut pizza losanna,"Rue Sainte-Beuve 9, 1005 Lausanne",lausanne@cutpizza.ch,,+41213110391,1000
Diabolo Pizza,"Avenue William-Fraisse 9, 1006 Lausanne",saghrouni@yahoo.com,,+41216015656,1000
Doki Doki,"Avenue du Tribunal-Fédéral 4, 1005 Lausanne",dokidoki.lausanne@gmail.com,,+41212192414,1000
Dong Fang,"Avenue de la Gare 20, 1003 Lausanne",,,+41213127030,1000
East Side Café Sàrl,"Avenue Général-Guisan 4, 1009 Pully",info@eastsidepully.ch,,+41217295582,1000
El Batan,"Avenue de Morges 119, 1004 Lausanne",restaurant@elbatan.ch,,+41216250554,1000
El Gato,"Rue Marterey 19, 1005 Lausanne",info@elgatopatisserie.ch,,+41213111794,1000
FUSION by Sushizen,"Avenue des Boveresses 56, 1010 Lausanne",administration@sushizen.ch,,+41216011529,1000
Galerie Port Franc,"Rue Côtes-de-Montbenon 14, 1003 Lausanne",galerieportfranc@bluewin.ch,,+41786391058,1000
Happy Days,"Rue Saint-Pierre 3, 1003 Lausanne",,,+41213240606,1000
Harmonie,"Chemin des Oisillons 2, 1009 Pully",,,+41217291929,1000
INGLEWOOD - Saint-Laurent,"Rue Saint-Laurent 14, 1003 Lausanne",inglewood.burgers@gmail.com,,+41213236388,1000
iSushi,"Chemin de Fontadel 2, 1008 Prilly",isushi.prilly@gmail.com,,+41215592652,1000
Jardin Gourmand,"Route du Jorat 80, 1000 Lausanne",mail@chevreuils.ch,,+41217850101,1000
Jetée de la Compagnie,"Jetée de la Compagnie, 1007 Lausanne",contact@ilakelausanne.ch,,,1000
"KAMASUTRA, Thangaraja Sivaraja","rue du Valentin 23, 1004 Lausanne",,,+41213123777,1000
King Size Pub,"Rue du Port-Franc 16, 1003 Lausanne",,,,1000
L'Arrosoir,"Rue Centrale 23, 1003 Lausanne",,,,1000
L'Assise,"Avenue de Cour 103, 1007 Lausanne",hello@l-assise.ch,,+41218888828,1000
L'Etoile Blanche,"Place Benjamin-Constant 2, 1003 Lausanne",contact@etoileblanche.ch,,+41213512460,1000
L'or des Incas,"Avenue Alexandre-Vinet 24, 1004 Lausanne",Lordesincaslausanne@gmail.com,,+41774781251,1000
L'union des Saveurs,"Rue de la Barre 6, 1005 Lausanne",luniondessaveurs@gmail.com,,+41789037929,1000
La Brasserie de l'Unithèque,"Avenue de l'Université, 1005 Lausanne",nino@unil.ch,,+41216922673,1000
La Brasserie du Royal,"Avenue d'Ouchy 40, 1006 Lausanne",brasserie@royalsavoy.ch,,+41216148888,1000
la Bruschetta,"Avenue de la Gare 20, 1003 Lausanne",,,+41213125734,1000
La Ferme du Désert,"Chemin de Pierrefleur 74, 1004 Lausanne",,,+41799401036,1000
La Galicienne,"Chemin du Viaduc 2, 1008 Prilly",,,+41767405887,1000
La Gazelle,"Rue de l'Ale 35, 1003 Lausanne",lagazellelausanne@gmail.com,,+41213112445,1000
la Jonque,"Avenue de Cour 15, 1007 Lausanne",lajonque1007@gmail.com,,+41216165511,1000
La Mecanique des Fluides,"Rue du Midi 20, 1003 Lausanne",lamecadesfluides@gmail.com,,+41787096161,1000
La Pergola,"Chemin des Allinges 10, 1006 Lausanne",lapergola@montchoisi.ch,,+41791243731,1000
La Table de Vallotton,"Bâtiment EPFL Innovation Park, 1015 Lausanne",,,+41793115889,1000
La Vague,"Sentier de Fleur-de-Lys 4, 1008 Prilly",restaurant.lavague@bluewin.ch,,+41216251788,1000
La Vaudaire,"Chemin du Camping 7, 1007 Lausanne",info@la-vaudaire.ch,,+41215459940,1000
lauraworld catering O'Centre du goût,"Chemin du Chalet-de-Praroman 12, 1000 Lausanne 25",laura@lauraworld.ch,,+41219033827,1000
Le Barock,"Rue du Port-Franc 11, 1003 Lausanne",reservation@lebarock.ch,,+41213235252,1000
Le Boccalino - Lausanne,"Avenue d'Ouchy 76, 1006 Lausanne",,,+41216163539,1000
Le Bruxelles Cafe,"Place de la Riponne 1, 1005 Lausanne",info@proresto.ch,,+41213113301,1000
Le Ciao,"avenue de Rhodanie 4, 1007 Lausanne",,,,1000
Le Duo Thaï & Sushi,"Rue Mathurin-Cordier 13, 1005 Lausanne",,,+41213240202,1000
Le Marrakech,"Chemin des Falaises, 1005 Lausanne",,,,1000
le National,"Rue Neuve 13, 1003 Lausanne",,,+41213122262,1000
Le Nil Bleu,"Avenue Villamont 17, 1005 Lausanne",,,+41213128980,1000
Le P'tit Vidy,"Avenue de Montoie 53, 1007 Lausanne",,,+41217317171,1000
Le Perroquet,"Ruelle du Flon 4, 1003 Lausanne",,,,1000
Le Spot,"Rue du Midi 12, 1003 Lausanne",hello@le-spot.ch,,+41213573827,1000
Le Vestibule,"Rue Cité-Devant 4, 1005 Lausanne",info@le-vestibule.ch,,+41215152939,1000
Leonardo Mangi Sano Vivi Bene,"Voie du Chariot 6, 1003 Lausanne",,,+41213114970,1000
Les Boucaniers,"Avenue du Tribunal-Fédéral 2, 1005 Lausanne",info@lesboucaniers.ch,,+41213200202,1000
Les Escapades Gourmandes (LEG),"Chemin de Rovéréaz 23, 1012 Lausanne",info@lesescapadesgourmandes.ch,,+41582117050,1000
Les Jardins De Pam,"Rue Côtes-de-Montbenon 20, 1003 Lausanne",info@jardinsdepam.ch,,+41213112955,1000
Les Rues de Saigon Sàrl,"Rue du Bugnon 24, 1005 Lausanne",,,+41212185999,1000
Little Persia,"Avenue Louis-Ruchonnet 7, 1003 Lausanne",info@little-persia.ch,,+41213573857,1000
Longhorn,"Rue Saint-Pierre 3, 1003 Lausanne",reservation@longhornsteakhouse.ch,,+41213240606,1000
loom - gelateria 1900,"Boulevard de Grancy 45, 1006 Lausanne",info@loom-gelateria.ch,,+41216475027,1000
Lucha Libre,"Place de l'Ours 1, 1005 Lausanne",,,,1000
Luncheonette,"Rue Grand-St-Jean 5, 1003 Lausanne",info@luncheonette.ch,,+41789125510,1000
:Maison66,"Rue de Genève, 1004 Lausanne",,,,1000
Man'ouchy,"Rue Dr César-Roux 9, 1005 Lausanne",info@manouchy.ch,,+41213118050,1000
Mangiobevo,"Avenue de France 68, 1004 Lausanne",info@mangiobevo.ch,,+41792857051,1000
MGM Café,"Rue du Lac 14, 1007 Lausanne",,,+41216163881,1000
Mizumiy,"Rue du Grand-Pont 8, 1003 Lausanne",mizumiy@ro.ru,,+41212113534,1000
Montreux Jazz Cafe,"Bâtiment EPFL Innovation Park, 1015 Lausanne",lausanne@montreuxjazzcafe.com,,+41216938900,1000
Nomade,"Place de l'Europe 9, 1003 Lausanne",contact@restaurantnomade.ch,,+41213201313,1000
P'tit Resto,"Place de l'Europe, 1003 Lausanne",,,+41275465432,1000
Pasta e Sfizi,"Avenue d'Ouchy 3, 1006 Lausanne",,,,1000
Paulo's,"Avenue Bergières 20, 1004 Lausanne",paulospaulos71@gmail.com,,+41216470456,1000
Piadineria Mamma Mia,"Avenue du Chablais 35, 1008 Prilly",,,,1000
Pida Bar,"Rue de la Louve 12, 1003 Lausanne",info@pidabar.com,,+41213119193,1000
Pinte Du Lac de Sauvabelin,"Chemin des Celtes 1, 1018 Lausanne",info@pinte-de-sauvabelin.ch,,+41216473938,1000
Planet Bowl,"Boulevard de Grancy 58, 1006 Lausanne",,,,1000
Plant Smart,"Rue de Genève 17, 1003 Lausanne",info@plantsmart.ch,,+41215589026,1000
Pomodoro della Nonna,"Rue Louis-Curtat 6, 1005 Lausanne",raphael@pomodoro-della-nonna.ch,,+41213122616,1000
Ristorante La Molisana,"Avenue de Tivoli 68, 1007 Lausanne",info@molisana.ch,,+41216248300,1000
Royal India,"Rue Chaucrau 14, 1003 Lausanne",,,+41213116747,1000
Rumah,"Chemin Antoine-de-Chandieu 12, 1006 Lausanne",rumahlausanne@gmail.com,,+41216160941,1000
Sabaidee Thai-Vieng,"Rue du Bugnon 24, 1005 Lausanne",info@sabaidee-thai-vieng.ch,,+41215445959,1000
Sardine,"Rue de la Barre 3, 1005 Lausanne",,,,1000
Saveurs d'Ailleurs,"Avenue d'Ouchy 67, 1006 Lausanne",info@saveursdailleurs.ch,,+41216016767,1000
ShowTime Food,"Rue du Maupas, 1004 Lausanne",showtimefood1004@gmail.com,,+41215355017,1000
Slice Pizza,"Rue du Valentin 23, 1004 Lausanne",,,+41213115349,1000
Snack De La Gare,"Avenue Louis-Ruchonnet 9, 1003 Lausanne",info@swisshallal.ch,,+41213121014,1000
Street Cellar,"Rue du Port-Franc 2, 1003 Lausanne",,,,1000
Sushizen,"Route des Noyerettes, 1015 Ecublens",szepfl@sushizen.ch,,+41216938500,1000
Sushizen,"Route Cantonale, 1015 Lausanne",szepfl@sushizen.ch,,+41216938500,1000
SUSHIZEN Epalinges,"Avenue des Boveresses 56, 1010 Lausanne",administration@sushizen.ch,,+41217841000,1000
SUSHIZEN Etraz,"Avenue des Boveresses 56, 1010 Lausanne",administration@sushizen.ch,,+41213111112,1000
SUSHIZEN Flon,"Avenue des Boveresses 56, 1010 Lausanne",administration@sushizen.ch,,+41213122103,1000
Sushizen Grancy,"Boulevard de Grancy 20, 1006 Lausanne",,,,1000
TACO'S BAR SA,"Rue de Genève 17, 1003 Lausanne",info@tacos-bar.ch,,+41213201525,1000
Tartares & Co Lausanne,"Rue de Genève 7, 1003 Lausanne",,,,1000
Tayta,"Avenue du Tribunal-Fédéral 2, 1005 Lausanne",contact@empanadas-tayta.com,,+41762094212,1000
The Hideaway,"Rue Cheneau-de-Bourg 1, 1003 Lausanne",,,,1000
THE HILL SA,"Rue de Bourg 39, 1003 Lausanne",,,+41213119173,1000
The Manhattan,"Rue de Genève 17, 1003 Lausanne",,,,1000
The Pancakes Mafia,"Rue des Terreaux 4, 1003 Lausanne",info@thepancakesmafia.ch,,+41213111979,1000
The Place 2B - Besame Mucho,"Avenue Emile-Henri-Jaques-Dalcroze 9, 1007 Lausanne",,,,1000
Ticino,"Place de la Gare 12, 1003 Lausanne",info@leticino.ch,,+41213203204,1000
Time Out,"Chemin du Pré-de-la-Tour 10, 1009 Pully",info@timeout-bar.ch,,+41217115171,1000
Uncle Gau,"Galerie Saint-François, 1003 Lausanne",,,,1000
Veganopolis Cafe,"Avenue des Bains 4C, 1007 Lausanne",cafe@veganopolis.org,,+41215466767,1000
Wawa's Asian Kitchen,"Rue du Port-Franc 8, 1003 Lausanne",mhng96@gmail.com,,+41786753111,1000
Wok Royal,"Chemin du Viaduc 1, 1008 Prilly",,,+41216262222,1000
Wuthrich,"Avenue Juste-Olivier 11, 1006 Lausanne",chocolaterie.wuthrich@swissonline.ch,,+41213125888,1000
Xpresso Cafe,"Rue des Terreaux 23, 1003 Lausanne",J.girardot@windowslive.com,,+41213119981,1000
YummiKa - Bar A Jus de Fruits,"Rue Enning 6, 1003 Lausanne",yummyk.juicefood@gmail.com,,+41799159192,1000
Zhiwei,"Avenue du Léman 19, 1005 Lausanne",,,,1000
Montchoisi,"Avenue Antoine-Michel-Servan 30, 1006 Lausanne",,,+41213154962,1000
Adriatico,"Rue de Genève 102, 1004 Lausanne",,,+41216249424,1000
Artishow Bar Gallery,"Rue Côtes-de-Montbenon 5, 1003 Lausanne",team@artishow.ch,,+41212183043,1000
Asia Express Chen,"Avenue Louis-Ruchonnet 1, 1003 Lausanne",lucie86@163.com,,+41213129892,1000
Aspendos,"Chemin des Roches 1, 1009 Pully",,,+41217114383,1000
Association Histoires Urbaines,"Rue Côtes-de-Montbenon 28, 1003 Lausanne",,,+41213115194,1000
Atelier des Gourmands,"Rue Mercerie 14, 1003 Lausanne",,,+41213112423,1000
Au Monopole,"Place Chauderon 8, 1003 Lausanne",,,,1000
Au Tournesol chez Laurence,"Avenue d'Echallens 44, 1004 Lausanne",,,+41216258520,1000
Aux 5 épices Sàrl,"Avenue du Prieuré 21, 1009 Pully",,,+41215250808,1000
Aux Délices d'Orient,"Rue du Simplon 19, 1006 Lausanne",,,+41216162670,1000
Aux Délices des Balkans,"Rue du Tunnel 16, 1005 Lausanne",,,+41796035794,1000
Aux Pates Fraiches,"Chemin des Cèdres 2B, 1004 Lausanne",,,+41217320808,1000
Aux Reflets des Isles,"Chemin de Renens 43, 1004 Lausanne",info@auxrefletsdesisles.ch,,+41216254157,1000
Aux Trois Tonneaux,"Rue Grand-St-Jean 18, 1003 Lausanne",zuzanna@aux-trois-tonneaux.ch,,+41213120266,1000
BaiBua,"Chemin des Croix-Rouges 8, 1007 Lausanne",,,+41212192797,1000
Balzac Take Away,"Boulevard de Grancy 49, 1006 Lausanne",,,+41216011605,1000
Banh mi Olimy,"Avenue de Cour 67, 1007 Lausanne",,,+41762227474,1000
Bar Tabac,"Rue Beau-Séjour 7, 1003 Lausanne",,,+41213123316,1000
Barca Malley,"Chemin du Viaduc 1, 1008 Prilly",,,+41216251825,1000
Belga Lausanne,"Place de l'Ours 1005, 1005 Lausanne",,,,1000
Bella Vita,"Avenue de la Gare 52, 1003 Lausanne",,,+41213121260,1000
"Bêp Viêt, Bui Nguyen","Rue du Bugnon 42, 1005 Lausanne",,,+41213114129,1000
Bluebird Café,"Rue Centrale 29, 1003 Lausanne",,,+41213115760,1000
Bodega,"Place du Tunnel 9, 1005 Lausanne",diego@don-diego.net,,+41797410806,1000
Bongusto Italiano Sàrl,"Avenue du Théâtre 7, 1005 Lausanne",,,+41213110555,1000
BP Service La Rosiaz,"Boulevard de la Forêt 1B, 1009 Pully",,,+41217297034,1000
BP Service Pully,"Avenue de Lavaux 38, 1009 Pully",,,+41217111711,1000
Brasserie de Malley,"Chemin de Renens 56, 1004 Lausanne",,,+41216259525,1000
Brasserie de Montbenon,"Allée Ernest-Ansermet 3, 1003 Lausanne",,,+41213204030,1000
Brasserie Le Cygne,"Rue du Maupas 2, 1004 Lausanne",,,+41213122180,1000
Brasseurs (les),"Rue Centrale 4, 1003 Lausanne",,,+41213511424,1000
BREF CAFE,"Avenue d'Echallens 48, 1004 Lausanne",info@bref-cafe.ch,,+41216252323,1000
Brezelkönig SA,"Place de la Gare 5A, 1003 Lausanne",,,+41213112120,1000
Bulldog Bar et Resto,"Rue du Port-Franc 17, 1003 Lausanne",info@bulldogbar.ch,,+41213119933,1000
Burger King,"Rue du Grand-Pont 10, 1003 Lausanne",,,+41213123337,1000
Cafe Cafe,"Chemin du Bois-de-Vaux 20, 1007 Lausanne",restaurant@cafe-cafe.ch,,+41213571800,1000
Cafe Cite,"Place de la Riponne 4, 1005 Lausanne",,,+41213232030,1000
Café de l'Europe,"Rue du Simplon 33, 1006 Lausanne",,,+41216165585,1000
Café du Simplon,"Avenue du Rond-Point 7, 1006 Lausanne",,,+41216163104,1000
Cafe Mogador,"Avenue de Montchoisi 5, 1006 Lausanne",,,+41216167000,1000
Café Romand,"Place Saint-François 2, 1003 Lausanne",,,+41213126375,1000
Caffè Spettacolo,1003 Lausanne,,,,1000
Casona Latina,"Rue de Genève 55 bis, 1004 Lausanne",info@casonalatina.ch,,,1000
CDM hôtels et restaurants SA,"Rue du Grand-Pont 2B, 1003 Lausanne",info@cdmgroup.ch,,+41216131000,1000
Chez Loïc Sàrl,"Avenue d'Echallens 70, 1004 Lausanne",,,+41216255511,1000
Chez Mario,"Rue de Bourg 28, 1003 Lausanne",info@chezmario.ch,,+41213237404,1000
Chez Rado,"Rue du Bugnon 6, 1005 Lausanne",rado.chocolat@gmail.com,,+41213234188,1000
Chez Tony,"Rue de Bourg 39, 1003 Lausanne",,,+41213120995,1000
Chinadomicile Sàrl,"Chemin de Fontanettaz 14, 1009 Pully",,,+41216161626,1000
chocolaterie Angehrn,"Rue Pichard 11, 1003 Lausanne",,,+41213128850,1000
Churrascaria et rodizio - Le chalet du désert,"Chemin de Pierrefleur 74, 1004 Lausanne",,,+41215565507,1000
Coffee & Co,"Place de la Navigation 2, 1006 Lausanne",,,+393357635469,1000
Coffee Page,"Rue du Midi 20, 1003 Lausanne",contact@coffee-page.ch,,+41212113238,1000
Couloir Cache,"Rue du Flon 12, 1003 Lausanne",couloircache@hotmail.com,,+41213112097,1000
Crazy Burger Sàrl,"Rue de la Pontaise 44, 1018 Lausanne",,,+41216240000,1000
Crazy Wolf,"Rue Haldimand 9, 1003 Lausanne",,,+41213234000,1000
Crêperie La Chandeleur,"Rue Mercerie 9, 1003 Lausanne",,,+41213128419,1000
Cucina 41,"Chemin des Clochetons 41, 1004 Lausanne",,,+41766496332,1000
Da Carlo,"Rue Caroline 2, 1003 Lausanne",,,+41213237575,1000
Des Lys Sàrl,"Route de Renens 24, 1008 Prilly",,,+41216243820,1000
Domino's Pizza,"Avenue de Tivoli 70, 1007 Lausanne",,,+41216207575,1000
Duke's bar Sàrl,"Rue du Flon 12, 1003 Lausanne",,,+41213113860,1000
EasyFood,"Place Bel-Air 18, 1003 Lausanne",,,,1000
El.Gringo,"Place de la Riponne, 1005 Lausanne",info@elgringoswiss.ch,,+41799545492,1000
Empanadas El Gaucho,"Boulevard de Grancy 44, 1006 Lausanne",info@empanadas-elgaucho.ch,,+41216363366,1000
Emparaiso,"Rue de la Borde 15, 1018 Lausanne",info@emparaiso.ch,,+41788723484,1000
Ernest - L'Epicerie,"Rue Cheneau-de-Bourg 17, 1003 Lausanne",,,+41215463111,1000
Euro Café,"lausanne gare, 1003 Lausanne",,,+41917574372,1000
Eva's Sandwich House,"Rue du Petit-Chêne 27, 1003 Lausanne",,,+41213119905,1000
Five Guys,"Place Saint-François 17, 1003 Lausanne",,,+41213125252,1000
Fleur de Pains SA,1003 Lausanne,,,+41216138011,1000
Fleur de Pains SA,"Avenue de Jurigoz 17, 1006 Lausanne",,,+41216138066,1000
Fleur de Pains SA,"Route de Vevey 43, 1009 Pully",,,+41217114864,1000
Fleur de Pains SA - Food Truck,"Bâtiment EPFL Innovation Park I, 1015 Lausanne",,,+41216138000,1000
Focacceria Leonardo,"Avenue Frédéric-César-de-la-Harpe 43, 1007 Lausanne",info@focacceria-leonardo.com,,+41216011000,1000
Friend's Cafe,"Place de l'Europe 6, 1003 Lausanne",,,+41213313939,1000
Fruit for Thought,1003 Lausanne,,,,1000
Fu Tai,"Rue Pré-du-Marché 15, 1004 Lausanne",futai@bluewin.ch,,+41213201818,1000
GeA Gelateria Artigianale,"Rue Enning 8, 1003 Lausanne",gea.gelato@gmail.com,,+41213116400,1000
Giga Tacos,"Rue de l'Ale 2, 1003 Lausanne",,,+41215466100,1000
Giga Tacos,"Rue de la Pontaise 42, 1018 Lausanne",,,+41789668844,1000
Golden Snack,"Route du Port 2, 1009 Pully",,,,1000
Graine d'Epicure Sàrl Traiteur,"Rue de la Tour 9, 1004 Lausanne",graineepicure@gmail.com,,+41213111044,1000
Green Up Natural Food Sàrl,"Rue Mercerie 12, 1003 Lausanne",,,+41786919127,1000
Hansen Shiraz Traiteur,"Avenue du Théâtre 1, 1005 Lausanne",,,+41213125690,1000
Harper's Burger Bar And Pub,"Rue de la Barre 8, 1005 Lausanne",info@harperspub.ch,,,1000
Hokaido Sushi,"Avenue de Chailly 19, 1012 Lausanne",,,+41216530336,1000
Holy Cow ! Gourmet Burger Company SA,"Rue des Terreaux 10, 1003 Lausanne",,,+41213122404,1000
Hôtel Alpha-Palmiers by Fassbind,"Rue du Petit-Chêne 34, 1003 Lausanne",ap@byf.ch,,+41215555999,1000
Hotel d'Angleterre,"Place du Port 9, 1006 Lausanne",,,,1000
Il Corso,"Rue de Bourg 29, 1003 Lausanne",,,+41213128809,1000
In Fine Traiteur,"Avenue du Léman 69, 1005 Lausanne",info@infine-traiteur.ch,,+41217114907,1000
Indian zayeka,"Route de Chavannes 8, 1007 Lausanne",indianzayeka@yahoo.com,,+41216915857,1000
Intrigo,"Rue Pichard 11, 1003 Lausanne",,,+41263221662,1000
Iskender Kebab et Pâtes,"Rue Marterey 33, 1005 Lausanne",iskender.kebab.lausanne@gmail.com,,+41213114484,1000
Istanbul Çiğ Köfte,"Rue de Genève 85, 1004 Lausanne",,,+41799547887,1000
Istanbul Grill and Mezze,"Avenue de la Sallaz 3, 1005 Lausanne",,,+41216530038,1000
Ium,"Place du Tunnel 8, 1005 Lausanne",,,+41793710019,1000
Jardin de Gloire,"Avenue des Figuiers 39, 1007 Lausanne",,,+41216016730,1000
Jet Pizza,"Avenue de Béthusy 29, 1012 Lausanne",,,+41213126464,1000
Kawaya noodle bar,"Rue du Petit-Chêne 22, 1003 Lausanne",,,+41213123651,1000
Kawaya Ramen,"Rue du Petit-Chêne 22, 1003 Lausanne",,,+41213123651,1000
Kentucky Fried Chicken,"Place de l'Europe 9, 1003 Lausanne",,,+41212113925,1000
Keyann Café Libanais,"Avenue du Léman 79, 1005 Lausanne",info@keyann.ch,,+41217110044,1000
KIkro Organic,"Rue du Simplon 6, 1006 Lausanne",,,+41216178050,1000
Kinkao,"Avenue de Morges 92, 1004 Lausanne",,,+41795829999,1000
Kony Bubble Tea Taiwan,"Escaliers du Grand-Pont 5, 1003 Lausanne",,,,1000
Kurry Masala,"Chemin des Roches 1, 1009 Pully",,,+41788850249,1000
L'abordage Angolo Pizza,"Avenue Georgette 2, 1003 Lausanne",,,+41213128512,1000
L'Atelier,"Avenue de France 39, 1004 Lausanne",info@l-a-t-e-l-i-e-r.ch,,+41216241637,1000
L'instant gâteau Fanny Beausire,"Rue du Centre 14, 1009 Pully",,,+41217112390,1000
L'oasis,"Chemin Antoine-de-Chandieu 2, 1006 Lausanne",,,,1000
La Bavaria Sàrl,"Rue du Petit-Chêne 10, 1003 Lausanne",,,+41213233913,1000
La Caleta,"Rue de l'Ale 15, 1003 Lausanne",,,+41213110945,1000
LA CHOCOLATIERE,"Avenue Mon-Repos 14, 1005 Lausanne",,,+41213236884,1000
la Croquignole,"Rue de l'Ale 16, 1003 Lausanne",,,+41213120040,1000
La Grappe d'Or,"Rue Cheneau-de-Bourg 3, 1003 Lausanne",,,+41213113970,1000
La Grenette,"Place de la Riponne 10, 1005 Lausanne",,,+41774844969,1000
La Mosaique,"Avenue d'Ouchy 70, 1006 Lausanne",info@lamosaique.ch,,+41216011793,1000
La Picholine,"Chemin du Levant 159A, 1005 Lausanne",infos@lapicholine.ch,,+41217214141,1000
La Pinte à fromages du Lac de Sauvabelin,"Chemin des Celtes 1, 1018 Lausanne",,,+41216473938,1000
Lanky,"Avenue des Figuiers 39, 1007 Lausanne",,,,1000
Le 5ème,"Rue Centrale 9, 1003 Lausanne",info@lecinq.ch,,+41213124011,1000
Le 888,"Rue du Grand-Pont 18, 1003 Lausanne",,,+41213110789,1000
Le bistrot des TONTONS,"Chemin des Bains 2, 1009 Pully",hello@lestontons.ch,,+41213119095,1000
Le Coin du Fromager,"Place de la Gare 1, 1009 Pully",,,+41217281329,1000
le Colony Bar Frenco SA,"Avenue du Théâtre 2, 1005 Lausanne",,,+41213113907,1000
Le Duplex Bar,"Rue de la Tour 4, 1004 Lausanne",info@leduplex.ch,,+41213111811,1000
Le Fermier Suisse,"Ruelle du Flon 12, 1003 Lausanne",,,+41795018998,1000
Le Framboisier,"Avenue du Léman 36, 1005 Lausanne",,,+41217280956,1000
Le Jardin d'Hiver,"Avenue Gratta-Paille 2, 1018 Lausanne",,,+41216411257,1000
le Kotchi,"Avenue Frédéric-César-de-la-Harpe 17A, 1007 Lausanne",,,+41216011333,1000
Le Liberta,"Rue de la Barre 8, 1005 Lausanne",,,+41213113225,1000
Le Montreux,"Place du Port 17, 1006 Lausanne",info@brp.ch,,,1000
Le Pain Quotidien,"Place de la Gare 2, 1003 Lausanne",,,+41213114608,1000
Le Phénix,"Rue de la Borde 31, 1018 Lausanne",,,,1000
Le Pointu,"Rue Neuve 2, 1003 Lausanne",hello@le-pointu.ch,,+41213511414,1000
Le Popu,"Route du Jorat 67, 1000 Lausanne",info@restaurant-populaire.ch,,+41217841131,1000
Le Pret-A-Manger du Flon,"Rue du Port-Franc 22, 1003 Lausanne",,,+41213201410,1000
Le RestO du Cercle,"Allée du Bornan 6, 1007 Lausanne",,,+41216173547,1000
le Tortillard,"Boulevard de Grancy 19A, 1006 Lausanne",,,+41216175620,1000
Legends Sports Bar,"Rue Côtes-de-Montbenon 20, 1003 Lausanne",,,+41213112955,1000
les Gosses du Québec,"Avenue de la Gare 22, 1003 Lausanne",,,+41213232828,1000
Les Saisons,"Avenue de Rhodanie 4, 1007 Lausanne",,,+41216127612,1000
Les Tilleuls,"Chemin des Tilleuls 4, 1009 Pully",,,+41217290239,1000
Les Trois rois,"Rue du Simplon 7, 1006 Lausanne",,,+41216163822,1000
Liggs Pasta Sàrl,"Rue du Midi 2, 1003 Lausanne",,,+41213245000,1000
Los Nobles Tacos,"Avenue du Léman 77, 1005 Lausanne",,,+41218883888,1000
Los Tacos Hermanos,"Chemin de Renens 56, 1004 Lausanne",,,+41767789723,1000
Lucien Moutarlier,"Place de la Palud 7, 1003 Lausanne",,,+41213200062,1000
Mad Cafe,"Rue de Genève 23, 1003 Lausanne",hello@mad-cafe.ch,,+41213406970,1000
Madame Noï Saveurs de Thaïlande du Léman,"Avenue du Léman 73, 1005 Lausanne",info@madame-noi.ch,,+41798110091,1000
Maison Buet,"Rue Grand-St-Jean 6, 1003 Lausanne",,,+41213126290,1000
Manora fresh to go,1003 Lausanne,,,,1000
Marterey 56,"Rue Marterey 56, 1005 Lausanne",,,+41215585866,1000
Marutcha,"Rue de la Grotte 4, 1003 Lausanne",marutcha@posteo.net,,+41215213765,1000
Mauro traiteur,"Rue de l'Ancienne-Douane 4, 1003 Lausanne",,,+41213231667,1000
McCarthy's Irish Pub,"Place Pépinet 1, 1003 Lausanne",info@mccarthysirishpub.ch,,+41213129333,1000
McDonald's Suisse Restaurants Sàrl,"Place de la Gare 4, 1003 Lausanne",,,+41213204851,1000
MELAZIC SA,"Rue Madeleine 12, 1003 Lausanne",,,+41216248079,1000
Melting-Pot,"Rue du Simplon 6, 1006 Lausanne",atifkarim1@gmail.com,,+41216178050,1000
Mezzo Di Pasta,"Rue de la Louve 1, 1003 Lausanne",,,+41213117430,1000
Micky's House,"Rue Cheneau-de-Bourg 9, 1003 Lausanne",,,+41213515252,1000
Mido,"Rue de l'Ale, 1003 Lausanne",,,+41768163558,1000
Mister Fabrizio Panini,"Rue du Simplon, 1006 Lausanne",,,+41792277371,1000
Mium,"Avenue du Léman 21, 1005 Lausanne",julien@mium.ch,,+41786132409,1000
Mix-Image SA,"Rue du Petit-Saint-Jean 3, 1003 Lausanne",,,+41213511721,1000
Molana,"Avenue Recordon 2, 1004 Lausanne",molanarestaurant20@gmail.com,,+41218628888,1000
Monochrome,"Rue Madeleine 18, 1003 Lausanne",,,,1000
Montchoisi Tennis Club,"Avenue de l'Elysée 15, 1006 Lausanne",,,+41216163625,1000
MOVIDA & POCO LOCO,"Place Chauderon 5, 1003 Lausanne",,,+41213291111,1000
My Sandwiches,"Rue Saint-Martin 9, 1003 Lausanne",,,+41213120232,1000
N2O,"Place de l'Europe 7, 1003 Lausanne",,,+41213114427,1000
Nandanam Sàrl,"Avenue Louis-Ruchonnet 11, 1003 Lausanne",,,+41213122300,1000
Ni Hao,"Rue Marterey 72, 1005 Lausanne",,,+41213119696,1000
Nice Restobar SARL,"Rue du Petit-Chêne 22, 1003 Lausanne",,,+41219220028,1000
Oba-Oba,"Avenue de Provence 82, 1007 Lausanne",oba_oba@bluewin.ch,,+41216252757,1000
Okapi - Biso - Na - Biso,"Rue de la Borde 19, 1018 Lausanne",,,+41213111588,1000
Palm Bar,"Rue du Petit-Chêne 34, 1003 Lausanne",ap@byf.ch,,+41215555999,1000
Pastabruzzo,"Prilly, 1008 Le Vaud",past.abruzzo.ch@gmail.com,,+41786647511,1000
Pastelaria Rapid Lunch,"Rue de la Borde 31, 1018 Lausanne",,,+41213111969,1000
"Pâtisserie Vincent, Chailly","Avenue de Chailly 2, 1012 Lausanne",,,+41216522765,1000
Pavillon Bar & Kitchen,"Place de la Riponne 10, 1005 Lausanne",,,+41213209595,1000
Pi Bar,"Rue du Valentin 62, 1004 Lausanne",shop@pibar.ch,,+41787838382,1000
Pidabar Takeaway,"Rue de la Louve 12, 1003 Lausanne",,,+41213119193,1000
Pin Up Bar,"Rue Marterey 31, 1005 Lausanne",,,+41213113333,1000
Pizza Avenue Sàrl,"Rue du Grand-Pont 18, 1003 Lausanne",,,+41215523366,1000
Pizzeria Bella Vita,"Avenue de la Gare 52, 1003 Lausanne",omar.jadban@me.com,,+41213121260,1000
Pizzeria Fratel e Napule,"Rue de la Tour 8, 1004 Lausanne",,,+41213120022,1000
Pla-Tu-Thong,"Rue Dr César-Roux 9, 1005 Lausanne",,,+41213201070,1000
Pois Chic,"Rue de Bourg 10, 1003 Lausanne",info@poischic.ch,,+41213117002,1000
Popers,"Place Grand-St-Jean, 1003 Lausanne",popers-food@hotmail.com,,+41788348887,1000
Pra-Collet,"Route du Jorat 71A, 1000 Lausanne 26",pracollet@bluewin.ch,,+41217840768,1000
Prince d'Egypte,"Rue Centrale 21, 1003 Lausanne",elmelegy.ali@gmail.com,,+41213233253,1000
Ragoût Délices,"Rue Saint-Roch 4, 1004 Lausanne",ragout.delices@gmail.com,,+41215584003,1000
Rialto,"Avenue de Béthusy 29, 1012 Lausanne",,,+41213126464,1000
Roma À Table,"Avenue de France 38, 1004 Lausanne",info@romaatable.ch,,+41212118131,1000
Romain C,"Avenue de Béthusy 19, 1005 Lausanne",rcsalondethe@gmail.com,,+41213121798,1000
Sabor Latino,"Rue Saint-Martin 7, 1003 Lausanne",,,,1000
Saigon,"Avenue de Beaulieu 1, 1004 Lausanne",,,+41216243992,1000
Sandwicherie vietnamienne Olimy Grand-pont,"Rue du Grand-Pont 4, 1003 Lausanne",,,+41218889795,1000
SegaFredo,"Rue Saint-François 2, 1003 Lausanne",,,+41213128844,1000
Shanti,"Avenue de la Gare 10, 1003 Lausanne",contact@shanti-restaurant.ch,,+41213237480,1000
Snack du Marché,"Rue Pré-du-Marché, 1004 Lausanne",celik.sertac90@gmail.com,,+41787050806,1000
SNAP,1003 Lausanne,,,,1000
Speed Food,"Place de la Gare, 1003 Lausanne",,,+41213113064,1000
Sport's café le Zodiac,"Avenue de Cour 6, 1007 Lausanne",,,+41216162869,1000
Starbucks,"Place de la Gare 2, 1003 Lausanne",,,+41213120702,1000
Starbucks,"Place Saint-François 3, 1003 Lausanne",,,+41213207020,1000
Starbucks,"Rue Saint-Laurent 19, 1003 Lausanne",,,+41213116151,1000
Street Kitchen Cafe,"Rue Centrale 25, 1003 Lausanne",streetkitchencafe@gmail.com,,+41218889620,1000
Sukkho,"Rue de la Borde 39, 1018 Lausanne",,,+41216830714,1000
Sushi Ichiban,"Rue Marterey 38, 1005 Lausanne",,,+41213122477,1000
Sushi King,"Galerie Saint-François A, 1003 Lausanne",,,+41216344592,1000
Sushi King,"Sis Galerie St-Francois A, 1003 Lausanne",,,+41216344592,1000
Sushi Zen SA,"Avenue des Boveresses 56, 1010 Lausanne",,,+41219630634,1000
Swiss Wine Bar,"Rue Caroline 5, 1003 Lausanne",sw@byf.ch,,+41213202141,1000
Ta Cave Sàrl,"Rue du Simplon 35, 1006 Lausanne",,,+41215257707,1000
Tai Do,"Route du Port 40, 1009 Pully",,,+41217111487,1000
Tanoshii,"Place de la Riponne, 1005 Lausanne",info@tanoshii.ch,,+41213110106,1000
Tayta Sarl,"Juste au dessus de La Police de l'Avenue de Cour., 1004 Lausanne",contact@empanadas-tayta.com,,+41762094212,1000
Tea-Room le Phénix et cafétéria Afiro,"Avenue de Provence 22, 1007 Lausanne",,,+41216236600,1000
Tekoe,1003 Lausanne,,,,1000
Terrasse d'Ouchy,"Place de la Navigation 1A, 1006 Lausanne",,,+41216174224,1000
Thaï Orchidée,"Rue du Port-Franc 16, 1003 Lausanne",,,+41213125203,1000
The Best of Taste Sàrl,"Rue du Valentin 12, 1004 Lausanne",,,+41215464400,1000
The Coffee Project,"Rue du Grand-Pont 4, 1003 Lausanne",hello@thecoffeeproject.ch,,+41213114648,1000
The Coffee Project,"Rue Marterey 1, 1005 Lausanne",hello@thecoffeeproject.ch,,+41213114648,1000
The Green Van Company,"Rue de Genève 17, 1003 Lausanne",info@thegreenvan.ch,,+41799450069,1000
The Lacustre,"Quai Jean-Pascal Delamuraz 1, 1006 Lausanne",,,+41216174200,1000
The Place 2B BIKINI BEACH,"Avenue Emile-Henri-Jaques-Dalcroze 9, 1007 Lausanne",theplace2b@bluewin.ch,,+41216010869,1000
Thebackstage Bar,"Rue du Clos-de-Bulle 7, 1004 Lausanne",info@thebackstage.ch,,+41765262788,1000
Tibits Lausanne,"Place de la Gare 11, 1003 Lausanne",info@tibits.ch,,+41325313888,1000
Tiki Taka,"Avenue des Oiseaux 2, 1018 Lausanne",,,+41212117454,1000
Traiteur l'Olivier SA,"Avenue du Théâtre 1, 1005 Lausanne",,,+41213120000,1000
Végé Café,"Chemin des Rosiers 2, 1004 Lausanne",info@vege.cafe,,+41216831353,1000
Veggie Moon's,"Rue du Maupas 16, 1004 Lausanne",moonscoffeeshop@gmail.com,,+41213111007,1000
Via Vai Trattoria,"Chemin du Bois-de-Vaux 20, 1007 Lausanne",viavai.vidy@gmail.com,,+41216241800,1000
Viita Food,"Place Chauderon 18, 1003 Lausanne",info@viitafood.ch,,+41798613555,1000
Vinatown d'Asie,"Rue Saint-Martin 30, 1005 Lausanne",,,+41788832690,1000
Vintage Wine Bar Sàrl,"Rue de Langallerie 7, 1003 Lausanne",,,+41213122092,1000
Wellson,"Rue du Flon 12, 1003 Lausanne",,,+41213115451,1000
Whoofy gauffre,"Chemin du Couchant 46, 1007 Lausanne",,,+41212110672,1000
Yasmine Traiteur,"Rue des Fontenailles 10, 1007 Lausanne",,,+41216010973,1000
Zinema,"Rue du Maupas 4, 1004 Lausanne",zinema@sunrise.ch,,+41213112931,1000
Zoo Burger Sàrl,"Rue Marterey 29, 1005 Lausanne",,,+41213125020,1000
Zooburger,"Avenue Mon-Loisir 16, 1006 Lausanne",,,+41216011804,1000
Au Grain de Sel,"Rue de la Borde 23, 1018 Lausanne",,,+41216431650,1000
Anatoilian,"Chemin Isabelle-de-Montolieu 173, 1010 Lausanne",,,+41216532558,1000
Meylan Eric,"Avenue d'Ouchy 22, 1006 Lausanne",,,+41216166367,1000
SUSHIZEN Palace,"Rue du Grand-Chêne 7, 1003 Lausanne",restauration@lausanne-palace.ch,,+41213313988,1000
Carpentier Didier,"Avenue de la Vallonnette 18, 1012 Lausanne",dc@greybicycle.com,,+41219032636,1000
da Silva José Maria,"Rue de Genève 98, 1004 Lausanne",,,+41213208885,1000
Gardiol Véra,"Chemin de Montolivet 20, 1006 Lausanne",,,+41216165163,1000
Martin Lydia,"Promenade des Alpes 12, 1008 Prilly",,,+41216259442,1000
Beau-Rivage Palace,"Place du Port 17-19, 1006 Lausanne",info@brp.ch,http://www.brp.ch/fr/accueil.html,+41216133333,1000
Ecole Nouvelle de la Suisse Romande - ENSR International School,"Chemin de Rovéréaz 20, 1012 Lausanne",info@ensr.ch,http://www.ensr.ch/,+41216546500,1000
Chiché Architectes SA,"Rue des Terreaux 8, 1003 Lausanne",architectes@chiche.ch,http://www.chiche.ch/,+41213515060,1000
Confident- Cabinet dentaire Vasco Dias,"Route des Flumeaux 1, 1008 Prilly",,http://www.confident-dias.ch/,+41216244715,1000
EMS Les Lys,"Rue des Métiers 3, 1008 Prilly",,http://www.primeroche.ch/etablissement/ems-le-grand-pre,+41215455555,1000
World Trade Center Lausanne WTCL Services SA,"Avenue Gratta-Paille 2, 1018 Lausanne",,http://www.wtc.ch/,+41216411111,1000
Blanchisserie du Simplon,"Rue du Simplon 16, 1006 Lausanne",,,+41216161800,1000
Art de l'Aurore,"Avenue de Rumine 4, 1005 Lausanne",granetaurore@gmail.com,http://www.artdelaurore.ch/,+41213121626,1000
Ebénisterie Maurice Jaques Sàrl,"Rue Saint-Martin 38, 1005 Lausanne",,http://www.maurice-jaques.ch/,+41213123885,1000
Atelier du Poirier SA,"Route Aloys-Fauquez 95, 1018 Lausanne",atelier@poirier.ch,http://www.poirier.ch/,+41216464370,1000
Garage carrosserie Cantova Sàrl,"Route du Pavement 77, 1018 Lausanne",,http://www.garage-cantova.ch/,+41216474218,1000
Baechtold Brigitte,"Avenue de Cour 6A, 1007 Lausanne",bb_oart@bluewin.ch,,+41216173386,1000
Gossweiler Bernard,"Avenue de Lavaux 57, 1009 Pully",,http://www.ebeniste-gossweiler.ch/,+41217280567,1000
Borboën Marcel,"Avenue d'Ouchy 7, 1006 Lausanne",,,+41213125718,1000
Farine Frédéric,"Route du Port 22, 1009 Pully",frederic.farine@gmail.com,http://www.fredericfarine.ch/,+41765364344,1000
Iseli Hervé,"Avenue de Béthusy 5, 1005 Lausanne",,,+41213120790,1000
Karli Chantal,"Route du Signal 27, 1018 Lausanne",,,+41213121631,1000
Antiquités Rigaldo et Fils SA,"Route de Prilly 4, 1004 Lausanne",,,+41216260575,1000
Carte Blanche SA,"Rue Caroline 2, 1003 Lausanne",,,+41213213838,1000
CFI Mobilier SA,"Avenue Gratta-Paille 2, 1018 Lausanne",info@cfi-mobilier.ch,,+41216411267,1000
Eldora Traiteur SA,"Avenue de Rhodanie 17, 1007 Lausanne",lacustre@eldora-traiteur.ch,,+41216011666,1000
Gastroconsult SA,"Avenue Général-Guisan 42, 1009 Pully",,,+41217210808,1000
Hotelis SA,"Rue Caroline 5, 1003 Lausanne",infolausanne@hotelis.ch,,+41213452020,1000
Michalak Zdzislaw,"Rue Caroline 14, 1003 Lausanne",,,+41213236635,1000
Dinç Ugur,"Rue de la Pontaise 31, 1018 Lausanne",,,+41217111615,1000
Lausanne Palace,"Rue du Grand-Chêne 7-9, 1003 Lausanne",,http://www.lausanne-palace.ch/,+41213313131,1000
Golf Club de Lausanne,"Route du Golf 3, 1000 Lausanne 25",,https://golflausanne.ch/,+41217848484,1000
Ecole technique - Ecole des métiers de Lausanne (ETML),"Rue de Sébeillon 12, 1004 Lausanne",,,+41213167777,1000
Ecole technique - Ecole des métiers de Lausanne,"Rue de Sébeillon 12, 1004 Lausanne",,,+41213167777,1000
Coop,"Avenue du Théâtre 4, 1005 Lausanne",,,+41213207531,1000