name,address,email,website,phone,postalCode
le Chalet,"Route de la Gare 2, 1660 Château-d'Oex",lechalet-fromagerie@bluewin.ch,https://www.lechalet-fromagerie.ch/,+41269246677,1660
Café des Bossons,"Grand Rue 105, 1660 Château-d'Oex",,https://www.cafe-bossons.ch/,+41269243432,1660
Caribou Bar Lounge,"Place du Village 1, 1660 Château-d'Oex",info@hdvoex.ch,http://www.cariboubar.ch/,+41269247470,1660
Camping Le Berceau,"Route des Mosses 16, 1660 Château-d'Oex",campingduberceau@hotmail.com,http://www.piscine-camping-restaurant.ch/,+41269246234,1660
De la Croix d'Or,"Route de Gruyère 41, 1660 Les Moulins",tissotcathy@gmail.com,,+41269246192,1660
Buffet de la Gare,"Route de la Gare 8, 1660 Château-d'Oex",buffet-doex@bluewin.ch,,+41269247717,1660
Hôtel-Restaurant Le Chamois,"Route des Mosses 77, 1660 L'Etivaz",chamois-etivaz@bluewin.ch,,+41269246266,1660
Restaurant 'Le Bistrot',"Grand Rue 70, 1660 Château-d'Oex",info@hdvoex.ch,http://www.hdvoex.ch/,+41269247477,1660
Restaurant HaHa Parc des sports,"Route du Périsset 9, 1660 Château-d'Oex",restaurant.haha@bluewin.ch,,+41269240410,1660
Café des Alpes,"Grand Rue 7, 1660 Château-d'Oex",,,+41269240334,1660
Restaurant Ermitage,"Grand Rue 4, 1660 Château-d'Oex",,,+41269242501,1660
Restaurant Bergbach,"Unter dem Birg 1660, 3715 Adelboden",,,+41786355833,1660
McCarthy's,"Route de Saanen 71, 1660 Château-d'Oex",info@mccarthys.ch,,+41269246834,1660
Au Relais le Ruby,"Grand Rue 62, 1660 Château-d'Oex",marques.cristina@outlook.com,,+41269247252,1660
Buvette De La Chouette,"Route des Mosses 120, 1660 La Lécherette",,,,1660
earlybeck Boulanger Confiseur,"Grand Rue 78, 1660 Château-d'Oex",info@earlybeck.ch,,+41269247230,1660
Richemont,"Grand Rue 5, 1660 Château-d'Oex",,,+41269245252,1660
Mollien Jean-François,"Route des Mosses 77, 1660 L'Etivaz",chamois-etivaz@bluewin.ch,,+41269246266,1660
Parc des sports -Château-d'Oex SA,"Route du Périsset 9, 1660 Château-d'Oex",,,+41269240381,1660
Cem Korhan,"Grand Rue 51, 1660 Château-d'Oex",,,+41269246768,1660