name,address,email,website,phone,postalCode
A la Valsainte,"Rue du Collège 22, 1800 Vevey",info@alavalsainte.ch,http://www.alavalsainte.ch/,+41219213260,1800
le Carré,"Rue du Lac 45, 1800 Vevey",,http://lecarre-vevey.ch/index.html#top,+41219215006,1800
"Café, Restaurant du Port","Rue d'Italie 23, 1800 Vevey",,http://www.cafeduport.ch/,+41219212050,1800
Le Goût du Voyage,"Rue du Lac 18, 1800 Vevey",,https://www.legoutduvoyage.ch/,+41217111921,1800
Astra Hôtel Vevey 4*sup,"Place de la Gare 4, 1800 Vevey",info@astra-hotel.ch,http://www.astra-hotel.ch/,+41219250404,1800
Tao Yuan,"Rue de la Clergère 2, 1800 Vevey",,http://www.restaurant-chinois-tao-yuan.ch/,+41219212033,1800
le Mazot,"Rue du Conseil 7, 1800 Vevey",,,+41219217822,1800
Filumé,"Quai Perdonnet 18, 1800 Vevey",,https://www.filume.ch/,+41219216610,1800
TomSab Thaï Restaurant,"Rue d'Italie 7, 1800 Vevey",aroi@tomsab.ch,https://www.tomsab.ch/,+41219224242,1800
Restaurant le Rubis,"Rue du Lac 5, 1800 Vevey",info@lerubis.ch,http://lerubis.ch/,+41219219348,1800
Apero-Sol,"Rue du Jura 4B, 1800 Vevey",,https://www.facebook.com/Apero-Sol-637832246655243,+41219222232,1800
Hôtel-Restaurant le Léman,"Route de Blonay 20, 1800 Vevey",info@hotel-leleman.ch,http://www.hotel-leleman.ch/fr/page/restaurant-restaurant,+41219443322,1800
Les Ateliers,"Rue des Deux-Gares 6A, 1800 Vevey",,http://www.lesateliersvevey.ch/,+41219225050,1800
MY Puccini Tacos Burger,"Avenue de la Gare 19, 1800 Vevey",,https://www.just-eat.ch/fr/menu/puccini-tacos-burgers-1,+41219224747,1800
Pummaró,"Rue d'Italie 53, 1800 Vevey",,https://pummaro.ch/,+41219223465,1800
Le 'Central' Nocente,"Rue du Centre 14, 1800 Vevey",,https://www.central-nocente.ch/,+41219213851,1800
Restaurant Le Lotus,"Rue du Centre 4, 1800 Vevey",lotusvevey@bluewin.ch,http://www.restaurant-asiatique.ch/,+41219213361,1800
KIZUKU Café,"Rue du Lac 35, 1800 Vevey",cafe@kizuku.ch,,+41786795977,1800
KJU,"Quai Perdonnet 22B, 1800 Vevey",,,+41219221067,1800
Crêperie An Arvor,"Rue Jean-Jacques Rousseau 9, 1800 Vevey",,,+41219224409,1800
la Clef,"Rue du Théâtre 1, 1800 Vevey",,,+41219212245,1800
National Café-Resto-Bar,"Rue du Torrent 9, 1800 Vevey",,,+41219237625,1800
Pizza Taxi,"Quai Perdonnet 32, 1800 Vevey",,,+41219235560,1800
Pizzeria Ristorante Molino,"Rue du Simplon 45, 1800 Vevey",vevey@molino.ch,,+41219259545,1800
Restaurant des Trois Sifflets,"Rue du Simplon 1, 1800 Vevey",,,+41219211413,1800
Restaurant le mondial kebab,"Avenue du Général-Guisan 34, 1800 Vevey",,,+41219220140,1800
Restaurant Swagat MOUSA Sàrl,"Rue du Simplon 7, 1800 Vevey",,,+41219212954,1800
Stand de Gilamont,1800 Vevey,,,+41219215070,1800
Buffet de la Gare,"Place de la Gare 4, 1800 Vevey",,,+41219250404,1800
Ichioshi,"Rue du Conseil 14, 1800 Vevey",,,+41219214420,1800
le Colibri,"Rue du Devin 1, 1800 Vevey",,,+41219228266,1800
le Pacific,"Rue du Simplon 23, 1800 Vevey",,,+41219222822,1800
REX le Café,"Rue de la Madeleine 22, 1800 Vevey",,,+41219258890,1800
la Grange,"Avenue de la Gare 9, 1800 Vevey",,,+41219227987,1800
Exotic Food Center,"Avenue du Général-Guisan 17, 1800 Vevey",mohin200@yahoo.com,,+41219229660,1800
Le Syrien,"Ruelle de l'Ancien-Port 5, 1800 Vevey",,,+41219210257,1800
Poulet Minute,"Avenue de Corsier 5, 1800 Vevey",,,+41219210707,1800
Bla Bla Vevey Cafe Restaurant & Party,"Grande Place 5, 1800 Vevey",reservation@blablavevey.com,,+41219223533,1800
Hostellerie de Geneve (Restaurant),"Grande Place 11, 1800 Vevey",info@hotelgeneve.ch,,+41219214577,1800
Restaurant Aladin,"Rue du Lac 8, 1800 Vevey",aladinsa@bluewin.ch,,+41219222000,1800
Restaurant Denis Martin,"Rue du Château 2, 1800 Vevey",info@denismartin.ch,,+41219211210,1800
Restaurant Kashmir,"Rue de l'Hôtel-de-Ville 21, 1800 Vevey",Info@hostellerie-vevey.ch,,+41219220044,1800
Restaurant vietnamien Saigon Pho,"Rue Aimé-Steinlen 7, 1800 Vevey",tndien1@yahoo.fr,,+41763821372,1800
Restaurant Zefork,"Rue du Léman 6, 1800 Vevey",contact@zefork.ch,,+41219221813,1800
"Tandem Restaurant, Bar et Jardin","Quai de la Veveyse 8, 1800 Vevey",hello@tandemvevey.ch,,+41215523021,1800
Bali Restaurant,"Avenue de la Gare 11, 1800 Vevey",,,,1800
Café & Restaurant Alimentarium,"Quai Perdonnet 25, 1800 Vevey",,,+41219244418,1800
China House Restaurant,"Rue Jean-Jacques Rousseau 4, 1800 Vevey",,,+41219224808,1800
McDonald's Restaurant,"Avenue du Général-Guisan 15, 1800 Vevey",,,+41219235614,1800
Restaurant Maison Viet,"Rue du Torrent 4, 1800 Vevey",,,+41216468888,1800
Restaurant Pizzeria du Commerce,"Avenue de Corsier 5, 1800 Vevey",ozerpolat@hotmail.com,,+41219211313,1800
Restaurant Zeugma,"Rue des Moulins 1, 1800 Vevey",,,+41215462121,1800
Tokyo Restaurant,"Rue d'Italie 7, 1800 Vevey",,,+41219224252,1800
Studioworks Design SA,"Avenue Nestlé 16, 1800 Vevey",info@studioworks.ch,http://www.studioworks.design/,+41219222600,1800
Culturefood - CFD SA,"Avenue Reller 5, 1800 Vevey",info@culturefood.ch,http://www.culturefood.ch/,+41848247333,1800
Trubsee Alpine Lodge Self Service Restaurant,"Titlisstrasse 1800m, 6390 Engelberg",truebsee@titlis.ch,,+41416395092,1800
Panino Dessert Sàrl,"Avenue du Général-Guisan 41, 1800 Vevey",info@panino-dessert.ch,http://www.panino-dessert.ch/,+41219224477,1800
Boulangerie Bread Store,"Rue des Deux-Marchés 22, 1800 Vevey",,http://breadstore.ch/,+41219223355,1800
Fleur de Pains SA,"Rue de Lausanne 17, 1800 Vevey",,,+41219210974,1800
Royal Pizzeria Grill,"Avenue du Général-Guisan 38, 1800 Vevey",,,+41219214243,1800
Saigon Fast-Food & Saigon Pho,"Rue Aimé-Steinlen 7, 1800 Vevey",,,+41219235953,1800
ART & PRESTIGE,"Avenue de la Gare 10, 1800 Vevey",contact@artetprestige.ch,,+41219222607,1800
Bambou d'Asie,"Avenue du Général-Guisan 22, 1800 Vevey",,,+41219214286,1800
Bistrot de Copet,"Rue des Moulins 62, 1800 Vevey",bistrotdecopet@bluewin.ch,,+41219035057,1800
Black Tap Singles & Doubles Vevey,"Avenue du Général-Guisan 1, 1800 Vevey",info@blacktap.ch,,,1800
Bravo Suisse Cafe,"Rue du Lac 9, 1800 Vevey",camille@bravoswiss.ch,,+41219226262,1800
Buddha Bar Beach by Buddha Bar TM,"Rue d'Italie 1, 1800 Vevey",info@ghdl.ch,,+41219250606,1800
Chez Féfé Puccini Tacos Burger My,"Avenue de la Gare 19, 1800 Vevey",mytacosvevey@icloud.com,,,1800
Comelon Burrito Bar SA,"Rue des Deux-Marchés 23, 1800 Vevey",info@comelon.ch,,+41219210055,1800
Cuckoo Ice Cream Vevey,"Rue du Théâtre 9, 1800 Vevey",office@cuckoo.ch,,,1800
Grand Hôtel du Lac - Les Saisons,"rue d'Italie 1, 1800 Vevey",,,,1800
Hostellerie de Genève,"Grande Place 11, 1800 Vevey",info@hotelgeneve.ch,,+41219214577,1800
Hôtel des Trois Couronnes,"Rue d'Italie 49, 1800 Vevey",info@hoteltroiscouronnes.ch,,+41219233200,1800
KymèM Café,"Rue des Communaux 20, 1800 Vevey",,,+41215256969,1800
l'Altro Mondo,"Avenue Nestlé 11, 1800 Vevey",,,+41219213444,1800
la Coupole,"Place de la Gare 4, 1800 Vevey",,,+41219250404,1800
La Veranda,"Rue d'Italie 1, 1800 Vevey",luc.califano@ghdl.ch,,+41219250606,1800
Le Brunch Du Dimanche,"Rue d'Italie 1, 1800 Vevey",info@ghdl.ch,,+41219250606,1800
Le no. 6,"Rue des Bosquets 6, 1800 Vevey",info@lenumero6.ch,,+41216427087,1800
Le Vème - Vevey,"Place de la Gare 5, 1800 Vevey",5veveydesk@gmail.com,,+41219224032,1800
Les 3 Sifflets,"Rue du Simplon 1, 1800 Vevey",contact@3sifflets.ch,,+41219211413,1800
Les Saisons,"Rue du Lac 1, 1800 Vevey",info@ghdl.ch,,+41219250606,1800
Palais Indien,"Rue du Conseil 2, 1800 Vevey",mohin200@yahoo.com,,+41219219990,1800
"Saveurs & Tartare, Claudia Coendoz","Rue des Deux-Marchés 18, 1800 Vevey",claudia@saveurs-tartare.ch,,+41219222756,1800
Tartare & Crêpes Artwork,"Quai Maria-Belgia 18, 1800 Vevey",crepesartwork@gmail.com,,+41791992430,1800
Vevey Bien Cafe & Take Away,"Rue du Simplon 16, 1800 Vevey",veveybien@gmail.com,,+41219211101,1800
Angel's Café,"Avenue du Général-Guisan 17, 1800 Vevey",,,+41219224402,1800
Ateliercuisine,"Rue du Simplon 3, 1800 Vevey",,,+41219213366,1800
Aux Bonnes Crepes de Bretagne,"Rue d'Italie 53, 1800 Vevey",,,,1800
Awania Pizza Kebab,"Rue du Lac 9, 1800 Vevey",,,+41219213232,1800
Bachibouzouk,"Rue des Jardins 12, 1800 Vevey",,,+41215584323,1800
Bains Payes,"Quai Ernest-Ansermet 10, 1800 Vevey",,,+41219210724,1800
Bar Km66,"Rue du Théâtre 3, 1800 Vevey",,,+41219223366,1800
Base Balcony & Bar Vevey,"Quai de la Veveyse 8, 1800 Vevey",,,+41215523020,1800
Bretzelkoenig,"Avenue du Général-Guisan 15, 1800 Vevey",info@brezelkoenig.ch,,+41412896464,1800
Café du Commerce,"Avenue de Corsier 5, 1800 Vevey",,,+41219211511,1800
Cafe du Theatre,"Rue du Conseil 24, 1800 Vevey",,,+41219211273,1800
Cathy's Biscuits,"Rue de l'Hôtel-de-Ville 7, 1800 Vevey",cathy@cathysbiscuits.ch,,+41219212662,1800
Chef Xu,"Avenue de la Gare 11, 1800 Vevey",,,+41219221166,1800
Chez Ciccio,"Avenue du Général-Guisan 17, 1800 Vevey",,,+41219223397,1800
Chez-Manu Sàrl,"Rue d'Italie 53, 1800 Vevey",dosreissantos@bluewin.ch,,+41219223500,1800
City Burger,"Rue de la Madeleine 29, 1800 Vevey",,,+41219220440,1800
Fleur de Pains SA,"Avenue du Général-Guisan 15, 1800 Vevey",,,+41219214770,1800
Genio - Sandwich Atelier,"Rue du Léman 3, 1800 Vevey",,,+41219220686,1800
HOKTA,"Rue des Deux-Marchés 30, 1800 Vevey",,,+41219228989,1800
Hotel de Famille,"Rue des Communaux 20, 1800 Vevey",reservation@hotelfamille.ch,,+41219233900,1800
Jardin d'Asie,"Rue du Simplon 7, 1800 Vevey",,,+41219212954,1800
Jolibar,"Rue de la Madeleine 33A, 1800 Vevey",,,+41219212822,1800
Kingfood chez Hassan,"Avenue du Général-Guisan 67, 1800 Vevey",,,+41787429013,1800
Kingfood chez Hassan,"Avenue du Général-Guisan 52, 1800 Vevey",,,+41787429013,1800
L'Annexe,"Rue du Simplon 39, 1800 Vevey",info@lannexe.ch,,+41219221155,1800
l'Armailli,"Rue des Deux-Marchés 26, 1800 Vevey",,,+41219210950,1800
Le Bistrot 19,"Rue de l'Hôtel-de-Ville 19, 1800 Vevey",,,,1800
Le Bout du monde,"Rue d'Italie 24, 1800 Vevey",,,+41219214004,1800
Le Cafe des Argiles,"Rue Clara-Haskil 4, 1800 Vevey",,,+41768234465,1800
Le Café littéraire,"Quai Perdonnet 33, 1800 Vevey",,,+41219220008,1800
Le Caveau de Hadès & des Marins-Pêcheurs,"Quai Perdonnet 22, 1800 Vevey",,,+41793478235,1800
Le Lumière,"Rue du Collège, 1800 Vevey",restaurantlelumiere@gmail.com,,+41762342223,1800
Le Non-Stop,"Rue du Simplon 33, 1800 Vevey",,,+41219223568,1800
Lisbonne Boulangerie,"Ruelle des Anciens-Fossés 9, 1800 Vevey",,,+41775055819,1800
Manora,"Avenue du Général-Guisan 1, 1800 Vevey",,,+41219257699,1800
Marina Garden Lounge,"Rue d'Italie 1, 1800 Vevey",info@ghdl.ch,,+41219250606,1800
NICE Restobar,"Rue de l'Hôtel-de-Ville 19, 1800 Vevey",,,+41219220028,1800
Noix de Coco,"Avenue du Général-Guisan 50, 1800 Vevey",,,+41219223787,1800
Pavillon Babette's Sandwiches,"Place du marché / Quai Perdonnet, 1800 Vevey",,,+41219222626,1800
Quinte & Sens,"Rue du Lac 13, 1800 Vevey",,,,1800
Resto-Bar 3121,"Place de l'Ancien-Port 8, 1800 Vevey",,,+41219221024,1800
Sahin Deniz,"Rue des Moulins 1B, 1800 Vevey",,,+41215462121,1800
Sakura Sushi,"Rue des Communaux 39, 1800 Vevey",,,+41219213908,1800
Sawasdee,"Rue du Simplon 5, 1800 Vevey",,,+41219210554,1800
Subway,"Avenue de la Gare 560, 1800 Vevey",,,+41215103016,1800
Sushi Kaiten,"Place de la Gare 3, 1800 Vevey",,,+41219226666,1800
Sushi Shop,"Ruelle des Anciens-Fossés 3, 1800 Vevey",,,,1800
Tiffany's,"Avenue de la Gare 6, 1800 Vevey",,,+41219227486,1800
Tookanu Super Food Coffee,"Rue de la Madeleine 33A, 1800 Vevey",,,+41787091990,1800
Vintage Bar,"Grande Place 19, 1800 Vevey",,,+41219221581,1800
WØFF-World Øf Fresh Food,"Rue du Simplon 3, 1800 Vevey",hello@woffood.ch,,+41795929101,1800
Lee Voon Ying,"Rue de la Clergère 2, 1800 Vevey",,,+41219212033,1800
Timmoneri Umberto,"Rue du Théâtre 1, 1800 Vevey",,,+41219211667,1800
Wang Yange,"Avenue de la Gare 11, 1800 Vevey",,,+41219221166,1800
Carré Mambô,"Avenue du Général-Guisan 61, 1800 Vevey",franc.dufour@bluewin.ch,http://www.carremambo.ch/,+41216257538,1800
Lionel Meylan SA,"Rue de Lausanne 14, 1800 Vevey",info@lionel-meylan.ch,https://www.lionel-meylan.ch/,+41219255052,1800
Lionel Meylan SA,"Rue des Deux-Marchés 34, 1800 Vevey",galerie@lionel-meylan.ch,http://www.lionel-meylan.ch/,+41219255051,1800
Sinopie Sàrl,"Rue de l'Union 15, 1800 Vevey",info@sinopie.ch,http://sinopie.ch/,+41787081313,1800
Haselwander Michel et Raphaël,"Boulevard Paderewski 2, 1800 Vevey",,,+41219442659,1800
Ebénisterie la ligne G,"Case postale, 1800 Vevey 1",renegaube@hotmail.com,,+41787481204,1800