name,address,email,website,phone,postalCode
Au Tonneau,"Rue Beauregard 10, 2520 La Neuveville",,http://www.restaurant-du-tonneau.ch/,+41327513462,2326
Zur Mühle,"Dorfstrasse 61, 3906 Saas-Fee",info@zurmuehle-saas-fee.ch,http://www.zurmuehle-saas-fee.ch/,+41279572676,2326
Hiltl Sihlpost,"Europaallee 1A, 8004 Zürich",sihlpost@hiltl.ch,http://hiltl.ch/de/standorte/sihlpost,+41443441111,2326
Hôtel du Trift,"Route de Liddes 5, 3961 Zinal",zinaltrift@bluewin.ch,http://www.letriftzinal.ch/,+41274751466,2326
Plan-Cerisier,"Les Guières 15, 1921 Martigny-Croix",info@plan-cerisier.ch,https://plan-cerisier.ch/,+41277222529,2326
A la Valsainte,"Rue du Collège 22, 1800 Vevey",info@alavalsainte.ch,http://www.alavalsainte.ch/,+41219213260,2326
Restaurant Il Pulcinella,"Rue Préfet Comte 2, 2852 Courtételle",gaspardeoliveira.mabilda@gmail.com,http://www.juragourmand.ch/?tabgroup=&buttonid=1017&itemid=236,+41324222121,2326
Restaurant Falken,"St. Martinsplatz 9, 7000 Chur",,http://www.falken-chur.ch/,+41812504705,2326
Gasthaus Ochsen Berneck,"Neugass 8, 9442 Berneck",info@ochsen-berneck.ch,http://www.ochsen-berneck.ch/,+41717474721,2326
Hotel Steinbock / Pizzeria da Salvi,"Dorfstrasse 189, 3818 Grindelwald",,http://www.steinbock-grindelwald.ch/,+41338538989,2326
Réunion,"Chemin de Sous-Balme 2, 1255 Veyrier",info@restaurant-reunion.ch,http://www.restaurant-reunion.ch/,+41227840798,2326
Ristorante & Pizzeria Vecchio Postiglione,"Via San Gottardo 44, 6745 Giornico",ilvecchiopostiglione@gmail.com,http://ilvecchiopostiglione.ch/,+41918252308,2326
Restaurant Oberes Triemli,"Birmensdorferstrasse 535, 8055 Zürich",info@oberes-triemli.ch,http://www.oberes-triemli.ch/,+41444631025,2326
Rossberg,"Rossbergstrasse 41, 8310 Kemptthal",,http://www.rossberg-winterthur.ch/,+41523451163,2326
PaSiWo,"Klybeckstrasse 2, 4057 Basel",,http://www.pasiwo.ch/,+41616816033,2326
Hotel City Zürich,"Löwenstrasse 34, 8001 Zürich",hotelcity@hotelcity.ch,http://www.hotelcity.ch/,+41442171717,2326
Klötzlikeller,"Gerechtigkeitsgasse 62, 3011 Bern",info@kloetzlikeller.ch,https://www.kloetzlikeller.ch/,+41313117456,2326
Le Relais Fleuri,"Route Cantonale 6, 3971 Chermignon-d'en-Bas",contact@relais-fleuri.ch,http://www.relais-fleuri.ch/,+41275657412,2326
Café Restaurant de l'Union,"Rue de St-Germain 23, 1965 Savièse",info@resto-union.ch,https://www.resto-union.ch/en,+41273955053,2326
Pâtisserie Mage,"Route de Malagnou 52, 1208 Genève",info@patisseriemage.ch,http://www.patisseriemage.ch/,+41227364440,2326
Restaurant Oberli,"Dorfstrasse 14, 3380 Walliswil b. Niederbipp",,http://www.restaurant-oberli.ch/,+41326312241,2326
Campagna,"Brüggstrasse 369A, 3123 Belp",info@campagnabelp.ch,http://www.campagnabelp.ch/,+41318191555,2326
Ristorante Centro,"Via San Gottardo 77, 6900 Massagno",,http://www.ristorantecentro.com/,+41919671396,2326
Le Maraîcher - Bona Creations Traiteur,"Route de Pré-Bois 20, 1215 Genève 15 Aéroport",contact@le-maraicher.ch,https://le-maraicher.ch/,+41227994520,2326
Boz Pizza Kurier,"Bernstrasse 180, 4852 Rothrist",info@bozpizza.ch,http://www.bozpizza.ch/,+41627940860,2326
Les Trois Suisse,"Route de Châtel-St-Denis 42, 1805 Jongny",jongny@restaurant-trois-suisses.ch,https://www.restaurant-destroissuisses.ch/,+41219211396,2326
Caffé Caruso,"Piazza Della Riforma 4, 6900 Lugano",events@spaghettigastrogroup.com,http://www.spaghettigastrogroup.com/,+41919211979,2326
Camping-Seeblick AG Mosen,"Aescherstrasse 5, 6295 Mosen",,http://www.camping-seeblick.ch/,+41419171666,2326
Punto e Pasta,"Oberer Graben 26, 8400 Winterthur",info@punto-et-pasta.ch,http://www.punto-et-pasta.ch/,+41522136723,2326
L'Unique Tartare,"Rue du Bourg 37, 3960 Sierre",sierre@lunique-tartare.ch,http://www.lunique-tartare.ch/,+41275644656,2326
Commercio Bar,"Mühlebachstrasse 2, 8008 Zürich",,http://www.commercio.ch/commercio,+41442505930,2326
I Grappoli,"Via Grappoli 12, 6997 Sessa",,http://www.grappoli.ch/,+41916081187,2326
Verdi Ristorante,"Gerechtigkeitsgasse 7, 3011 Bern",info@verdi-bern.ch,https://www.bindella.ch/de/verdi.html,+41313126368,2326
Restaurant Golden Thai Food,"Zürcherstrasse 59, 8800 Thalwil",mail@golden-thai-food.ch,http://www.golden-thai-food.ch/,+41447200828,2326
Gasthof Sternen,"Klosterstrasse 9, 5430 Wettingen",info@sternen-kloster-wettingen.ch,http://www.sternen-kloster-wettingen.ch/,+41564271461,2326
belMont Apart Lodge & Restaurant,"Gletscherstrasse 8, 3906 Saas-Fee",apart@belmont-saas-fee.ch,https://www.belmont-saas-fee.ch/de,+41275301228,2326
Ecusson-Vaudois,"Grand-Rue 12, 1262 Eysins",,http://www.malakoff-eysins.ch/,+41223611954,2326
Mikado Sushi,"Rue de Carouge 8, 1205 Genève",,http://www.sushi.ch/,+41223204477,2326
Gasthaus Linde,"Wohlerstrasse 52, 5619 Büttikon AG",info@linde-buettikon.ch,http://www.linde-buettikon.ch/,+41566221193,2326
der GASTHOF,"Klausenstrasse 220, 6463 Bürglen UR",info@dergasthof.ch,https://www.dergasthof.ch/cms/index.php,+41418701471,2326
Ristorante Pizzeria Da Corrado,"Dorfstrasse 49, 3778 Schönried",info@corradotomasini.ch,http://www.dacorrado.ch/,+41337486765,2326
Seehof,"Seestrasse 104, 8880 Walenstadt",info@seehof-walenstadt.ch,http://www.seehof-walenstadt.ch/,+41817351245,2326
Hôtel de la Cascade,"Hauptstrasse 411, 1656 Jaun",info@wasserfall-cascade.ch,http://www.wasserfall-cascade.ch/,+41269298206,2326
Restaurant Zum Sternen,"Oberdorfstrasse 1, 5445 Eggenwil",sterneneggenwil@bluewin.ch,https://www.zum-sternen-eggenwil.ch/,+41562228989,2326
LILIENBERG,"Blauortstrasse 10, 8272 Ermatingen",info@lilienberg.ch,http://www.lilienberg.ch/,+41716632323,2326
la Closerie,"Place du Manoir 14, 1223 Cologny",reservation@lacloserie.ch,http://www.lacloserie.ch/,+41227361355,2326
Restaurant de la Cigogne,"Rue de la Préfecture 7, 2800 Delémont",raphlou@bluewin.ch,http://www.resto-cigogne.ch/,+41324221483,2326
Restaurant Aarauerstube,"Bahnhofstrasse 78, 5000 Aarau",info@aarauerstube.ch,http://www.aarauerstube.ch/,+41628221352,2326
Château de Villa,"Rue Sainte-Catherine 4, 3960 Sierre",,http://www.chateaudevilla.ch/,+41274551896,2326
Yildirim's SnackHouse,"Spitalgasse 1, 4900 Langenthal",,https://www.local.ch/de/d/langenthal/4900/kebab-doener/yildirim-s-snackhouse-0AIqW7yR5-Z8jFWEYdgAIA?dwhat=lahmacun&dwhere=langenthal,+41629222627,2326
Landgasthof Hard,"Alte Landstrasse 8, 4455 Zunzgen",info@landgasthof-hard.ch,http://www.landgasthof-hard.ch/,+41619719590,2326
L'unique Tartare,"Rue de Vevey 15, 1630 Bulle",bulle@lunique-tartare.ch,http://www.lunique-tartare.ch/,+41269137634,2326
BEO-Funpark,"Auriedstrasse 28, 3178 Bösingen",info@beo-funpark.ch,http://www.beo-funpark.ch/,+41317479292,2326
Hôtel - Restaurant L'Acacia,"Route de la Gruyère 8, 1723 Marly",acacia.hotel@bluewin.ch,http://hotel-acacia.ch/,+41264300700,2326
Best Western Plus Hôtel Mirabeau,"Avenue de la Gare 31, 1003 Lausanne",reservation@mirabeau.ch,http://www.mirabeau.ch/,+41213414243,2326
Senevita Burgdorf,"Lyssachstrasse 77, 3400 Burgdorf",,http://www.burgdorf.senevita.ch/,+41344310000,2326
Restaurant Eulachpark Halle 710,"Barbara-Reinhart-Strasse 25, 8404 Winterthur",info@restaurant-eulachpark.ch,http://www.restaurant-eulachpark.ch/,+41522433535,2326
Venezia,"Isenlaufstrasse 2, 5620 Bremgarten AG",,http://www.pizzeriavenezia.ch/,+41566334000,2326
Hotel Restaurant Anker,"Dorf 10, 9053 Teufen AR",,http://www.anker-teufen.ch/,+41713331345,2326
Gasthaus Tübli Gersau,"Dorfstrasse 12, 6442 Gersau",info@gasthaus-tuebli-gersau.ch,http://www.gasthaus-tuebli-gersau.ch/,+41418281234,2326
Restaurant Singapore,"Badenerstrasse 530, 8048 Zürich",,http://www.restaurant-singapore.ch/,+41444011510,2326
Don Carlos Restaurant Pizzeria,"Ruopigenplatz 14, 6015 Luzern",,http://www.doncarlosrestaurant.ch/,+41412506622,2326
Le Coin de l'Espoir,"Avenue de Bel-Air 16, 1225 Chêne-Bourg",,,+41223485939,2326
Restaurant Pizzeria New Bubble,"Chemin du Croset 9, 1024 Ecublens VD",,http://www.newbubble.ch/,+41216970710,2326
La Gondola Veneziana,"Grand-Rue 89, 1844 Villeneuve VD",sabine.spicher@hotmail.com,http://www.la-gondola-veneziana.ch/,+41219603136,2326
Astra Kitchen & Bar,"Löwenstrasse 25, 8001 Zürich",astra@astra-kitchenbar.ch,http://www.astra-kitchenbar.ch/,+41445440073,2326
Arvenbüel,"Arvenbüelstrasse 47, 8873 Amden",info@arvenbuel.ch,http://www.arvenbuel.ch/,+41556116010,2326
Auberge de la Halle,"Rue du Bourg 24, 1663 Gruyères",ah@aubergehalle.ch,http://www.aubergehalle.ch/,+41269212178,2326
La Cigale Rouge,"Route de Massonnens 3, 1680 Romont FR",,http://www.lacigalerouge.ch/,+41266523752,2326
Lugano Café,"Via Trevano 38, 6900 Lugano",,https://www.facebook.com/luganocafeevents,+41919710042,2326
Grotto Circolo Sociale,"Via ai Canvetti 13, 6926 Montagnola",info@grottocircolosociale.ch,http://www.grottocircolosociale.ch/,+41919946919,2326
Alters- und Pflegeheim Grünhalde,"Grünhaldenstrasse 19, 8050 Zürich",info@gruenhalde.ch,http://www.gruenhalde.ch/,+41433360020,2326
Le QG Restaurant,"Route des Ormonts 1, 1854 Leysin",le.qg.leysin@gmail.com,https://www.leqg-restaurant.ch/,+41244943480,2326
Hotel Suisse,"Via Da Mezz 36, 7742 Poschiavo",hotel@suisse-poschiavo.ch,http://www.suisse-poschiavo.ch/,+41818440788,2326
Santa Verena Restaurant Pizzeria,"Strählgasse 1, 8832 Wollerau",info@santaverena.ch,https://santaverena.ch/,+41447840618,2326
Osteria Bar Amici,"Via Cantonale 1, 6662 Russo",osteriabar.amici@yahoo.com,http://www.facebook.com/osteriabar.amici,+41917972020,2326
Lido Seegarten,"Viale Castagnola 22, 6900 Lugano",info@hotellido-lugano.com,http://www.hotellido-lugano.com/,+41919736363,2326
Casa Berno,"Via Gottardo Madonna 15, 6612 Ascona",hotel@casaberno.ch,http://www.casaberno.ch/,+41917913232,2326
Petits Pois Carottes,"Route des Rottes 29, 1964 Conthey",,http://www.petitspoiscarottes.ch/,+41273460712,2326
Città Vecchia,"Untere Gasse 5, 3800 Unterseen",info@citta-vecchia.ch,https://www.citta-vecchia.ch/,+41338221754,2326
vinoteca bar-olo,"Bahnhof 1, 6383 Dallenwil",,https://www.bar-olo.ch/,+41416280530,2326
L'Oasis,"Quai Grand'Rives 6, 1844 Villeneuve VD",,http://www.restaurantoasis.ch/,+41219656020,2326
Motel des Sports,"Rue du Forum 15, 1920 Martigny",info@moteldessports.ch,http://www.moteldessports.ch/,+41277222078,2326
Restaurant Burg Hohenklingen,"Hohenklingenstrasse 1, 8260 Stein am Rhein",info@burghohenklingen.com,http://www.burghohenklingen.com/,+41527412137,2326
Weedoo,"Via Golena 1, 6512 Giubiasco",weedoo.bzona@gmail.com,http://www.weedoo.it/,+41912244222,2326
Locanda Gandriese,"Piazza Nisciör 7, 6978 Gandria",,http://www.locandagandriese.com/,+41919714181,2326
White Horse,"Avenue d'Ouchy 66, 1006 Lausanne",,http://www.whitehorse.ch/,+41216167575,2326
Castanea,"Usterstrasse 105, 8330 Pfäffikon ZH",castanea_gastro@outlook.com,https://www.castanea-gastro.ch/,+41762086577,2326
Auberge de Dully,"Place du Village 9, 1195 Dully",info@aubergedully.ch,http://www.aubergedully.ch/,+41218241149,2326
Restaurant Reblaube,"Obermattweg 2, 4432 Lampenberg",,http://www.reblaube-lampenberg.ch/,+41619511051,2326
Stiftung / Fondation Battenberg,"Südstrasse 55, 2504 Biel/Bienne",,http://www.battenberg.ch/,+41323442522,2326
Rua Thai,"Schluhmattstrasse 19, 3920 Zermatt",,http://www.hotelalbanareal.com/en/rua-thai-en/,+41279666181,2326
Restaurant Kundelfingerhof,"Kundelfingerhof 2, 8252 Schlatt TG",restaurant@kundelfingerhof.ch,http://www.kundelfingerhof.ch/,+41526571122,2326
Gasthaus Krone am See,"Hafenstrasse 13, 8595 Altnau",,http://www.gasthauskroneamsee.ch/,+41716951912,2326
La Fermata Lugano,"Viale Carlo Cattaneo 21, 6900 Lugano",lafermatalugano@gmail.com,http://www.facebook.com/lafermata.lugano,+41912257977,2326
Ristorante la Cena,"Impasse du Nouveau-Marché 1, 1723 Marly",lacena@bluewin.ch,http://www.lacena.ch/,+41264300330,2326
Cèdre-Bellevue,"Schifflände 5, 8001 Zürich",,http://www.libanesisch.ch/,+41442528370,2326
Mai Thai Restaurant,"Peter-Kaiser-Strasse 51, 9493 Mauren FL",,https://www.maithai.li/,+4233736650,2326
Le Centre Marly,"Route des Pralettes 1, 1723 Marly",restaurantlecentre@bluewin.ch,https://www.facebook.com/Cafelecentre,+41264363355,2326
Restaurant Pizzeria Margherita,"Steinenvorstadt 60, 4051 Basel",,http://www.pizzeria-margherita.ch/,+41612722044,2326
le Bistrot d'Italie,"Rue d'Oche 10, 1920 Martigny",info@lebistrotditalie.ch,http://www.restaurant-italien-valais.com/,+41277220053,2326
Il Fermento,"Gotthardstrasse 52, 6490 Andermatt",events@spaghettigastrogroup.com,http://www.ilfermento.ch/,+41418871050,2326
La Table de Hauri Urs,"Zeughausgasse 19, 3011 Bern",info@urshauri.ch,http://www.urshauri.ch/,+41313111413,2326
Old Siam,"Webermühle 10, 5432 Neuenhof",info@old-siam.ch,http://www.old-siam.ch/,+41564060441,2326
Central Hotel Wolter,"Dorfstrasse 93, 3818 Grindelwald",hotel@central-wolter.ch,http://www.central-wolter.ch/,+41338543333,2326
FREIHOF Brauerei & Hofstube,"Flawilerstrasse 46, 9200 Gossau SG",info@freihof.swiss,https://www.freihof.swiss/,+41713853434,2326
Restaurant Le Farinet,"Rue Louis Antille 7, 3963 Crans-Montana",,https://le-farinet.ch/,+41274854070,2326
Beau-Site,"Brunnmattgasse 9, 3920 Zermatt",info@parkhotel-beausite.ch,http://www.parkhotel-beausite.ch/,+41279666868,2326
Restaurant Pizzeria Laterne,"Axenstrasse 1, 6452 Sisikon",amici@laterne-sisikon.ch,http://www.laterne-sisikon.ch/,+41418202626,2326
Urban Café Restaurant,"Seenerstrasse 191, 8405 Winterthur",,http://altersheim-st-urban.ch/restaurant,+41522348500,2326
La Tegola,"Viale Verbano, 6600 Muralto",,https://www.ristorantelategola.ch/,+41917437121,2326
La Kebaberie,"Rue du Château 10, 2013 Colombier NE",,http://www.kebaberie.ch/,+41328412020,2326
Vertigo by Anna,"Avenue des Bains 4C, 1007 Lausanne",,,+41766152884,2326
Gasthaus zur Metzg,"Kirchplatz 6, 8832 Wollerau",kontakt@zurmetzg.ch,https://www.zurmetzg-wollerau.ch/,+41433119288,2326
Halle de Rive,"Boulevard Helvétique 29, 1207 Genève",,http://www.hallederive.ch/,+41224186230,2326
Ristorante Bistro del Casinò di Locarno,"Largo Franco Zorzi 1, 6600 Locarno",info@casinolocarno.ch,https://www.casinolocarno.ch/it/ristorante-bistro,+41917563030,2326
Oekumenisches Alterswohnheim Wiesliacher Oekas Zürich-Witikon,"Wiesliacher 30, 8053 Zürich",,https://www.wiesliacher.ch/das-wiesliacher/index.html,+41434430808,2326
Ristorante Missultin,"Via Cantonale 1, 6805 Mezzovico",welcome@missultin.ch,https://www.missultin.ch/it?hsLang=it,+41916836805,2326
Golf Fricktal AG,"Büttihaldenweg 100, 5070 Frick",info@golf-fricktal.ch,http://www.golf-fricktal.ch/,+41628757810,2326
Domaine de la Crausaz,"Chemin de la Creuse 9, 1091 Grandvaux",,https://www.lacrausaz.ch/,+41213579018,2326
les Remparts,"Rue du Bourg 19, 1663 Gruyères",,http://www.remparts-resto.ch/,+41269212177,2326
Hotel-Restaurant Spycher GmbH,"Müllermattestrasse 2, 3718 Kandersteg",info@hotelantico-spycher.ch,http://www.hotel-restaurant-spycher.ch/,+41336751313,2326
Hotel Kirchbühl,"Kirchbühlstrasse 23, 3818 Grindelwald",hotel@kirchbuehl.ch,http://www.kirchbuehl.ch/,+41338544080,2326
Central Restaurant,"Zürichstrasse 100, 8910 Affoltern am Albis",info@central-affoltern.ch,http://www.central-affoltern.ch/,+41447616115,2326
Parkside eat & bar lounge,"Grabenstrasse 8, 3600 Thun",info@parkside-thun.ch,http://www.parkside-thun.ch/,+41332220404,2326
Au Beau Réveil,"Route du Village 11, 1875 Morgins",aubeaureveil@gmail.com,http://www.au-beau-reveil-boulangerie.ch/,+41244771184,2326
Grain Bar & Restaurant,"Zürichbergstrasse 71, 8044 Zürich",info@grain.ch,http://www.grain.ch/de,+41442610281,2326
Café Restaurant Amis,"Route de Peissy 83, 1242 Satigny",,http://www.cafedesamis.ch/,+41227531281,2326
Landgasthof Garmiswil,"Garmiswil 18, 3186 Düdingen",,http://www.jungos.ch/,+41264920130,2326
Forellensee Gstaad-Zweisimmen 'Im Einklang mit den Elementen',"Thunstrasse 32, 3770 Zweisimmen",willkommen@forellensee.ch,https://www.forellensee.ch/,+41337222969,2326
Ilge,"Dorf 2, 9053 Teufen AR",inauen.koch@bluewin.ch,http://www.ilge-teufen.ch/,+41713331360,2326
Entrecôte Café Fédéral,"Bärenplatz 31, 3011 Bern",info@entrecote.ch,http://www.entrecote.ch/,+41313111624,2326
Felsenheim LebensArt im Alter,"Flüelistrasse 33, 6072 Sachseln",info@felsenheim.ch,http://www.felsenheim.ch/,+41416660404,2326
Pokaia,"Neumarktstrasse 9, 2502 Biel",,,+41323220684,2326
Chesa Grischa,"Via da Baselgia 4, 7515 Sils/Segl Baselgia",info@hotelgrischasils.ch,http://www.hotelgrischasils.ch/,+41818385070,2326
Seehotel Hallwil,"Seestrasse 79, 5712 Beinwil am See",hotel@seehotel-hallwil.ch,http://www.seehotel-hallwil.ch/,+41627658030,2326
Restaurant,"Bahnhofstrasse 67, 9240 Uzwil",info@hotel-uzwil.ch,https://www.restaurant-hotel-uzwil.ch/de,+41719557061,2326
ORIENT Gold Restaurant & Bar,"Zwinglistrasse 39, 8004 Zürich",,http://www.orient-gold.ch/,+41442919797,2326
Ristorante Millefiori,"Viale Stazione 7, 6512 Giubiasco",info@millefioriristorante.ch,https://www.millefioriristorante.ch/,+41918576565,2326
Ceresio,"Via Serafino Balestra 19, 6900 Lugano",,http://www.hotelceresio.ch/,+41919231044,2326
Hotel & Restaurant Linde Heiden,"Poststrasse 11, 9410 Heiden",info@lindeheiden.ch,http://www.lindeheiden.ch/,+41718983400,2326
Arcade,"Im Zentrum 14, 8634 Hombrechtikon",catering@arcade-catering.ch,http://www.arcade-catering.ch/,+41552441313,2326
Café de Mategnin,"Avenue A. -F.-Dubois 37, 1217 Meyrin",,http://www.cafedemategnin.com/,+41227820688,2326
Napoli,"Zone industrielle Bovéry 56, 1868 Collombey",,https://www.pizzeria-napoli.ch/,+41244723335,2326
Restaurant Park am Rheinfall,"Rheinfallquai 5, 8212 Neuhausen am Rheinfall",genuss@rheinfall-gastronomie.ch,http://www.rheinfall-gastronomie.ch/,+41526721821,2326
Berghotel Hornberg,"Hornbergstrasse 43, 3777 Saanenmöser",berghaus.hornberg@bluewin.ch,http://www.berghotelhornberg.ch/,+41337441365,2326
Ristorante Hotel Morobbia,"Al Gagiurasc 12, 6528 Camorino",info@hotelmorobbia.ch,http://www.hotelmorobbia.ch/,+41918573271,2326
XL Bowling,"Rue Louis-J.-Chevrolet 50, 2300 La Chaux-de-Fonds",,http://www.xlbowling.ch/,+41329259624,2326
Les Baumettes Fondation,"Avenue des Baumettes 120, 1020 Renens VD",baumettes@baumettes.ch,http://www.baumettes.ch/,+41216375555,2326
le Carré,"Rue du Lac 45, 1800 Vevey",,http://lecarre-vevey.ch/index.html#top,+41219215006,2326
The secret of garden Swiss Sàrl,"Rue du Petit-Chêne 27, 1003 Lausanne",,https://www.bagelontheway.ch/,+41213110488,2326
Hotel Gasthaus Bären,"Hauptstrasse 14, 5742 Kölliken",,http://www.baeren-koelliken.ch/,+41627233636,2326
Ristorante La Casa,"Riedtlistrasse 2, 8006 Zürich",,http://www.ristorante-lacasa.ch/,+41438100454,2326
Metropole,"Quai de la Sorne 4, 2800 Delémont",metropole@bluewin.ch,http://www.restaurant-metropole.ch/,+41324234101,2326
Alpenblick,"Küchenrain 5, 9057 Schwende",hotel@alpenblick-appenzell.ch,http://www.alpenblick-appenzell.ch/,+41717991173,2326
Hotel Kurhaus am Sarnersee,"Wilerstrasse 35, 6062 Wilen (Sarnen)",info@kurhaus.info,https://www.kurhaus.info/,+41416667466,2326
au Charbon,"Avenue de Chailly 13, 1012 Lausanne",,http://www.pizzacharbon.ch/,+41216520793,2326
Bad Schauenburg,"Schauenburgerstrasse 76, 4410 Liestal",hotel@badschauenburg.ch,http://www.badschauenburg.ch/,+41619062727,2326
Hotel Glockenhof,"Sihlstrasse 31, 8001 Zürich",info@glockenhof.ch,http://www.glockenhof.ch/,+41442259191,2326
China Restaurant Chop-Stick,"Niederdorfstrasse 82, 8001 Zürich",,http://www.china-restaurant-chopstick.ch/,+41442627833,2326
CORTE DEL VINO TICINO,"Via Ghitello 3, 6834 Morbio Inferiore",,http://www.cortedelvinoticino.ch/,+41916957552,2326
Restaurant Saal - La Stazione - Hotel Bahnhof,"Bahnhofstrasse 64, 8600 Dübendorf",info@restaurant-saal.ch,http://www.saal.ch/,+41448204848,2326
La Veranda,"Via Trevano 77, 6900 Lugano",,http://www.ristorantelaveranda.ch/,+41919703964,2326
Neosa Café,"Avenue de Fully 53, 1920 Martigny",dismoi@neosa.ch,https://neosa.ch/,+41277220275,2326
l'Ilot,"Place de la Fontaine 4, 2034 Peseux",,http://www.lilot.ch/,+41327315601,2326
MAORI,"Bernstrasse 15, 8952 Schlieren",,http://www.maori.ch/,+41447301016,2326
Hotel Gasthof zum Ochsen,"Ermitagestrasse 16, 4144 Arlesheim",gasthof@ochsen.ch,http://www.ochsen.ch/,+41617065200,2326
Grüene Aff,"Sulzelstrasse 10, 8846 Willerzell",info@grueneaff.ch,https://www.grueneaff.ch/,+41554124131,2326
Restaurant Maxi Boule,"Chemin du Chêne 7C, 1020 Renens VD",restaurant@maxiboule.ch,http://www.maxiboule.ch/,+41216710202,2326
Don Ciccio Ristorante-Pizzeria,"Bielmattstrasse 6, 3906 Saas-Fee",,http://www.donciccio-saasfee.ch/,+41279574020,2326
Restaurant zum Doktorhaus,"Alte Winterthurerstrasse 31, 8304 Wallisellen",info@doktorhaus.ch,http://www.doktorhaus.ch/,+41448305822,2326
Le Di.Vins,"Route de la Patinoire 17, 1875 Morgins",restaurant@divins.ch,http://www.divins.ch/,+41244773303,2326
Gasthof und Metzgerei zum Löwen AG,"Murtenstrasse 17, 3270 Aarberg",info@loewenaarberg.ch,http://www.loewenaarberg.ch/,+41323921845,2326
Restaurant le Coucou,"Route de Cugy 96, 1052 Le Mont-sur-Lausanne",info@lecoucou.ch,http://www.lecoucou.ch/,+41216526524,2326
Hostaria San Marco,"Viale Filippo Reina 8, 6982 Agno",events@spaghettigastrogroup.com,https://spaghettigastrogroup.com/home/hostaria-san-marco-giordano,+41916053568,2326
Un R de Famille,"Rue Goetz-Monin 10, 1205 Genève",,http://www.unrdefamille.ch/,+41223282223,2326
"Berges de Vidy, les","Chemin du Camping 3, 1007 Lausanne",,http://www.clv.ch/,+41216225005,2326
Hotel Boldern AG,"Boldernstrasse 83, 8708 Männedorf",info@boldern.ch,http://www.boldern.ch/,+41449217111,2326
Strandhotel,"Schönbühl 76, 3807 Iseltwald",,http://www.strandhotel.ch/,+41338451313,2326
The Planet Wellness SA,"Via Senago 17A, 6912 Pazzallo",,http://www.wellnessvillage.ch/,+41919947484,2326
Ristorante Castelgrande e Grotto San Michele,"Salita Castelgrande 18, 6500 Bellinzona",ristorante@castelgrande.ch,http://www.castelgrande.ch/,+41918148781,2326
Brasserie Obstberg,"Bantigerstrasse 18, 3006 Bern",info@brasserie-obstberg.ch,http://www.brasserie-obstberg.ch/,+41313520440,2326
Hôtel - Restaurant de la Dent-du-Midi,"Avenue du Simplon 1, 1890 St-Maurice",dentdumidi@torrente.ch,https://www.hotel-restaurant-dent-du-midi.ch/,+41244851209,2326
ANTICA OSTERIA DEL PORTO,"Via Foce 9, 6900 Lugano",,http://anticaosteriadelporto.ch/,+41919714200,2326
Hotel Spinne,"Dorfstrasse 136, 3818 Grindelwald",hotel@spinne.ch,http://www.spinne.ch/,+41338548888,2326
Bärengasse Restaurant,"Bahnhofstrasse 25, 8001 Zürich",reservation@restaurant-baerengasse.ch,http://www.restaurant-baerengasse.ch/,+41442100808,2326
57° Grill,"Place du Port 2, 1006 Lausanne",,http://www.chateaudouchy.ch/,+41213313232,2326
Hotel-Restaurant Wetterhorn,"Obere Gletscherstrasse 159, 3818 Grindelwald",wetterhorn@grindelwald.ch,https://www.wetterhorn-hotel.ch/,+41338531218,2326
Club Chat Noir SA,"Rue Vautier 13, 1227 Carouge GE",,http://www.chatnoir.ch/,+41223071040,2326
Gasthaus zum Hirschen,"Dorfstrasse 13, 8314 Kyburg",meile3@bluewin.ch,http://www.hirschen-kyburg.ch/,+41522324601,2326
Auberge Communale,"Place du Pont 3, 1337 Vallorbe",,http://www.auberge-communale-vallorbe.ch/,+41218431252,2326
Restaurant Pavillon,"Talstrasse 1, 8001 Zürich",,http://www.aupavillon.ch/,+41442205022,2326
Haus Hiltl,"Sihlstrasse 28, 8001 Zürich",info@hiltl.ch,http://hiltl.ch/de/standorte/haus-hiltl,+41442277000,2326
Bella Vita del Lago,"Schoren 45, 3653 Oberhofen am Thunersee",,https://www.bellavitadellago.ch/,+41332441100,2326
Suprême Tacos - Offre 30%,"Rue du Simplon 16, 1006 Lausanne",,https://www.ubereats.com/ch-fr/lausanne/food-delivery/supreme-tacos-lausanne-centre/FDdIfbB3RLWX6LGvpHF-_w,+41213574707,2326
Au Vieux Valais,"Rue Saint-Théodule 3, 1950 Sion",,http://www.vieuxvalais.ch/,+41273227272,2326
Thai Food Corner GmbH,"Brauerstrasse 3, 8004 Zürich",,http://www.thai-food-corner.ch/,+41442910121,2326
Restaurant Linde,"Lindenstrasse 1, 3043 Uettligen",info@lindewurm.ch,http://www.lindewurm.ch/,+41318291244,2326
L'Arco dei Sapori,"Bahnhofstrasse 16, 5600 Lenzburg",,http://www.larcodeisapori.ch/,+41628913365,2326
Villa Duchessa,"Stadthausstrasse 12, 8400 Winterthur",,http://www.villa-duchessa-winterthur.ch/,+41522120009,2326
Viale Snack Bar,"Viale Stazione 18a, 6500 Bellinzona",info@viale.ch,http://www.viale.ch/,+41918257303,2326
le Shogun,"Rue du 31-Décembre 16, 1207 Genève",restaurant.shogun@live.fr,http://www.shogun-geneve.ch/,+41227369306,2326
Buffet de la Gare de Céligny,"Route de Founex 25, 1298 Céligny",info@buffet-gare-celigny.ch,http://www.buffet-gare-celigny.ch/,+41227762770,2326
Pizzeria Moosbad,"Flüelerstrasse 104, 6460 Altdorf UR",info@da-sergio.ch,http://www.da-sergio.ch/,+41418705826,2326
Bäckerei-Konditorei Josef Kreyenbühl,"Würzenbachstrasse 23, 6006 Luzern",,http://www.kreyenbuehl.ch/,+41413757050,2326
Ristorante Campofelice,"Via Brere 18, 6598 Tenero",,https://www.campofelice.ch/services-de/gastronomie-de/restaurant-de?lang=de,+41917451640,2326
Wydehof,"Wyde 1, 5242 Birr",wydehof@wydehof.ch,http://www.wydehof.ch/,+41564646565,2326
Pouletburg,"Kirchweg 6, 6468 Attinghausen",,http://www.poulet-burg.ch/,+41418702184,2326
Restaurant Zee,"Seestrasse 21, 6353 Weggis",,http://www.restaurant-zee.ch/,+41413900170,2326
Hotel Ochsen Lenzburg,"Burghaldenstrasse 33, 5600 Lenzburg",info@ochsen-lenzburg.ch,http://www.ochsen-lenzburg.ch/,+41628864080,2326
Hotel & Restaurant Orchidee,"Schmiedengasse 20, 3400 Burgdorf",,http://www.hotel-orchidee.ch/,+41344207777,2326
Grotto Rossi,"Via Ronco 12, 6980 Castelrotto",events@spaghetti-store.com,http://grotto-rossi.ch/,+41916000550,2326
Hotel Jakob,"Hauptplatz 11, 8640 Rapperswil SG",info@jakob-rapperswil.ch,http://www.jakob-rapperswil.ch/,+41552200050,2326
Restaurant Belvedere,"Belvédère 1, 5400 Baden",info@belvedere-baden.ch,http://www.belvedere-baden.ch/,+41562225364,2326
Restaurant de la Croix Blanche,"Route de Fribourg 71, 1725 Posieux",info@croix-blanche-posieux.ch,http://www.croix-blanche-posieux.ch/,+41264119900,2326
Lucky Brothers,"Rue de Cornavin 3, 1201 Genève",luckybrothers2020@gmail.com,http://www.lucky-brothers.ch/,+41229001180,2326
Alpes et Lac,"Place de la Gare 2, 2000 Neuchâtel",hotel@alpesetlac.ch,http://www.alpesetlac.ch/,+41327231919,2326
KaLy Café SA,"Avenue Centrale 120, 1884 Villars-sur-Ollon",kalycafevillars@gmail.com,https://www.kalycafe.ch/,+41244951890,2326
Restaurant Hirschen,"Fulauerstrasse 2, 8542 Wiesendangen",,https://www.hirschen-wiesendangen.ch/,+41523371213,2326
Alters- und Gesundheitszentren Küsnacht,"Tägermoosstrasse 27, 8700 Küsnacht ZH",taegerhalde@kuesnacht.ch,http://www.taegerhalde.ch/,+41449137111,2326
Tamnansiam Thai Taste 811,"Badenerstrasse 811, 8048 Zürich",,http://www.tam-nan-siam-thai-restaurant.ch/,+41444310496,2326
Roter Bären,"Ochsengasse 17, 4058 Basel",info@roterbaeren.ch,http://www.roterbaeren.ch/,+41612610261,2326
Chez Sami,"Rue de Fribourg 11, 1201 Genève",,http://www.chezsami.ch/,+41229010333,2326
Brasserie Ô TroisChêne,"Chemin De-LA-MONTAGNE 136, 1224 Chêne-Bougeries",,http://www.otroischene.ch/,+41223487615,2326
Ristorante Lattecaldo,"Lattecaldo 1, 6835 Morbio Superiore",info@ristorantelattecaldo.ch,http://www.ristorantelattecaldo.ch/,+41916841240,2326
Thai Playa,"Watterstrasse 151, 8105 Regensdorf",info@thaiplaya.ch,http://www.thaiplaya.ch/,+41448405140,2326
Hot Wok,"Roosstrasse 40, 8105 Regensdorf",info@hotwok.ch,http://www.hotwok.ch/,+41448405407,2326
Isola Camping,"Al Gaggioletto 3, 6515 Gudo",,https://www.camping-isola.ch/it/campeggio-ticino-camping-isola-gudo,+41762560840,2326
Renfort (le),"Route du Creux-du-Loup 19, 1285 Athenaz (Avusy)",info@renfort.ch,http://www.renfort.ch/,+41227561236,2326
Ristorante Canvetto Ticinese,"Via Ovega 23, 6614 Brissago",info@canvettoticinese.ch,http://www.canvettoticinese.ch/,+41917932996,2326
Restaurant zum Grünen Glas,"Untere Zäune 15, 8001 Zürich",reservation@gruenesglas.ch,http://www.gruenesglas.ch/,+41442516504,2326
Restaurant Alpenzeiger,"Kirchbühlstrasse 6, 5630 Muri AG",info@bellavista-muri.ch,http://www.bellavista-muri.ch/,+41566641287,2326
"Café, restaurant Cantinho","Rue de Lyon 85, 1203 Genève",,,+41223404445,2326
Café-Restaurant des Fontaines,"Place des Chênes 4, 1906 Charrat",info@restaurantdesfontaines.ch,http://www.restaurant-fontaines.ch/,+41277465081,2326
Ristorante Pizzeria La Favola,"Henauerstrasse 44, 9244 Niederuzwil",ristorante.lafavola@hotmail.com,http://www.ristorante-pizzeria-lafavola.ch/,+41719515060,2326
Berggasthaus Höchst,"Höchst 3, 3725 Achseten",mail@gasthaus-hoechst.ch,http://www.gasthaus-hoechst.ch/,+41336714425,2326
Bellevue Parkhotel & Spa,"Bellevuestrasse 15, 3715 Adelboden",marketing@bellevue-parkhotel.ch,https://www.bellevue-parkhotel.ch/de,+41336738000,2326
"Restaurant Prélude, Emmen","Rüeggisingerstrasse 20a, 6020 Emmenbrücke",kontakt@le-theatre.ch,http://www.restaurant-prelude.ch/,+41412670808,2326
Rosaly's Restaurant & Bar,"Freieckgasse 7, 8001 Zürich",info@rosalys.ch,http://www.rosalys.ch/,+41442614430,2326
Restaurant Hotel Bären Twann,"Moos 36, 2513 Twann",info@baeren-twann.ch,http://www.baeren-twann.ch/,+41323152012,2326
Au détour,"Rue du Progrès 37, 2300 La Chaux-de-Fonds",,http://www.audetour.ch/,+41329140161,2326
Hôtel de la Gare - Yvonand,"Avenue du Temple 13, 1462 Yvonand",info@hotel-de-la-gare.ch,http://www.hotel-de-la-gare.ch/,+41244302404,2326
Bach & Buck,"Rue de la Serre 97, 2300 La Chaux-de-Fonds",,https://www.creperie-bach-buck.ch/,+41329135376,2326
Grotto Sgambada,6939 Arosio,,http://www.grottosgambada.ch/,+41916003242,2326
Restaurant Emilio Weinhandlung AG,"Zweierstrasse 9, 8004 Zürich",,http://www.emilio-restaurant.ch/,+41442418321,2326
Restaurant Pension Parsenn,"Bündti 56, 7241 Conters im Prättigau",jmeisser@restaurantparsenn.ch,http://www.restaurantparsenn.ch/,+41813321322,2326
Urirotstock,6461 Isenthal,,http://www.urirotstock.ch/,+41418781152,2326
Cambrena,7710 Ospizio Bernina,,http://www.cambrena.ch/,+41818440512,2326
Le Bivouac,"Route du Col des Mosses 104, 1862 Les Mosses",info@leschaletsdesmosses.ch,http://www.leschaletsdesmosses.ch/,+41244910500,2326
Schüür Restaurant & Kultur,"Bernstrasse 111, 3613 Steffisburg",,http://www.xn--schr-2raa.be/,+41334392616,2326
Gasthof Kreuz Egerkingen,"Oltnerstrasse 11, 4622 Egerkingen",kreuz@kreuz.ch,http://www.kreuz.ch/,+41623980333,2326
Alpina,"Kreuzweg 9, 3818 Grindelwald",,http://www.alpina-grindelwald.ch/,+41338543344,2326
Restaurant Pine,"Benzburweg 32, 4410 Liestal",,http://www.pine.ch/,+41619231484,2326
PANORAMA - RESTAURANT ZUR LINDE,"Linde 126, 3664 Burgistein",lindeburgistein@bluewin.ch,https://www.linde-burgistein.ch/,+41333561229,2326
Restaurant Mühli,"Mühle 6, 9548 Matzingen",info@muehli.ch,http://www.muehli.ch/,+41523761667,2326
Restaurant des Iles,"Promenade des Berges 21, 1950 Sion",,http://www.les-iles-bourgeoisiedesion.ch/,+41273229818,2326
Hotel Diana,"Ried 3, 3772 St. Stephan",info@hoteldiana.ch,http://www.hoteldiana.ch/,+41337223400,2326
Bistro Limette,"Gerliswilstrasse 63, 6020 Emmenbrücke",bistro.limette@vivale-sonnenplatz.ch,https://vivale-sonnenplatz.ch/unser-restaurant,+41412698500,2326
Landgasthof Hotel Restaurant Puurehuus,"Fehraltorferstrasse 9, 8615 Wermatswil",info@puurehuus.com,http://www.puurehuus.com/,+41433991616,2326
Hotel SEDARTIS,"Bahnhofstrasse 16, 8800 Thalwil",info@sedartis.ch,http://www.sedartis.ch/,+41433883300,2326
Restaurant Sonne,"Dorfstrasse 39, 4626 Niederbuchsiten",info@sonneniederbuchsiten.ch,http://www.sonneniederbuchsiten.ch/,+41623932163,2326
Auberge Les Viviers,"Route de Develier 24, 2800 Delémont",,http://www.lesviviers.ch/,+41324230116,2326
Restaurant Bahnhof,"Bahnhofstrasse 3, 2555 Brügg BE",,https://www.restaurant-bahnhof-bruegg.ch/,+41323731137,2326
Kamer's Güggeli,"Grossgiessen 4, 8717 Benken SG",,http://www.grossgiessen.ch/,+41552831008,2326
Schmid,"Veja Viglia 28, 7484 Latsch",,https://berguen-filisur.graubuenden.ch/de/regionen-entdecken/berguenbravuogn/restaurant-schmid-latsch,+41814071138,2326
Ristorante Bar Class,"Corso Pestalozzi 3, 6900 Lugano",,http://www.classcafe.ch/,+41919226080,2326
Chawi's Malanser Stube,"Karlihofstrasse 2, 7208 Malans GR",info@chawis-malanserstube.ch,http://www.chawis-malanserstube.ch/,+41813224061,2326
National Bern AG,"Hirschengraben 24, 3011 Bern",info@nationalbern.ch,http://www.nationalbern.ch/,+41315521515,2326
les Plânes,"Les Plânes 362, 2108 Couvet",,https://restaurant-lesplanes.ch/,+41328631165,2326
Restaurant Le Berna Sàrl,"Rue de la Cure 13, 2610 St-Imier",,,+41329411655,2326
Restaurant Pizzeria de la Gare,"Route de la Gare 20, 1165 Allaman",restaurantallaman@outlook.com,https://www.restaurantpizzeriadelagare.ch/,+41218070579,2326
Restaurant Hotel Chemihütte,"Ebenenfeld 4, 3703 Aeschiried",info@chemihuette.ch,http://www.chemihuette.ch/,+41336544681,2326
Restaurant Pizzeria au Parc,"Grand-Rue 38, 1820 Montreux",restauparc@bluewin.ch,http://www.au-parc.com/,+41219633157,2326
Da Vinci,"Spitalgasse 2, 3011 Bern",info@ristorantedavinci.ch,http://www.ristorantedavinci.ch/,+41313113737,2326
Restaurant Payam,"Am Wasser 135, 8049 Zürich",,http://www.restaurant-payam.ch/,+41444005554,2326
Restaurant Les Bergers,"Route de Siviez 27, 1997 Siviez (Nendaz)",,https://www.nendaz.ch/tourisme/bergers-3171.html,+41272881828,2326
Kloster Dornach,"Amthausstrasse 7, 4143 Dornach",info@klosterdornach.ch,http://www.klosterdornach.ch/,+41617011272,2326
"Café, Restaurant du Port","Rue d'Italie 23, 1800 Vevey",,http://www.cafeduport.ch/,+41219212050,2326
Akropolis Greek Restaurant,"Kreuzackerstrasse 6, 4500 Solothurn",info@akropolisgreek.ch,http://www.akropolisgreek.ch/,+41326212007,2326
Au Carrefour,"Rue du Midi 15, 1003 Lausanne",,,+41213239505,2326
Disoni Restaurant,"Talstrasse 31, 8808 Pfäffikon SZ",,https://www.disoni-restaurant.ch/,+41555255090,2326
le Corsaire,"Chemin du Grandsonnet 3, 1422 Grandson",,http://www.lecorsaire.ch/,+41244474210,2326
Hotel La Campagnola,"Via Campagnola 12, 6575 Vairano",mail@campagnola.ch,https://www.campagnola.ch/,+41917852500,2326
Restaurant Bai Ka Prao,"Regensdorferstrasse 14, 8108 Dällikon",info@baikaprao.ch,http://www.baikaprao.ch/,+41438880880,2326
Bistro / Restaurant CAT's Corner,"Bimenzältenstrasse, 8302 Kloten",,http://www.cat-aviation.com/de/cats-corner.html,+41438189763,2326
EAT.ch GmbH,"Werdstrasse 21, 8004 Zürich",info@eat.ch,https://www.eat.ch/?utm_source=localch&utm_medium=referral&utm_campaign=localch,+41848749921,2326
Pintli Uttigen AG,"Stationsstrasse 37, 3628 Uttigen",info@pintli-uttigen.ch,http://pintli-uttigen.ch/,+41333450583,2326
Bellevue,"Rue de la Gruère 13, 2350 Saignelégier",info@hotel-le-bellevue.ch,http://www.hotel-le-bellevue.ch/,+41329511620,2326
Restaurant Alten Löwen,"Universitätstrasse 111, 8006 Zürich",info@altenloewen.ch,http://www.altenloewen.ch/,+41433431169,2326
"LyLai, Chinese Table","Schaffhauserstrasse 157, 8302 Kloten",table@lylai.ch,https://lylai.ch/,+41445216688,2326
les Fougères,"Avenue de la Gare 7, 1964 Conthey",,http://www.restaurant-les-fougeres.ch/,+41273460540,2326
Ristorante Rivabella con Alloggio,"Via Naviglio 11, 6598 Tenero",,http://www.ristorante-garni-rivabella.ch/,+41917452214,2326
Restaurant Basilico Luzern GmbH,"Hirschmattstrasse 29, 6003 Luzern",,https://basilico-luzern.ch/,+41412102525,2326
La Printanière,"Boulevard de Saint-Georges 73, 1205 Genève",printaniere@printaniere.ch,http://www.printaniere.ch/,+41223282260,2326
Auberge de l'Aigle,"Route de Fahy 1, 2908 Grandfontaine",,http://www.restaurant-aigle.ch/,+41324766323,2326
il postino Ristorante & Bar,"Schaffhauserstrasse 188, 8057 Zürich",,http://www.ilpostino.ch/de,+41443506666,2326
acappella,"Worbstrasse 326, 3073 Gümligen",info@restaurant-acappella.ch,http://www.restaurant-acappella.ch/,+41319581881,2326
Café du Soleil,"Route du Mandement 173, 1242 Satigny",,https://www.cafedusoleil-satigny.com/,+41227531171,2326
Falkenburg,"Falkenburgstrasse 25, 9000 St. Gallen",falkenburgsg@bluewin.ch,http://www.falkenburgsg.ch/,+41712225581,2326
La delizia,"Bahnhofstrasse 15, 9230 Flawil",,http://www.la-delizia.ch/,+41713937500,2326
Chalet Du Lac,"Schoren 7, 3807 Iseltwald",,http://www.dulac-iseltwald.ch/,+41338458458,2326
Restaurant Le Cèdre - Maurice,"Nüschelerstrasse 31, 8001 Zürich",,http://www.libanesisch.ch/,+41442219802,2326
Casino Zürich,"Gessnerallee 3, 8001 Zürich",,https://www.swisscasinos.ch/zuerich,+41433303030,2326
Bio Getreideküche Rest. Stadtkeller,"Rathausplatz 6, 5620 Bremgarten AG",,http://www.stadtkellerbremgarten.ch/,+41566332222,2326
CN Restaurant,"Route des Rottes 6, 1964 Conthey",info@cn-restaurant.ch,http://www.cn-restaurant.ch/,+41273461998,2326
Gîte du Prilet,"Route du Prilett 147, 3961 St-Luc",,http://www.prilet.ch/,+41274751155,2326
Restaurant Anker Bern,"Schmiedenplatz 1, 3011 Bern",ANKER@ROESCHTI.CH,http://www.roeschti.ch/,+41313111113,2326
Asia Garden Urnerhof AG,"Axenstrasse 4, 6454 Flüelen",,http://asiagardenurnerhof.ch/,+41418712626,2326
Aigle-Noir,"Rue des Alpes 10, 1700 Fribourg",info@aiglenoir.ch,http://www.aiglenoir.ch/,+41263224977,2326
La Belle Croix Hôtel-Brasserie- Restaurant,"Route d'Arruffens 2, 1680 Romont FR",contact@hotel-labellecroix.ch,https://www.hotel-labellecroix.ch/,+41265652979,2326
Zentrum Schlossmatt Region Burgdorf,"Einschlagweg 38, 3400 Burgdorf",info@zsburgdorf.ch,http://www.zsburgdorf.ch/,+41344219111,2326
Hotel Grüner Wald,"Gotthardstrasse 4, 6467 Schattdorf",info@hotelgruenerwald.ch,https://www.hotelgruenerwald.ch/,+41795459371,2326
Hotel Murtenhof Krone,"Rathausgasse 3, 3280 Murten",info@murtenhof.ch,http://www.murtenhof.ch/,+41266729030,2326
Restaurant Le Torrent Sàrl,"Rue du Collège 2, 1853 Yvorne",,http://www.restaurant-le-torrent.ch/,+41245345697,2326
Tony's Bar Palumbi,"Rue de Monruz 21, 2000 Neuchâtel",,http://www.palumbi.ch/,+41327241562,2326
Grand Casino Baden AG,"Haselstrasse 2, 5400 Baden",info@grandcasinobaden.ch,http://www.grandcasinobaden.ch/,+41562040707,2326
le Tabou,"Rue de la Prévôté 9, 2740 Moutier",,http://www.le-tabou.ch/,+41324936171,2326
Golfhotel Riederhof,"Aletschpromenade 25, 3987 Riederalp",info@golfhotel-riederhof.ch,http://www.golfhotel-riederhof.ch/,+41279286464,2326
Restaurant Linde,"Mittelgäustrasse 34, 4616 Kappel SO",info@linde-kappel.ch,http://www.linde-kappel.ch/,+41622161261,2326
Restaurant Engel,"Holzhäusernstrasse 1, 6343 Holzhäusern ZG",info@engel-restaurant.ch,http://www.engel-restaurant.ch/,+41417904270,2326
Hotel Murten,"Bernstrasse 7, 3280 Murten",info@hotelmurten.ch,http://www.hotelmurten.ch/,+41266788181,2326
Au Furet,"Avenue d'Aïre 40, 1203 Genève",,http://www.aufuret.com/,+41223453920,2326
Restaurant Langenberg,"Wildparkstrasse 21, 8135 Langnau am Albis",info@restaurant-langenberg.ch,http://www.restaurant-langenberg.ch/,+41447133183,2326
Café-Restaurant le Relais,"Route des Narcisses 74, 1833 Les Avants",,http://www.cafe-restaurantlerelais.com/,+41219811980,2326
Restaurant Pier,"Seehofstrasse 11, 8592 Uttwil",info@pier-uttwil.ch,http://www.pier-uttwil.ch/,+41714637462,2326
Gasthaus Engel,"Brünigstrasse 100, 6072 Sachseln",info@engel-sachseln.ch,,+41416603646,2326
Hotel Bellavista,"Rontsch 57, 7551 Ftan",info@bellavista-ftan.ch,http://www.bellavista-ftan.ch/,+41818640133,2326
Taverne zur Krone,"Kronenplatz 1, 8953 Dietikon",info@taverne-zur-krone.ch,http://www.taverne-zur-krone.ch/,+41447442535,2326
Landhus Theresita Hersche,"Ausserdorfstrasse 4, 5272 Gansingen",info@landhus-gansingen.ch,http://www.landhus-gansingen.ch/,+41628751175,2326
Hôtel-de-Ville,"Rue du Château 1, 1616 Attalens",reservation@hoteldevilleattalens.ch,https://www.hoteldevilleattalens.ch/,+41219474107,2326
Restaurant Hotel Seeblick,"Hauptstrasse 2, 2572 Mörigen",info@seeblick.net,https://www.seeblick.net/,+41323970707,2326
Restaurant Haberbüni,"Könizstrasse 175, 3097 Liebefeld",info@haberbueni.ch,http://www.haberbueni.ch/,+41319725655,2326
Le Relais Miégeois,"Route de Sierre 31, 3972 Miège",,http://lerelaismiegeois.ch/,+41274559090,2326
Chillounge GmbH,"Obere Hauptgasse 38, 3600 Thun",,https://www.chilloungethun.ch/,+41332214359,2326
Gasthof zum Bahnhof,"Sernftalstrasse 19, 8765 Engi",,https://www.glarnerland.ch/Media/Gastronomie/Restaurant-Gasthaus-zum-Bahnhof,+41556425090,2326
Torgon,"Rue de la Lanche 5, 1899 Torgon",hoteldetorgon@bluewin.ch,http://www.hotel-torgon.ch/,+41244811571,2326
Café Restaurant de la Poste,"Place du 23-Juin 8, 2350 Saignelégier",m.paupe@bluewin.ch,http://www.cafe-restaurant-poste.ch/,+41329511179,2326
Gasthaus Adler,"Hauptplatz 9, 6403 Küssnacht am Rigi",,http://www.adler-kuessnacht.ch/,+41418501025,2326
Métairie d'Aarberg,"Métairie-d'Aarberg, 2057 Villiers",,http://www.metairie-aarberg.ch/,+41327513422,2326
Don Carlos,"Espace des Remparts 12, 1950 Sion",,http://www.don-carlos.ch/,+41273222454,2326
Restaurant Bar Miracle,"Fröhlichstrasse 37, 8008 Zürich",,https://miracleseefeld.ch/,+41443822005,2326
Alpfrieden,3992 Bettmeralp,mail@alpfrieden.ch,http://www.alpfrieden.ch/,+41279272232,2326
Hotel Sass da Grüm,"Via Campea 27, 6575 Vairano",info@sassdagruem.ch,https://www.sassdagruem.ch/,+41917852171,2326
Hotel Pension Restaurant Sunnmatt,"Scheidgasse 53, 3703 Aeschi b. Spiez",info@pensionsunnmatt.ch,https://www.pensionsunnmatt.ch/,+41336541939,2326
Hotel Restaurant Krebs,"Bahnhofstrasse 4, 3800 Interlaken",info@krebshotel.ch,http://www.krebshotel.ch/,+41338260330,2326
Hotel Restaurant Rössli,"Aarauerstrasse 39, 5116 Schinznach Bad",,http://www.schinznach-bad-roessli.ch/,+41564431123,2326
Restaurant Alte Sonne,"Alte Landstrasse 57, 8706 Meilen",info@altesonne.ch,http://www.altesonne.ch/,+41435395728,2326
NINO PIZZA,"Alte Jonastrasse 104, 8640 Rapperswil SG",,http://www.ninopizza.ch/,+41552141111,2326
Ristorante Fresco,"Via Bertaro Lambertenghi 5, 6900 Lugano",,http://ristorantefresco.ch/,+41912206064,2326
Restaurant Frohegg,"Belpstrasse 51, 3007 Bern",mail@frohegg.ch,http://www.frohegg.ch/,+41313822524,2326
Au Petit Chalet,"Rue Chaponnière 14, 1201 Genève",booksite@aupetitchalet.ch,http://www.aupetitchalet.ch/,+41227326979,2326
Wiederkehr Paul,"Route Principale 64, 1796 Courgevaux",,http://www.restaurantauberge.ch/,+41266704340,2326
Sagi Speiserestaurant-Grill,"Wiesendangerstrasse 15, 8543 Bertschikon",,http://www.sagi-bertschikon.ch/,+41523372319,2326
Restaurant Schönegg,"Oberheischerstrasse 2, 8915 Hausen am Albis",,https://www.schoenegg-hausen.ch/,+41447640135,2326
Spagi by Marcello,"Metzgergasse 8, 5000 Aarau",info@spagi.ch,https://spagi.ch/,+41628222312,2326
Emil Frey Classics AG,"Bahnhofplatz 2, 5745 Safenwil",info@emilfreyclassics.ch,http://www.emilfreyclassics.ch/?utm_source=local,+41627887920,2326
Arkanum,"Unterdorfstrasse 1, 3970 Salgesch",info@hotelarkanum.ch,http://www.hotelarkanum.ch/,+41274512100,2326
Barbarossa Ristorante Pizzeria,"Zeughausstrasse 4, 8500 Frauenfeld",pnapoli@stafag.ch,http://www.barbarossa-frauenfeld.ch/,+41527214558,2326
Restaurant des Caveaux,"Rue du Général Voirol 4, 2710 Tavannes",restaurantdescaveaux@bluewin.ch,https://restaurant-des-caveaux.business.site/?utm_source=gmb&utm_medium=referral,+41324815128,2326
Hôtel - Restaurant de la Cigogne,"Rue de l'Allaine 35, 2946 Miécourt",cigogne@ajoie-net.ch,http://www.cigogne-miecourt.ch/,+41324622424,2326
Astoria,"Untere Maressenstrasse 26, 3954 Leukerbad",info@astoria-leukerbad.ch,http://www.astoria-leukerbad.ch/,+41274701415,2326
HOSTELLERIE AM SCHWARZSEE,"Seestrasse 10, 1716 Schwarzsee",info@hostellerieamschwarzsee.ch,http://www.hostellerieamschwarzsee.ch/,+41264127474,2326
Auberge de Crassier Vincelle N,"Chemin de Marly 2, 1263 Crassier",aubergedecrassier@hotmail.com,http://www.facebook.com/pages/category/Restaurant/Auberge-de-Crassier-438274063311971/,+41223671912,2326
wahlievents GmbH,"Schorenweg 10, 4144 Arlesheim",events@wahlievents.ch,http://www.wahlievents.ch/,+41615510910,2326
zum Kreuz,"Vechigen Dorf 23A, 3067 Boll",,http://www.kreuz-vechigen.ch/,+41318390461,2326
Le Grillon,"Route d'Autigny 5, 1744 Chénens",,https://www.legrillonchenens.ch/,+41264770060,2326
ALEX,"Furkastrasse 88, 3904 Naters",info@hotelalex.ch,http://www.hotelalex.ch/,+41279224488,2326
Restaurant Traube,"Dorfgasse 13, 2513 Twann",info@traube-twann.ch,http://www.traube-twann.ch/,+41323157071,2326
Corail Rose,"Rue de Montbrillant 10, 1201 Genève",,https://www.restaurant-corail-rose-gambas.ch/,+41227330398,2326
la Détente,"Route André Piller 45, 1720 Corminboeuf",ladetente@bluewin.ch,http://www.ladetente.ch/,+41264667300,2326
Gasthaus zum Kreuz,"Stettlistrasse 3, 6383 Dallenwil",info@kreuz-dallenwil.ch,http://www.kreuz-dallenwil.ch/,+41416282020,2326
Hôtel Castel & Restaurant Roches Brunes,"Rue du Scex 38, 1950 Sion",info@hotelcastel.ch,http://www.hotelcastel.ch/,+41275272100,2326
Landgasthof Sternen,"Dorfstrasse 97, 9055 Bühler",info@sternen-appenzellerland.ch,http://www.sternen-appenzellerland.ch/,+41717931758,2326
Schloss Schartenfels,"Schartenfelsstrasse, 5430 Wettingen",info@schloss-schartenfels.ch,http://www.schloss-schartenfels.ch/,+41564261927,2326
Hotel e Ristorante La Tureta,"Piazza Grande 43, 6512 Giubiasco",hotel@latureta.ch,http://www.latureta.ch/,+41918574040,2326
Casa Tolone Ristorante - Vinoteca,"Fluhmattstrasse 48, 6004 Luzern",info@casatolone.ch,http://www.casatolone.ch/,+41414209988,2326
Steakhouse Old Town,"Niederdorfstrasse 19, 8001 Zürich",,http://www.hotel-oldtown.ch/,+41433218484,2326
Restaurant Le Phare,"Chemin du Vieux-Port 1A, 1897 Bouveret",lephare@bluewin.ch,https://lepharebouveret.ch/,+41244811130,2326
Collana Bar e Caffè,"Theaterstrasse 9, 8001 Zürich",,http://www.commercio.ch/collana,+41442505910,2326
Buffalo Grill Suisse SA,"Chemin de Saugy 7, 1023 Crissier",,https://www.buffalo-grill.fr/restaurant/lausanne-crissier,+41216710505,2326
Pizzacantina GmbH,"Dorfstrasse 21, 8454 Buchberg",,http://www.pizzacantina.ch/index.php?id=25,+41434225090,2326
Sur le Pont,"Rampe du Pont-Rouge 4, 1213 Petit-Lancy",surlepont@orif.ch,https://www.orif.ch/fr/nos-restaurants/sur-le-pont,+41223019224,2326
Pasta Oase,"Industriestrasse 30, 8304 Wallisellen",info@pastaoase.ch,https://www.pastaoase.ch/,+41448309300,2326
Serta,"Via Serta 6, 6814 Lamone",info@serta.ch,http://www.serta.ch/,+41919450235,2326
Lanna Thai,"Avenue Blanc 42, 1202 Genève",,http://www.lannathai.ch/,+41227412350,2326
CP Bistrot,"Via Val Barberina 3, 6807 Taverne",stefania.bordogna@cpbistrot.ch,http://www.cp-bistrot.ch/,+41919309376,2326
Hardhof,"Badenerstrasse 344, 8004 Zürich",,http://www.restaurant-hardhof.ch/,+41444920711,2326
Café Fümm,"Via Sura 78, 7530 Zernez",info@cafefuemm.ch,http://www.cafefuemm-zernez.ch/,+41818561413,2326
Cheval Blanc,"Rue de Graman 12, 1241 Puplinge",,https://www.cheval-blanc-restaurant-puplinge.ch/,+41223494814,2326
Burg-Strahlegg GmbH,"Untere Betliserstrasse 4, 8872 Weesen",,http://www.burg-strahlegg.ch/,+41556111182,2326
Hôtel du Nord,"Rue Colomb 2, 1860 Aigle",info@hoteldunord.ch,http://www.hoteldunord.ch/,+41244681055,2326
Zollhaus Restaurant,"Allmendstrasse 190, 3603 Thun",info@zollhaus-thun.ch,http://www.zollhaus-thun.ch/,+41332214646,2326
"Café, Restaurant de la Poste","Route Principale 42, 2914 Damvant",,https://www.restaurant-la-poste-damvant.ch/restaurant,+41324766138,2326
Pizzeria de Pérolles,"Boulevard de Pérolles 18A, 1700 Fribourg",info@pizzeria-de-perolles.ch,https://www.pizzeria-de-perolles.ch/,+41263212990,2326
Café Restaurant Brunnmatt,"Arisdörferstrasse 21A, 4410 Liestal",,http://www.cafe-restaurant-brunnmatt.ch/,+41619275771,2326
Restaurant/ Hotel Linde,"Untere Hauptstrasse 15, 4665 Oftringen",info@restaurant-linde.ch,https://www.restaurant-linde.ch/,+41627973919,2326
Ristorante Stazione Da Agnese,"Piazza Stazione 5, 6655 Intragna",da.agnese@bluewin.ch,http://www.daagnese.ch/,+41917961212,2326
Pizza Pasta e Basta,"Thunstrasse 6, 3770 Zweisimmen",pizzapastaebasta70@gmail.com,,+41779379214,2326
Restaurant Crown of India,"Zürichstrasse 105, 8123 Ebmatingen",,http://www.crown-of-india.ch/,+41434990202,2326
Restaurant Vita,"In der Au 5, 8604 Volketswil",,https://www.vitafutura.ch/services/restaurant-mahlzeitendienst,+41433993636,2326
Panorama-Tsang GmbH,"Aeschlenstrasse 134, 3656 Aeschlen ob Gunten",info@panora.ch,http://www.panora.ch/,+41332513131,2326
Pizzeria und Pizzakurier Campione,"Binzenstrasse 2, 8733 Eschenbach SG",anghelibb@yahoo.com,http://www.pizza-campione.ch/,+41552922244,2326
du Raisin,"Rue du 23-Juin 55, 2822 Courroux",rondez_1@hotmail.com,http://www.raisincourroux.com/,+41324221367,2326
Wolfisberg SA,"Boulevard Georges-Favon 6, 1204 Genève",,http://www.wolfisberg.org/en/our-shops-in-geneva,+41223208080,2326
Vecchia Osteria Seseglio,"Via Campora 11, 6832 Seseglio",info@vecchiaosteria.ch,http://www.vecchiaosteria.ch/,+41916827272,2326
Ristorante Benigni Pizzeria,"Jupiterstrasse 15, 3015 Bern",reservation@benigni.ch,https://www.benigni.ch/#/de/page/home,+41315520303,2326
Bordierhütte SAC,3924 St. Niklaus VS,,https://bordierhuette.com/,+41279561909,2326
Ristorante PEPEROSSO,"Seetalstrasse 97, 5703 Seon",,http://www.ristorantepeperosso.ch/,+41627751125,2326
Twin Fin,"Route d'Aproz 65, 1950 Sion",,https://alaiabay.ch/twin-fin,+41275641064,2326
Ristorante Pizzeria Perbacco,"Via Giuseppe Cattori 4, 6600 Locarno",info@RistorantePerbacco.ch,https://www.ristoranteperbacco.ch/,+41916010799,2326
Restaurant Pizzeria Grenzstein,"Landstrasse 1, 5430 Wettingen",info@ibogrenzstein.ch,https://ibogrenzstein.ch/,+41564267757,2326
Stallstube,"Rellikonstrasse 53, 8124 Maur",,http://www.stallstube-maur.ch/,+41449800281,2326
Pizza Bella,"Hauptstrasse 59, 6260 Reiden",,http://www.bellareiden.ch/,+41627585050,2326
Gasthof zur Krone,"Schlossstrasse 4, 8606 Greifensee",info@zur-krone.ch,http://www.zur-krone.ch/,+41449054656,2326
Hotel ristorante Baldi Sagl,"Strada di Rodi 22, 6772 Rodi-Fiesso",info@hotelbaldi.ch,http://www.hotelbaldi.ch/,+41918671782,2326
Restaurant Africana,"Rosengässchen 7, 8200 Schaffhausen",,https://www.africana-restaurant.ch/,+41526256591,2326
Convict Salesianum,"Avenue du Moléson 21, 1700 Fribourg",salesianum@chemin-neuf.org,http://www.salesianum.ch/,+41263511111,2326
Esther Schüpbach Stiftung Alterssiedlung Steffisburg,"Ortbühlweg 10, 3612 Steffisburg",,http://www.ess-steffisburg.ch/,+41334396464,2326
Café Restaurant Domino GmbH,"Schwanengasse 3, 3011 Bern",restaurant_domino@outlook.com,http://www.domino-bern.ch/,+41313114191,2326
Chalet Bergblick Aeschi,"Scheidgasse 46, 3703 Aeschi b. Spiez",info@bergblick-aeschi.ch,http://www.bergblick-aeschi.ch/,+41336544376,2326
Maison Blunt,"Gasometerstrasse 5, 8005 Zürich",,http://www.maison-blunt.ch/,+41432110033,2326
altulipanobianco,"Piazza Filippo Franzoni 1, 6600 Locarno",info@altulipanobianco.ch,http://altulipanobianco.ch/,+41912247075,2326
The Joey Bangkok Sàrl,"Chemin du Grand Canal 4A, 1846 Chessel",,https://joeybangkok.ch/,+41244814242,2326
Hotel Restaurant Moosburg,"Wilerstrasse 46, 9200 Gossau SG",info@moosburg-gossau.ch,http://www.moosburg-gossau.ch/,+41713851219,2326
Camping Prêles SA,"Route de la Neuveville 61, 2515 Prêles",info@camping-jura.ch,http://www.camping-jura.ch/,+41323151716,2326
Hotel Restaurant Rischli,"Rischlistrasse 88, 6174 Sörenberg",info@hotel-rischli.ch,http://www.hotel-rischli.ch/,+41414881240,2326
Furri,"Furi 49, 3920 Zermatt",info@restaurant-furri.ch,http://www.bergrestaurant-furri.ch/,+41279662777,2326
Restaurant Höck,"Bielstrasse 46, 3250 Lyss",,http://www.hoeck.ch/,+41323843250,2326
Alters- und Pflegeheim FRENKENBÜNDTEN,"Gitterlistrasse 10, 4410 Liestal",,http://www.frenkenbuendten.ch/,+41619271717,2326
Restaurant HOIAN BBQ,"Chemin des Pêcheurs 7, 1007 Lausanne",hoianrestaurant.bbq@gmail.com,http://hoianbbq.com/,+41216177151,2326
Restaurant Volkshaus,"Stauffacherstrasse 60, 8004 Zürich",,http://www.restaurantvolkshaus.ch/,+41442421155,2326
Höfli,"Hellgasse 20, 6460 Altdorf UR",,https://www.hotel-hoefli.ch/,+41418750275,2326
Ferme-Restaurant Pierreberg,"La Pierreberg 8, 2823 Courcelon",,http://www.ferme-restaurant-pierreberg.ch/,+41324230943,2326
Restaurant Thalheim,"Worblentalstrasse 89, 3063 Ittigen",restaurant@thaeli.ch,http://www.restaurant-thalheim.ch/,+41319210009,2326
LA REGAL'ETTE LUDOVIC ZIZEK,"Rue du Grand-Pont 27, 1950 Sion",,http://www.facebook.com/pages/Regalette/236407270239659?hc_ref=ARQ-hh37yPngFu6eqksTlXTodlxUvtd9zdgugsFmL7wNZAPLEu0TB3ZQENPW0jpSX2s&ref=nf_target&fref=tag,+41273213848,2326
Restaurant Yarim,"Oberdorfstrasse 11, 8153 Rümlang",,,+41445161990,2326
Auberge 'Café de l'Union',"Place du Village 5, 1978 Lens",info@lunion-lens.ch,http://www.lunion-lens.ch/,+41274832495,2326
Dans la Forêt Lointaine,"Grand-Rue 96A, 1627 Vaulruz",,http://www.danslaforetlointaine.ch/,+41269137821,2326
Restaurant Stadtgarten,"Städtli 12, 3380 Wangen an der Aare",info@stadtgarten-wangen.ch,https://www.stadtgarten-wangen.ch/,+41326312448,2326
Alpenrösli,"Höhenstrasse 7, 8330 Pfäffikon ZH",,http://www.rest-alpenroesli.ch/,+41449501232,2326
Relais Bayard AG,"Kantonsstrasse 151, 3952 Susten",info@relaisbayard.ch,http://www.relaisbayard.ch/,+41274749696,2326
Parkrestaurant Lange Erlen,"Erlenparkweg 55, 4058 Basel",info@langeerlen.ch,http://www.langeerlen.ch/,+41616814022,2326
alex Restaurant,"Rue de Conthey 13, 1950 Sion",,http://www.alexrestaurant.ch/,+41273213949,2326
Auberge Communale de Mézières,"Grand-Rue 3, 1083 Mézières VD",info@aubergedemezieres.ch,https://www.aubergedemezieres.com/,+41215469797,2326
Boutique Hotel La Rocca,"Via Ronco 61, 6613 Porto Ronco",hotel@la-rocca.ch,https://www.la-rocca.ch/it,+41917851144,2326
THAI ORCHID Restaurant & Bar,"Via Luigi Canonica 5, 6900 Lugano",,http://www.thaiorchidlugano.ch/,+41919233766,2326
Krone Thun Hotel,"Obere Hauptgasse 2, 3600 Thun",info@krone-thun.ch,http://www.krone-thun.ch/,+41332278888,2326
Gasthaus Zum Schäfli,"Dörflistrasse 3, 9656 Alt St. Johann",info@schaeflisepp.ch,http://www.schaeflisepp.ch/,+41719992442,2326
Remointze Sàrl,"Chemin du Mayen du Bisse 37, 1993 Clèbes (Nendaz)",,http://www.remointze.ch/,+41272071757,2326
San Gottardo,"Aarbergergasse 10, 3011 Bern",info@sangottardobern.ch,https://www.sangottardobern.ch/,+41313127900,2326
Frohsinn,"Seetalstrasse 11, 5703 Seon",,http://frohsinn-seon.ch/,+41627752182,2326
Gasthaus Wildenmann,"St. Germanstrasse 1, 6343 Buonas",info@wildenmann-buonas.ch,http://www.wildenmann-buonas.ch/,+41417903060,2326
Il Fermento,"Via Guglielmo Marconi 2, 6900 Lugano",events@spaghettigastrogroup.com,http://www.ilfermento.ch/,+41919234545,2326
Fiirabigbeizli - zur alte Chäsi,"Seebacherstrasse 58, 8052 Zürich",info@altechaesi.ch,http://www.altechaesi.ch/,+41433009916,2326
Restaurant Rössli,"Wilerstrasse 8, 9230 Flawil",info@roessli-flawil.ch,http://www.roessli-flawil.ch/,+41713932121,2326
Restaurant Ji Fu Sàrl,"Grand-Rue 7, 2345 Les Breuleux",,https://restaurant-ji-fu.business.site/,+41329541839,2326
Derby Hotel & Restaurant,"Dorfstrasse 75, 3818 Grindelwald",derby@grindelwald.ch,http://www.derby-grindelwald.ch/,+41338545461,2326
StadtAlp,6020 Emmenbrücke,info@stadtalp.ch,http://www.stadtalp.ch/,+41413110202,2326
Villa Selva,"Via Tesserete 36, 6900 Massagno",villaselva@bluewin.ch,http://villaselva.ch/selva,+41919236017,2326
Le Mazot,"Bärenplatz 5, 3011 Bern",,http://www.mazot-bern.ch/,+41313117088,2326
Ristorante Valentino,"Güterstrasse 183, 4053 Basel",info@ristorante-valentino.ch,https://www.ristorante-valentino.ch/,+41615068522,2326
Spaghetti Store,"Piazza Riziero Rezzonico 7, 6900 Lugano",events@spaghettigastrogroup.com,http://www.spaghettigastrogroup.com/,+41919222060,2326
Seehus - Molo 58,"Seestrasse 58, 6052 Hergiswil NW",,http://www.seehus.ch/,+41416310192,2326
ALLETORRI SNACK BAR,"Via Giovanni Varesi 14, 6600 Locarno",,http://alletorri.ch/,+41917514545,2326
la Nonna,"Rue du Maupas 17, 1004 Lausanne",,http://www.pizzeria-lanonna.ch/,+41216465412,2326
Le trait d'union,"Rue de Lausanne 45, 1950 Sion",,https://www.orif.ch/fr/nos-restaurants/le-trait-dunion,+41273465364,2326
Reiatstube GmbH,"Dorfstrasse 42, 8236 Opfertshofen SH",,http://www.restaurantreiatstube.ch/,+41526493416,2326
Zehn Eat&Shop,"Alte Landstrasse 1, 8708 Männedorf",,https://www.zehn10.ch/,+41449200386,2326
Restaurant Piazzetta MMM Zentrum Oberland Thun-Süd,"Talackerstrasse 62, 3604 Thun",,http://www.zentrumoberland.ch/,+41333366652,2326
Hôtel du Col de la Forclaz,"La Forclaz 2, 1929 Trient",colforclazhotel@bluewin.ch,http://www.coldelaforclaz.ch/,+41277222688,2326
Tennis-Sport Düdingen AG,"Riedlistrasse 52, 3186 Düdingen",info@tennis-duedingen.ch,http://www.tennis-duedingen.ch/,+41264932771,2326
Restaurant Alexander,"Riehenring 85, 4058 Basel",,https://www.alexander-restaurant.ch/,+41616838686,2326
la Croix Blanche,"Rue des Noyers 2, 2832 Rebeuvelier",alainhauer@bluewin.ch,http://www.lacroixblanche.ch/,+41324351575,2326
El Patrón Tapas & Vinos,"Kirchenfeldstrasse 70, 3005 Bern",info@elpatron-tapas.ch,https://elpatron-tapas.ch/,+41313338330,2326
Wohn- und Bürozentrum für Körperbehinderte (WBZ),"Aumattstrasse 71, 4153 Reinach BL",info@wbz.ch,http://www.wbz.ch/,+41617557777,2326
La Rose Rouge,"Avenue du Temple 2, 1020 Renens VD",,https://laroserouge.ch/70/accueil,+41216345827,2326
diheiplus tschentro,"Rabenfluhstrasse 9, 8212 Neuhausen am Rheinfall",info@diheiplus.ch,http://www.diheiplus.ch/,+41526471030,2326
Steakhouse Oasis,"Dorfstrasse 9, 3954 Leukerbad",,http://www.choucas.ch/,+41274702413,2326
Hotel Restaurant Gruyérien,"Clos d'Amont 2, 1638 Morlon",legruyerien@bluewin.ch,http://www.legruyerien.ch/,+41269194050,2326
Vignoble Doré,"Route du Mandement 332, 1281 Russin",lidia.ferreira15@yahoo.com,http://www.vignobledore.com/,+41227541113,2326
Hiltl Langstrasse,"Langstrasse 84, 8004 Zürich",langstrasse@hiltl.ch,http://hiltl.ch/de/standorte/langstrasse,+41442101084,2326
Eiger Selfness Hotel,"Dorfstrasse 133, 3818 Grindelwald",hotel@eiger-grindelwald.ch,http://www.eiger-grindelwald.ch/,+41338543131,2326
Le Goût du Voyage,"Rue du Lac 18, 1800 Vevey",,https://www.legoutduvoyage.ch/,+41217111921,2326
Café des Sources,"Rue des Sources 8, 1205 Genève",,http://www.cafedesources.ch/,+41223206798,2326
Il Fermento,"Via Codeborgo 12, 6500 Bellinzona",events@spaghettigastrogroup.com,http://www.ilfermento.ch/,+41918355757,2326
Restaurant du Tennis de Peseux,"Rue du Réservoir 14, 2034 Peseux",,,+41325455279,2326
Japigo,"Spitalgasse 33, 3011 Bern",yokoso@japigo.ch,http://www.japigo.ch/,+41313020100,2326
Le Sisters',"Route Industrielle 5, 1860 Aigle",info@le-sisters.ch,http://www.le-sisters.ch/,+41244680111,2326
Gasthaus Skiklub,"Gotthardstrasse 94, 6490 Andermatt",info@gasthaus-skiklub.ch,http://www.gasthaus-skiklub.ch/,+41418870330,2326
Gasthof St. Mauritz AG,"Luzernerstrasse 1, 6247 Schötz",kontakt@stmauritz.ch,http://www.stmauritz.ch/,+41419804422,2326
Le Patio,"Boulevard Helvétique 19, 1207 Genève",info@lepatiorestaurant.ch,http://www.lepatio-restaurant.ch/fr,+41227366675,2326
Restaurant Frohsinn,"Landstrasse 11, 8197 Rafz",frohsinnrafz@hotmail.com,http://www.frohsinn-rafz.ch/,+41448690637,2326
Restaurant du Raisin,"Rue des Deux Fontaines 4, 1822 Chernex",restaurantduraisin@bluewin.ch,http://www.le-raisin.ch/,+41219641006,2326
Chez Ross,"Grand'Rue 13, 2036 Cormondrèche",,https://chezross.ch/#welcome,+41327543244,2326
FINIFINI TRATTORIAITALIANA,"Untere Wiltisgasse 20, 8700 Küsnacht ZH",info@finifini.com,http://www.finifini.com/,+41449104855,2326
Meat'hic Grill,"Route de France 22, 1875 Morgins",restaurant@meathicgrill.ch,http://meathicgrill.ch/,+41244771033,2326
Aux Trois Amis Schernelz GmbH,"Untergasse 17, 2514 Ligerz",,http://www.aux3amis.ch/,+41323151144,2326
Restaurant zur alten Post,"Hauptstrasse 35, 4628 Wolfwil",,http://www.zuraltenpostwolfwil.ch/,+41629260100,2326
Traube,"Dorfstrasse 22, 3257 Grossaffoltern",,http://www.gasthof-traube.ch/,+41323892244,2326
Cercle d'agriculture,"Grand-Rue 68, 1618 Châtel-St-Denis",cercledagriculture@outlook.com,https://www.cercle-dagriculture.ch/,+41218882015,2326
Vogelsang Hotel Restaurant,"Vogelsang 2, 6205 Eich",mail@vogelsang.ch,http://www.vogelsang.ch/,+41414626666,2326
Stalden,"Friedlisbergstrasse 9, 8965 Berikon",info@stalden.com,https://www.stalden.com/,+41566331135,2326
Restaurant l'Ecu du Valais,"Grand-Rue 39, 1890 St-Maurice",,http://ecu-valais.ch/,+41244851473,2326
Milano,"Militärstrasse 109, 8004 Zürich",,http://www.restaurant-milano.ch/,+41442418817,2326
Hotel Herisau / Restaurant MOO,"Bahnhofstrasse 14, 9100 Herisau",info@hotelherisau.ch,http://www.hotelherisau.ch/,+41713548383,2326
Hotel Gspan,"Gspanstrasse 27, 7050 Arosa",gspan@bluewin.ch,http://www.gspan.ch/,+41813771494,2326
Hotel Restaurant Bahnhof,"Brünigstrasse 48, 6074 Giswil",info@bahnhofgiswil.ch,http://www.bahnhofgiswil.ch/,+41416751161,2326
Gasthaus Degen,"Chamerstrasse 9, 6331 Hünenberg",info@gasthausdegen.ch,http://www.gasthausdegen.ch/,+41417801254,2326
"Paparazzi Ristorante, Pizzeria, Take Away","Kasernenstrasse 6, 8180 Bülach",info@paparazzi-buelach.ch,http://www.paparazzi-buelach.ch/,+41448602211,2326
Restaurant des Bains Avenches,"Route de Berne 1, 1580 Avenches",,http://www.restaurantdesbains.ch/,+41266753660,2326
Accademia Del Gusto,"Rotwandstrasse 48, 8004 Zürich",,http://accademiadelgusto.ch/,+41442414202,2326
La Trattoria de Vevey-Corseaux Plage,"Route de Lavaux 19, 1802 Corseaux",info@trattoria-corseaux.ch,http://www.trattoria-corseaux.ch/,+41219212348,2326
Hotel-Restaurant dell'Angelo,"Vicolo Della Motta 1, 6600 Locarno",hotel@dellangelo.ch,http://www.dellangelo.ch/,+41917596868,2326
Hotel Ristorante Donatello,"Herisauerstrasse 32, 9200 Gossau SG",info@donatello-sg.ch,https://donatello-sg.ch/,+41713886970,2326
Restaurant Antica Osteria - Haus zum Raben,"Dorfstrasse 48, 8805 Richterswil",info@anticaosteria-raben.ch,https://www.anticaosteria-raben.ch/,+41447840522,2326
Restaurant Aroma Grill,"Aargauerstrasse 4, 5610 Wohlen AG",aroma-grill@outlook.com,http://www.aroma-grill.ch/,+41565554340,2326
Ristorante Bucadiciannove,"Via Lido 81, 6612 Ascona",info@bucadiciannove.ch,http://bucadiciannove.ch/,+41917912159,2326
Grotto 2 Sàrl,"Avenue des Deux-Ponts 13, 1009 Pully",legrotto@hotmail.com,http://www.grotto2.ch/,+41217280130,2326
Rico & Viviane Huber Restaurant Steinenbühl,"Steinenbühlstrasse 55, 5417 Untersiggenthal",info@restaurantsteinenbuehl.ch,http://www.restaurantsteinenbuehl.ch/118/reservation,+41562881148,2326
Yummy Yummy Eat,"Weststrasse 8, 8953 Dietikon",swissch@gmail.com,https://www.yummyyummyeat.ch/,+41779606454,2326
Landgasthof Löwen,"Albisstrasse 32, 8135 Langnau am Albis",info@landgasthofloewen.ch,http://www.landgasthofloewen.ch/,+41447133110,2326
Restaurant Bahnhöfli Root,"Bahnhofstrasse 42, 6037 Root",info@bahnhoefli-root.ch,https://www.bahnhoefli-root.ch/,+41414505025,2326
Restaurant Kam Yu,"Seestrasse 1, 8330 Pfäffikon ZH",,http://restaurant-kam-yu.ch/,+41449505253,2326
Arcade,"Birmensdorferstrasse 67, 8004 Zürich",,https://arcadepizzeria.ch/,+41442412163,2326
Restaurant Bahnhöfli Lungern,"Bahnhofstrasse 30, 6078 Lungern",info@bahnhoefli.ch,http://www.xn--bahnhfli-r4a.ch/,+41416781555,2326
Hôtel restaurant le Rivage chez Monmon,"Quai Isaac de Rivaz 4, 1898 St-Gingolph",info@rivage.ch,http://www.rivage.ch/,+41244827030,2326
dr Heimä - Leben im Alter,"Hunwilerweg 4, 6074 Giswil",info@drheimae.ch,http://www.drheimae.ch/,+41416767676,2326
Buech,"Forchstrasse 267, 8704 Herrliberg",,http://www.restaurantbuech.ch/,+41449151010,2326
Gnusspur,"Gotthardstrasse 32, 8800 Thalwil",,http://www.gnusspur.ch/,+41447203636,2326
Le Postillon,"Rue de Plantassage 4, 3976 Noës",,https://www.lepostillon.ch/,+41274553331,2326
Hôtel-Restaurant du Boeuf,"Rue de l'Eglise 7, 2950 Courgenay",info@boeuf-courgenay.ch,http://www.boeuf-courgenay.ch/,+41324711121,2326
Taverne du Valais,"Chemin des Sellières 4, 1219 Aïre",taverneduvalais@bluewin.ch,http://www.taverneduvalais.ch/,+41227962323,2326
Pflegezentrum GerAtrium,"Hörnlistrasse 76, 8330 Pfäffikon ZH",kontakt@geratrium.ch,http://www.geratrium.ch/,+41449534343,2326
Origin'L Tacos,"Avenue Bergières 20, 1004 Lausanne",,https://www.originl.ch/,+41223000206,2326
Libanesisch Cèdre Casino Aussersihl,"Badenerstrasse 78, 8004 Zürich",,http://www.libanesisch.ch/,+41442414272,2326
Il Pulcinella,"Route de Lausanne 27, 1180 Rolle",info@il-pulcinella.ch,http://www.il-pulcinella.ch/,+41218254080,2326
Hotel Müller,"Via Maistra 202, 7504 Pontresina",info@hotel-mueller.ch,http://www.hotel-mueller.ch/,+41818393000,2326
Hotel Nidwaldnerhof,"Dorfstrasse 12, 6375 Beckenried",hotel@nidwaldnerhof.ch,http://www.nidwaldnerhof.ch/,+41416205252,2326
Ristorante-Bar Puccini,"Bahnhofstrasse 11, 3123 Belp",mail@puccinibelp.ch,http://www.puccinibelp.ch/,+41318120202,2326
Restaurant Impuls,"Bahnhofstrasse 137, 8620 Wetzikon ZH",info@impuls-wetzikon.ch,http://www.impuls-restaurant.ch/,+41449312222,2326
Restaurant Berghaus Stoss,3775 Lenk im Simmental,berghausstoss@bluewin.ch,http://www.berghaus-stoss.ch/,+41792358388,2326
Mont Salève Le spécialiste de l'entrecôte,"Place de l'Eglise 31, 1255 Veyrier",,http://www.lemontsaleve.ch/,+41227841712,2326
Taiyo Sushi Bar,"Rue du Midi 4, 1003 Lausanne",,http://www.taiyo.ch/,+41213124312,2326
VILLAGE GARDEN,"Metzerlenstrasse 11, 4115 Mariastein",,https://villagegarden.ch/,+41791295252,2326
Commihalle,"Stampfenbachstrasse 8, 8001 Zürich",commihalle@commercio.ch,http://www.commercio.ch/commihalle,+41442505960,2326
Hotel Kindli,"Pfalzgasse 1, 8001 Zürich",hotel@kindli.ch,http://www.kindli.ch/,+41438887676,2326
Restaurant zum Löwen,"Löwenstrasse 16, 8400 Winterthur",,http://www.zumloewen-winti.ch/,+41522125390,2326
Hotel La Gorge & Restaurant Zer Schlucht,"Blomattenweg 2, 3906 Saas-Fee",info@lagorge.ch,http://www.lagorge.ch/,+41279581680,2326
Ristorante Pizzeria Enoteca De Medici,"Fischmarktstrasse 8, 8640 Rapperswil SG",,http://www.de-medici.ch/,+41552103878,2326
soho,"Steinenvorstadt 54, 4051 Basel",info@sohobasel.ch,https://www.sohobasel.ch/,+41615355501,2326
El Pueblo,"Rue du Cendrier 15, 1201 Genève",info@el-pueblo.ch,http://www.el-pueblo.ch/,+41223458198,2326
Millennium Bar & Restaurant,"Bahnhofstrasse 11, 3250 Lyss",,https://www.millennium-lyss.ch/,+41323861010,2326
Astra Hôtel Vevey 4*sup,"Place de la Gare 4, 1800 Vevey",info@astra-hotel.ch,http://www.astra-hotel.ch/,+41219250404,2326
Ristorante Ambiente,"Bühlstrasse 5, 3012 Bern",info@ambiente-bern.ch,http://www.ambiente-bern.ch/,+41319944646,2326
Lusa und Heidy's Stübli,3992 Bettmeralp,,http://www.lusa.ch/,+41279272424,2326
Buvette des Obasseires,1611 Le Crêt-près-Semsales,,,+41269185121,2326
caffè e più,"Unterfeld 4a, 6102 Malters",info@caffeepiu.ch,http://www.caffeepiu.ch/,+41414970161,2326
Hot Pasta AG,"Universitätstrasse 15, 8006 Zürich",info@hotpasta.ch,http://hotpasta.ch/,+41435357665,2326
Bistro George,"Grüzenstrasse 45, 8400 Winterthur",info@bistro-george.ch,https://www.bistro-george.ch/,+41522381090,2326
Hotel Macun,"Giassa d'Immez 88, 7559 Tschlin",info@hotelmacun.ch,http://www.hotelmacun.ch/,+41818663270,2326
Restaurant Rütihof,"Fislisbacherstrasse 2, 5406 Rütihof",info@r%C3%BCtihof.ch,http://www.restaurant-ruetihof.ch/,+41564700068,2326
Café Restaurant Quai de l'Ours,"Route de la Gare 25, 1937 Orsières",,http://terminus-orsieres.ch/restaurant,+41275521101,2326
Café Restaurant Gellert,"Urs Graf-Strasse 17, 4052 Basel",,http://www.cafe-restaurant-gellert.ch/,+41613115590,2326
Sportzentrum Herisau,"Kasernenstrasse 71, 9100 Herisau",info@sportzentrum-herisau.ch,http://www.sportzentrum-herisau.ch/,+41713533000,2326
Le Nouveau Monde,"Route d'Italie 115, 1958 Uvrier",,http://www.nouveau-monde.ch/,+41273463828,2326
Schweizer Weinstube,"Hohlstrasse 49, 8004 Zürich",,http://www.schweizer-weinstube.ch/,+41442417559,2326
Arcadia Taberna romana,"Talgut-Zentrum 34, 3063 Ittigen",reservation@arcadia-ittigen.ch,http://www.arcadia-ittigen.ch/,+41319216030,2326
Süder Restaurant,"Weissensteinstrasse 61, 3007 Bern",info@restaurant-sueder.ch,http://www.restaurant-sueder.ch/,+41313715767,2326
RISTORANTE PIZZERIA ADELE,"Via Locarno 18, 6514 Sementina",,http://www.ristoranteadele.ch/,+41918573766,2326
Le Gruyérien - Chêne-Bougeries,"Rue de Chêne-Bougeries 2, 1224 Chêne-Bougeries",info@le-gruyerien.ch,https://www.bucheronne.ch/,+41223491012,2326
Grotto Valmaggese,"Via Vallemaggia 72, 6670 Avegno",,http://grottovalmaggese.ch/,+41917962308,2326
Guesthouse Bellerive,"Interlakenstrasse 79, 3705 Faulensee",guesthousebellerive@gmail.com,http://www.bellerive-faulensee.ch/,+41336543030,2326
Bahnhofbuffet Non Solo Treno,3920 Zermatt,restaurant@non-solo-treno.ch,https://www.restaurant-nonsolotreno.ch/,+41279681968,2326
Au Parc Hôtel,"Route de Villars 37, 1700 Fribourg",info@auparc-hotel.ch,http://www.auparc-hotel.ch/,+41264295656,2326
Grotto Morchino,"Via Carona 1, 6912 Pazzallo",grotto@morchino.ch,https://www.morchino.ch/,+41919946044,2326
Ô Fondue Caquelon Sàrl,"Rue du Village 5B, 1908 Riddes",,https://ofonduecaquelon.ch/,+41273064242,2326
Beck-in,"Lyssachstrasse 141, 3400 Burgdorf",,http://www.beck-in.ch/,+41344240202,2326
Restaurant AL.Amir,"Rue de Berne 22, 1201 Genève",,http://www.alamir.ch/,+41227317946,2326
Gasthof Hirschen,"Sinserstrasse 4, 5644 Auw",,http://www.hirschen-auw.ch/,+41566681204,2326
Restaurant Panem,"Hafenstrasse 62, 8590 Romanshorn",info@panem.ch,http://www.panem.ch/home-panem,+41715303030,2326
Restaurant Rosengarten,"Untere Bahnhofstrasse 33, 8910 Affoltern am Albis",,https://rosengarten-restaurant.ch/,+41438171122,2326
Croix-Verte,"Rue Perdtemps 7, 1260 Nyon",croixvertenyon@gmail.com,http://www.croixverte.ch/,+41223611539,2326
café restaurant Le Valentin,"Rue du Valentin 30, 1004 Lausanne",,,+41213121300,2326
Ristorante Riviera by Elio,"Seestrasse 67, 3700 Spiez",office@riviera-spiez.ch,http://www.riviera-spiez.ch/,+41336509191,2326
Restaurant HAN Mongolian Barbecue,"Industriestrasse 10, 8610 Uster",hanmongolianuster@gmail.com,http://www.han.ch/angebot-uster,+41449420055,2326
la Croisée des loisirs,"Rue Emile-Boéchat 87, 2800 Delémont",info@lacroisee-sport.ch,http://www.lacroisee-sport.ch/,+41324229666,2326
Hostellerie Le Petit Manoir,"Avenue Ignace-Paderewski 8, 1110 Morges",info@lepetitmanoir.ch,http://www.lepetitmanoir.ch/,+41218041200,2326
LY'S ASIA,"Zahnradstrasse 21, 8005 Zürich",contact@lys-asia.ch,https://www.lys-asia.ch/,+41449990808,2326
Restaurant Zum Onkel,"Mörsbergerstrasse 2, 4057 Basel",bureau@zum-onkel.ch,https://www.zum-onkel.ch/,+41615546530,2326
Restaurant Baldegg GmbH,"Baldegg 1, 5400 Baden",info@baldegg.ch,http://www.baldegg.ch/,+41562225735,2326
Trattoria Casa Nostra,"Rue de la Bâtiaz 22, 1920 Martigny",,https://casa.nostra.restaurant/,+41277216295,2326
Hotel Pestalozzi Lugano,"Piazza Dell'Indipendenza 9, 6900 Lugano",info@pestalozzi-lugano.ch,http://www.pestalozzi-lugano.ch/,+41919214646,2326
Burger Brothers GmbH,"Altstetterstrasse 147, 8048 Zürich",,http://burgerbrothers.swiss/,+41415431854,2326
Hôtel du Soleil,"Rue de la Rauracie 18, 2340 Le Noirmont",info@lesoleilaunoirmont.ch,http://www.lesoleilaunoirmont.ch/,+41329531111,2326
Gasthütte Zoll-Huus,"Zollweid 2, 6331 Hünenberg",info@zoll-huus.ch,http://www.zoll-huus.ch/,+41417801109,2326
Ristorante Taverna Romana im Sternen,"Hauptstrasse 24, 4577 Hessigkofen",info@tavernaromana.ch,http://www.tavernaromana.ch/,+41323157475,2326
Restaurant Vieux Bourg Mase,"Route du Moulin 2, 1968 Mase",,https://www.vieuxbourgmase.com/,+41275650158,2326
Restaurant Marcellino Pane e Vino,"Forchstrasse 168, 8032 Zürich",reservation@marcellino.ch,https://marcellino.ch/,+41443802690,2326
Il sogno,"Zürichstrasse 135, 8910 Affoltern am Albis",,http://www.il-sogno.ch/,+41433228270,2326
Restaurant Mont Liban,"Moserstrasse 33, 3014 Bern",,http://www.montliban-bern.ch/,+41313330777,2326
Mikado Sushi,"Rue de l'Ancien-Port 9, 1201 Genève",,http://www.sushi.ch/,+41227324774,2326
Restaurant Hirschen,"Dorfplatz 2, 8855 Wangen SZ",info@hirschen-wangen.ch,http://www.hirschen-wangen.ch/,+41554401149,2326
Fujiya of Japan,"Tessinerplatz 5, 8002 Zürich",,http://www.fujiya.ch/,+41442081555,2326
Hôtel du Doubs,"Principale 16, 2354 Goumois",info@hoteldudoubs.ch,http://www.hoteldudoubs.ch/,+41329511323,2326
Lungolago Locarno,"Via Bramantino 1, 6600 Locarno",bar@lungolago.ch,http://lungolago.ch/,+41917515246,2326
Ristorante Mare e Terra,"Burgstrasse 20, 3600 Thun",,https://mare-e-terra.digitalone.site/,+41335258886,2326
Simple Restaurant,"Seidenplatz 5, 8304 Wallisellen",info@simple-tapasbar.ch,https://www.simple-restaurant.ch/,+41448300303,2326
Stricker's Restaurant & Bar,"Strickerstrasse 8, 8400 Winterthur",,http://www.restaurant-strickers.ch/,+41522136969,2326
Gstaad Palace,"Palacestrasse 28, 3780 Gstaad",info@palace.ch,https://www.palace.ch/,+41337485000,2326
Blaue Ente,"Seefeldstrasse 223, 8008 Zürich",info@blaue-ente.ch,http://www.blaue-ente.ch/,+41443886840,2326
Hotel Sunnehüsi,"Alte Gasse 10, 3704 Krattigen",info@sunnehuesi.ch,http://www.sunnehuesi.ch/,+41336507878,2326
Restaurant Barrique,"Neumarktstrasse 40, 2502 Biel/Bienne",h6166@accor.com,http://www.restaurant-barrique.ch/,+41323286868,2326
Restaurant Le Cockpit Stephanie Lansucki,"Plain Tertre 175, 2904 Bressaucourt",lecockpit.restautant@gmail.com,https://aerojura.ch/restaurant,+41324671085,2326
Antica Osteria,"Zürichstrasse 63, 8607 Aathal-Seegräben",info@antica-osteria.ch,http://www.antica-osteria.ch/,+41434970506,2326
Restaurant Wolfbach,"Wolfbachstrasse 35, 8032 Zürich",info@wolfbach-zh.ch,http://www.wolfbach-zh.ch/,+41434330088,2326
Steakhouse Meat Me,"Rebgasse 8, 8004 Zürich",info@meatme4.ch,http://meatme4.ch/,+41445668811,2326
la Taverne,"Schluhmattstrasse 97, 3920 Zermatt",,http://www.zermatt.ch/Media/Gastronomie/Restaurant-Zermatt-La-Taverne,+41279663959,2326
Restaurant Osteria Balsamico Sàrl,"Avenue d'Ouchy 14, 1006 Lausanne",info@osteriabalsamico.ch,http://www.osteriabalsamico.ch/,+41216160121,2326
Grotto Valletta,"Via dei Platani 1, 6900 Massagno",info@grottovalletta.com,http://www.grottovalletta.com/,+41917974265,2326
Kafi Zentrum,"Poststrasse 52, 9478 Azmoos",heidi-christoffel@rsnweb.ch,http://www.betagtenheim-wartau.ch/,+41817502268,2326
Everness Hôtel & Resort,"Chemin des Champs Blancs 70B, 1279 Chavannes-de-Bogis",reception@everness.ch,http://www.everness.ch/,+41229608181,2326
Braceria Gerardo Scalea,"Chemin de la Vendée 28, 1213 Petit-Lancy",,https://www.dai3fratelliscalea.ch/,+41227922292,2326
Relais de Chambésy,"Place de Chambésy 8, 1292 Chambésy",info@relaisdechambesy.ch,http://www.relaisdechambesy.ch/,+41227581105,2326
Chartreuse,"Staatsstrasse 142, 3626 Hünibach",,http://chartreuse.ch/,+41332433382,2326
Rivage Hôtel *** Restaurant Lutry,"Rue du Rivage 1, 1095 Lutry",info@hotelrivagelutry.ch,https://www.rivagelutry.ch/,+41217967272,2326
Chez Gaby,"Kirchstrasse 12, 3920 Zermatt",,http://www.zumtaugwald.ch/,+41279673134,2326
JMS Food City,"Bahnhofstrasse 96, 5000 Aarau",,,+41628220104,2326
Ristorante Villa Barone,"Wilstrasse 2, 8600 Dübendorf",,http://www.xn--villa-barone-dbendorf-mic.ch/,+41449292000,2326
Le Bistro 14 Cors,"Route Cantonale Sierre-Montana 39, 3975 Randogne",,http://14cors.ch/,+41795887000,2326
Mamma Mia,"Schöngrund 1, 6343 Rotkreuz",,http://www.pizzeria-rotkreuz.ch/,+41417900606,2326
Restaurant Le Chalet du Désert,"Chemin de Pierrefleur 74, 1004 Lausanne",info@chaletdudesert.ch,http://www.chaletdudesert.ch/,+41215565507,2326
Restaurant Pomodoro,"Neuengasse 25, 3011 Bern",,http://www.pomodorobern.ch/,+41313117541,2326
Hotel Adler Zürich,"Rosengasse 10, 8001 Zürich",info@hotel-adler.ch,http://www.hotel-adler.ch/,+41442669696,2326
Italia,"Boulevard des Philosophes 4, 1205 Genève",,https://www.restaurant-pizzeria-italia-geneve.ch/,+41223282970,2326
Hotel Restaurant Le Saint Christophe,"Route de Lavey 4, 1880 Bex",restaurant@stchristophesa.com,http://www.stchristophesa.com/,+41244852977,2326
Mikado Sushi,"Rue de la Terrassière 23, 1207 Genève",,http://www.sushi.ch/,+41227004477,2326
Churrasco Steak & Nikkei Cuisine,"Glockengasse 9, 8001 Zürich",info@churrasco.ch,http://churrasco.ch/,+41442211144,2326
Restaurant Pizzeria Bistro Bellevue,"Furkastrasse 100, 3994 Lax",,,+41279713030,2326
Hotel Brienz,"Hauptstrasse 254, 3855 Brienz BE",,http://www.hotel-brienz.ch/,+41339513551,2326
Ristorante Il Caprino,"Vicolo Delle Cantine 5, 6823 Pugerna",ristoranteilcaprino@gmail.com,http://www.ristorantecaprino.com/en,+41919702111,2326
Barbaro,"Route Industrielle 40, 1860 Aigle",,http://www.barbaro.ch/,+41244665677,2326
Simon's Steakhouse Grill & Restaurant & Bar,"Niederdorfstrasse 13, 8001 Zürich",info@simonsteakhouse.ch,http://www.simonsteakhouse.ch/,+41442605646,2326
Tamarind Hill Indisches Restaurant,"Birmensdorferstrasse 427, 8055 Zürich",info@tamarindhill-zurich.ch,http://www.tamarindhill-zurich.ch/,+41444611400,2326
Golfclub Interlaken-Unterseen,"Seestrasse 117, 3800 Unterseen",,http://www.interlakengolf.ch/,+41338236016,2326
Bergrestaurant Schreckfeld,3818 Grindelwald,,http://www.restaurant-schreckfeld.ch/,+41338535430,2326
Steak House chez Steve et Arnaud,"Place Centrale 10, 1920 Martigny",,https://www.steakhouse-martigny.ch/,+41277222565,2326
Hotel Donatz,"Plazzet 15, 7503 Samedan",info@hoteldonatz.ch,http://www.hoteldonatz.ch/,+41818524666,2326
Gasthof Löwen,"Sandgrubenstrasse 1, 6146 Grossdietwil",,http://www.loewen-grossdietwil.ch/,+41629271424,2326
Braceria Elvetica,"Piazza dell'Indipendenza 1, 6900 Lugano",events@spaghettigastrogroup.com,http://www.braceriaelvetica.ch/,+41916001000,2326
Restaurant Le Leysin,"Rue du Village 8, 1854 Leysin",,http://www.leleysin.ch/,+41244942315,2326
Gasthof Kreuz,"Murtenstrasse 71, 3205 Gümmenen",,http://www.kreuz-gasthof.ch/,+41317511620,2326
Palluay,"Rue Cherbuliez 7, 1207 Genève",info@palluay.ch,https://www.palluay.ch/,+41227363780,2326
Auberge de l'Armailli,"Rue de la Charrière 16, 1890 Mex VS",aubergearmailli1890@gmail.com,http://www.auberge-armailli.ch/,+41277671979,2326
Hiltl Vegi-Metzg,"St. Annagasse 18, 8001 Zürich",vegimetzg@hiltl.ch,,+41442277027,2326
Michelangelo,"Chemin des Lieugex 17, 1860 Aigle",miche.ange@bluewin.ch,http://www.michel-angelo.ch/,+41244663249,2326
Krone Mosnang,"Unterdorf 20, 9607 Mosnang",info@kronemosnang.ch,http://www.kronemosnang.ch/,+41719832847,2326
lai-thai-take-away & catering r. Weisskopf,"Zentralplatz 3, 5507 Mellingen",info@lai-thai.ch,http://www.lai-thai.ch/,+41565340596,2326
ASPEN alpin lifestyle hotel,"Aspen 1, 3818 Grindelwald",info@hotel-aspen.ch,http://www.hotel-aspen.ch/,+41338544000,2326
Sternen Muri,"Thunstrasse 80, 3074 Muri b. Bern",info@sternenmuri.ch,http://www.sternenmuri.ch/,+41319507111,2326
Restaurant Bellevue,"Seestrasse 157, 8708 Männedorf",info@restaurantbellevue.ch,https://restaurantbellevue.ch/,+41443003737,2326
Bergrestaurant Alpstubli,"Sunnigrain 11, 6375 Beckenried",info@alpstubli-klewenalp.ch,http://www.alpstubli-klewenalp.ch/,+41416203144,2326
Delta du Mékong,"Route des Flumeaux 1, 1008 Prilly",Deltadumekong@gmail.com,http://www.delta-mekong-restaurant.ch/,+41216257361,2326
Vivaldi Restaurant Pizzeria,"Rue Centrale 53, 2740 Moutier",,http://www.juragourmand.ch/vivaldi,+41323411819,2326
la Stella,"Grand-Rue 22, 1009 Pully",,http://www.restaurantlastella.ch/,+41217280660,2326
LY'S ASIA TAKE AWAY,"Stadelhoferstrasse 22, 8001 Zürich",stadelhofen@lys-asia.ch,https://www.lys-asia.ch/,+41442515300,2326
Restaurant Waldheim,"Gibriststrasse 10, 5317 Hettenschwil",,http://www.waldheim-hettenschwil.ch/,+41562451570,2326
Pizzeria Pipponi,"Gotthardstrasse 55, 8800 Thalwil",pipponi@pipponi.ch,http://www.pipponi.ch/,+41447210555,2326
Restaurant Tisch55,"Tischenloostrasse 55, 8800 Thalwil",tisch55@serata.ch,http://www.tisch55.ch/,+41447237118,2326
La Fleur de Sel by Carlo Crisci (FDS.FR Sàrl),"Rue du Temple 10, 1304 Cossonay-Ville",info@carlocrisci.ch,http://www.lafleurdesel.ch/,+41218612608,2326
Hotel-Restaurant Burgseeli,"Hauptstrasse 79, 3805 Goldswil b. Interlaken",info@burgseeli.ch,http://www.burgseeli.ch/,+41338230222,2326
Carnivor du Centre,"Rue Neuve-du-Molard 11, 1204 Genève",info@carnivor.ch,http://www.carnivor.ch/,+41223100928,2326
Le petit Combin,"Route de Verbier Station 29, 1936 Verbier",,http://www.restaurantlepetitcombin.ch/,+41277711441,2326
Il Passaggio,"Chemin de la Confrérie 117, 1844 Villeneuve VD",,,+41215554717,2326
Café-Restaurant Le Raisin Sheqiri & Cie,"Route de Servion 2, 1080 Les Cullayes",,http://www.raisin.ch/,+41219033939,2326
Ming Xuan,"Rue Caroline 5, 1003 Lausanne",,http://www.mingxuan-resto.ch/,+41213238910,2326
Restaurant Cardamom,"Barfüsserplatz 17, 4051 Basel",info@restaurant-cardamom.ch,https://www.restaurant-cardamom.ch/,+41612615731,2326
Il Faro Pizzeria 1.Stock Dübendorf,"Wangenstrasse 59, 8600 Dübendorf",,http://www.ilfaro.ch/,+41448216164,2326
Il Faro Herrliberg,"Seestrasse 247, 8704 Herrliberg",,http://www.ilfaro.ch/,+41449158111,2326
Wirtschaft zum Frieden,"Herrenacker 11, 8200 Schaffhausen",info@wirtschaft-frieden.ch,https://www.wirtschaft-frieden.ch/,+41526254767,2326
Hiltl Dachterrasse,"Bahnhofstrasse 88, 8001 Zürich",dachterrasse@hiltl.ch,http://www.hiltl.ch/de/standorte/hiltl-dachterrasse,+41448888800,2326
Restaurant zur Rose,"Steinrain 4, 4112 Flüh",info@roseflueh.ch,http://www.roseflueh.ch/,+41617313175,2326
Restaurant Gnusswerk,"Obertorplatz 1, 5620 Bremgarten AG",,http://gnusswerk.ch/,+41566313504,2326
Terra Mia Restaurant,"Luzernstrasse 130, 4528 Zuchwil",info@terramiagastro.com,http://www.terramiagastro.com/,+41762025580,2326
Restaurant Rebstock,"Dorfstrasse 18, 8800 Thalwil",,http://www.rebstock-thalwil.ch/,+41447200508,2326
Jordan,"Jordanstrasse 12, 6060 Sarnen",info@restaurant-jordan.ch,http://www.restaurant-jordan.ch/,+41416605129,2326
Ristorante Belvedere,"Flühstrasse 30, 4114 Hofstetten SO",,https://www.ristorante-belvedere.ch/,+41617314287,2326
Waldhotel Fletschhorn,"Wildistrasse 101, 3906 Saas-Fee",welcome@fletschhorn.ch,https://www.fletschhorn.ch/,+41279572131,2326
Restaurant Bürgin,"Unterdorfstrasse 12, 4443 Wittinsburg",rest.buergin@breitband.ch,http://www.buergin-wittinsburg.ch/,+41622991241,2326
walliserkanne & sigis.bar grächen,"Aftermatte ll 492, 3925 Grächen",info@walliserkanne-graechen.ch,http://www.walliserkanne-graechen.ch/,+41279562591,2326
Restaurant Punkt - Salle Grenette,"Place de Notre-Dame 4, 1700 Fribourg",fribourg@restaurant-punkt.ch,http://www.restaurant-punkt.ch/,+41263226521,2326
Bateau Fribourg - St-Louis Motel,"Route du Port 17, 1568 Portalban",info@le-bateau.ch,http://www.le-bateau.ch/,+41266771122,2326
Cantinetta Caprese,"Via Maroggia 5, 6816 Bissone",events@spaghettigastrogroup.com,https://spaghettigastrogroup.com/home/cantinetta-caprese,+41916497374,2326
Baur's,"Talstrasse 1, 8001 Zürich",info@baurs-zurich.ch,http://www.baurs-zurich.ch/,+41442205060,2326
Le Montelly,"Chemin de Montelly 1, 1007 Lausanne",,http://lemontelly.ch/,+41216250352,2326
KSS Freizeitpark Schaffhausen,"Breitenaustrasse 117, 8200 Schaffhausen",info@kss.ch,http://www.kss.ch/,+41526330222,2326
SAMSES,"Langstrasse 231, 8005 Zürich",info@samses.ch,http://www.samses.ch/,+41444401313,2326
Le Tsalè,"Route des Dailles 15, 1619 Les Paccots",,https://www.tsale.ch/,+41219480700,2326
Brauerei Gasthof Adler,"Hauptstrasse 34, 8762 Schwanden GL",adler.schwanden@bluewin.ch,http://www.brauereigasthof-adler.ch/,+41556441171,2326
Cafe - Restaurant Chrottebach,"Gotthardstrasse 36, 8800 Thalwil",,http://www.chrottebach.ch/,+41447109191,2326
Stocks Bar & Steakhouse,"Frutigenstrasse 22A, 3711 Mülenen",mail@stockshouse.ch,http://www.stockshouse.ch/,+41338232233,2326
Hôtel - Restaurant de l'étoile la Table et Logis SA,"Gros Clos 4, 2742 Perrefitte",info@restaurant-etoile.ch,http://www.restaurant-etoile.ch/,+41324931017,2326
Restaurant Pizzeria Du Pont,"Route de Verbier 11, 1934 Le Châble VS",,http://www.restaurant-pizzeria-du-pont.ch/,+41277762050,2326
Ristorante Pizzeria D.O.C.,"Bahnhofstrasse 21, 8852 Altendorf",,http://www.ristorante-doc.ch/,+41554423312,2326
Auberge Communale à la Clef d'Or,"Route du Village 26, 1195 Bursinel",contact@laclefdor.ch,http://www.laclefdor.ch/,+41218241106,2326
Restaurant Pizzeria de la Place,"Route de Meyrin 286, 1217 Meyrin",francescocivino@alice.it,http://www.pizzeria-restaurant-laplace.ch/,+41227826608,2326
Pfauen Das Zentrum für Pflege und Betreuung,"Quellenstrasse 5, 5330 Bad Zurzach",info@pfauen.swiss,http://www.pfauen.swiss/,+41562650100,2326
Badalucci Ristorante,"Viale Cassarate 3, 6900 Lugano",info@badalucci.com,https://badalucci.com/,+41912251649,2326
La Suite,"Rue du Criblet 7, 1700 Fribourg",,http://www.restaurant-la-suite.ch/,+41263231570,2326
Le Pilier,"Place du Molard 11, 1204 Genève",info@lepilier.ch,https://www.lepilier.ch/,+41228108055,2326
Ristorante Cavagna,"Contrada San Marco 24, 6982 Agno",,http://www.cavagna.ch/,+41916051505,2326
Gasthaus zum Löwen,"Unterdorfstrasse 7, 9116 Wolfertswil",info@loewen-wolfertswil.ch,http://www.loewen-wolfertswil.ch/,+41713936616,2326
La Torre,"Rue de l'Ale 44, 1003 Lausanne",restaurant.latorre.lausanne@gmail.com,http://www.restaurant-latorre.ch/home.html,+41213112866,2326
Restaurant Kung Fu 功夫,"Boulevard James-Fazy 14, 1201 Genève",,https://restokungfu.ch/,+41229003888,2326
Auberge aux deux sapins,"Rue du Bourg 14, 1147 Montricher",info@2sapins.ch,http://www.2sapins.ch/,+41218640080,2326
Hotel Florhof,"Florhofgasse 4, 8001 Zürich",,http://www.hotelflorhof.ch/,+41442502626,2326
Hiltl Pflanzbar,"Talstrasse 62, 8001 Zürich",club@hiltl.ch,http://www.hiltl.ch/de/standorte/pflanzbar,+41434973616,2326
Seehotel Delphin AG,"Delphinstrasse 26, 5616 Meisterschwanden",info@hotel-delphin.ch,http://www.hotel-delphin.ch/,+41566766680,2326
ElfenauPark,"Elfenauweg 50, 3006 Bern",,http://www.elfenaupark.ch/,+41313563636,2326
Hôtel-Restaurant Les Rosalys,"Route des Rosalys 20, 1619 Les Paccots",lesrosalys@lesrosalys.ch,http://www.lesrosalys.ch/,+41219488080,2326
Pizzeria Milano GmbH,"Rorschacher Strasse 200, 9000 St. Gallen",,https://www.pizza-milano.ch/,+41712502040,2326
Café-Restaurant-Pizzeria Les Trois Dranses,"Route du Grand-St-Bernard 60, 1933 Sembrancher",g.barben@hotmail.com,http://www.restaurant-pizzeria-3-dranses.ch/,+41277851173,2326
Centre Manor Monthey,"Avenue de l'Europe 21, 1870 Monthey",,http://centre-manor-monthey.ch/,+41244737699,2326
Landgasthof Ochsen,"Hauptstrasse 10, 4717 Mümliswil",jeker@landgasthofochsen.ch,http://www.landgasthofochsen.ch/,+41623913426,2326
Lévitation Sport Shop,"Rue du Grand-Verger 11, 1920 Martigny",,http://www.levitation.ch/,+41277220440,2326
Chinatown,"Rue Grand-St-Jean 1, 1003 Lausanne",,http://www.restaurantchinatown.ch/,+41213123934,2326
Gasthof Steinhof,"Landstrasse 46, 5436 Würenlos",info@steinhof-wuerenlos.ch,http://xn--steinhof-wrenlos-szb.ch/,+41564242849,2326
Campeggio Piccolo Paradiso,"Via Vallemaggia, 6670 Avegno",,http://www.camping-piccoloparadiso.ch/,+41917961581,2326
Maison des Brochettes,"Rue Centrale 70, 2740 Moutier",,http://www.juragourmand.ch/maisondesbrochettes-moutier,+41325364515,2326
Restaurant Alpissimo,"Haldenstrasse 49, 6020 Emmenbrücke",info@alpissimo.ch,http://www.alpissimo.ch/,+41412687384,2326
Ristorante & Bar Lago,"Kappelenbrücke 2B, 3032 Hinterkappelen",,http://www.ristorantelago.ch/,+41319091900,2326
Da Valentino,"Via Torretta 7, 6600 Locarno",,http://www.ristorantedavalentino.ch/,+41917520110,2326
GROTTO PERGOLA,"Via Cribiago 2, 6745 Giornico",grottopergola@bluewin.ch,http://www.grottopergola.ch/,+41918641422,2326
Restaurant Stählibuck,"Stählibuckstrasse 38, 8500 Frauenfeld",info@restaurantstaehlibuck.ch,http://www.restaurantstaehlibuck.ch/,+41527212713,2326
Ristorante da Vito,"Bahnhofstrasse 29, 8800 Thalwil",,http://ristorantedavito.ch/,+41442122929,2326
Café de la Randonnée,"Rue du Levant 145, 1920 Martigny",caferandonnee@gmail.com,https://pellissiersport.ch/restaurant,+41754236208,2326
Propino Pizza,"Affolternstrasse 5, 8908 Hedingen",info@propinopizza.com,http://www.propinopizza.com/,+41447618908,2326
EquiTable AG,"Stauffacherstrasse 163, 8004 Zürich",restaurant@equi-table.ch,https://www.equi-table.ch/,+41435348277,2326
Association St-Camille,"Route des Préalpes 18, 1752 Villars-sur-Glâne",,https://www.st-camille.ch/fr,+41264088600,2326
Café Restaurant Treff,"Gerechtigkeitsgasse 12, 3011 Bern",team@treffbern.ch,http://www.treffbern.ch/,+41313110285,2326
Pension Mürtschen,"Rapperswilerstrasse 12, 8733 Eschenbach SG",info@muertschen.ch,http://www.muertschen.ch/,+41552862600,2326
La Terrasse de la paix,"Chemin Eugène-Rigot 2E, 1202 Genève",lerestaurant.mdp@novae-restauration.ch,http://maisondelapaix-restaurant.ch/,+41229084334,2326
Da Enzo,"Via Ai Grotti 49, 6652 Tegna",,http://www.ristorantedaenzo.ch/,+41917961475,2326
La Grand'Borne Fondation Primeroche,"Grand-Borne 424, 1454 L'Auberson",,http://www.lagrandborne.ch/,+41244541351,2326
Grotto Posmonte,"Via Posmonte 9, 6927 Agra",,https://www.grottoposmonte.ch/,+41919941111,2326
Restaurant Phönix,"Niederlenzer Kirchweg 5, 5600 Lenzburg",,https://www.lenzburger-kosthaus.ch/,+41625777052,2326
The LAB - barbacoa,"Via Ronco Nuovo 2, 6949 Comano",thelabcomano@gmail.com,https://www.thelab-barbacoa.com/,+41919401488,2326
Hotel Restaurant Alphorn,"Gsteigstrasse 51, 3780 Gstaad",office@alphorn-gstaad.ch,http://www.alphorn-gstaad.ch/,+41337484545,2326
Restaurant Le Galileo,"Chemin des Lovières 13, 2720 Tramelan",,http://www.legalileo.ch/,+41324860606,2326
Gasthof zur Alten Kanzlei,"Dorfstrasse 13, 8606 Greifensee",,http://www.gasthofkanzlei.ch/,+41449405887,2326
Caveau La Vouettaz,"Rue de l'Eglise 27, 1955 St-Pierre-de-Clages",vouettaz@teltron.ch,http://www.collinededaval.ch/,+41273065364,2326
Restaurant de la Gare,"Grand-Rue 46, 2732 Reconvilier",,http://www.lagare.ch/,+41324813124,2326
Hotel Central AG,"Dorfstrasse 48, 6390 Engelberg",info@central-engelberg.ch,http://www.central-engelberg.com/,+41416397070,2326
Buffet de la Gare,"Avenue de la Gare 2, 1955 St-Pierre-de-Clages",,https://www.buffetdelagarechamoson.ch/,+41273062396,2326
Restaurant Falkenburg,"Hauptplatz 4, 8640 Rapperswil SG",info@falkenburg-rapperswil.ch,http://www.falkenburg-rapperswil.ch/,+41552111345,2326
Plaza Hotel,"Technikumstrasse 12, 8400 Winterthur",,http://plazahotel.ch/,+41522121515,2326
Da Vinci,"Place du Marché 3, 2610 St-Imier",,https://www.facebook.com/Da-Vinci-Restaurant-Pizzeria-St-Imier-302750497268035,+41329407292,2326
MAAG Music & Arts AG,"Hardstrasse 219, 8005 Zürich",info@bymaag.ch,https://bymaag.ch/,+41444442626,2326
Restaurant Sternen,"Postgasse 22, 5603 Staufen",restaurant.sternen@mail.ch,https://www.restaurantsternen.ch/,+41628913903,2326
Hotel Restaurant Hornfluh,"Hornbergstrasse 45, 3777 Saanenmöser",info@hotel-hornfluh.ch,http://www.hotel-hornfluh.ch/,+41337488484,2326
Bären by Schefer,"Hauptstrasse 76, 8840 Einsiedeln",info@baeren-einsiedeln.ch,http://www.baeren-einsiedeln.ch/,+41554187272,2326
Camping Tamaro Resort,"Via Mappo 32, 6598 Tenero",info@campingtamaro.ch,http://www.campingtamaro.ch/,+41917452161,2326
le Relais Panoramique,"Chemin du Relais 2, 1873 Les Crosets",hotel_relais@bluewin.ch,http://www.relais-crosets.com/,+41244793412,2326
JOUR,"Rue François-Versonnex 3, 1207 Genève",,http://www.salades-sur-mesure.ch/,+41225255587,2326
Il Birrificio di Bioggio,"Via Cademario, 6934 Bioggio",events@spaghetti-store.com,https://spaghettigastrogroup.com/home/il-birrificio-di-bioggio,+41916002333,2326
Restaurant le Smash,"Route des Grives 1, 1763 Granges-Paccot",geevan.sat@gmail.com,http://www.le-smash.ch/,+41264664406,2326
JOUR Genève Sàrl,"Rue du Marché 3, 1204 Genève",,https://www.salades-sur-mesure.ch/,+41228108064,2326
Alterswohnheim Mütschi,"Hinterbergstrasse 3, 6318 Walchwil",info@muetschi.ch,http://www.muetschi.ch/,+41417598989,2326
Eder's Eichmühle GmbH,"Eichmüli 2, 8820 Wädenswil",,http://www.eichmuehle.ch/,+41447803444,2326
la Gioconda,"Avenue Louis-Casaï 81, 1216 Cointrin",,http://www.restaurant-pizzeria-la-gioconda.ch/,+41227989605,2326
Seehaus Herrliberg,"Seestrasse 144, 8704 Herrliberg",ahoi@seehaus.ch,https://www.seehaus.ch/,+41449152000,2326
Meal33,"Rue du Pâquis 6B, 1033 Cheseaux-sur-Lausanne",contact@meal33.ch,http://meal33.ch/,+41217312033,2326
Wirtschaft Niesenberg,"Oberniesenbergstrasse 10, 5625 Kallern",jm-niesenberg@bluewin.ch,http://www.niesenberg.ch/,+41566661218,2326
Kartbahn Sulgen AG,"Bädlistrasse 92, 8583 Sulgen",info@kartbahn-sulgen.ch,http://www.kartbahn-sulgen.ch/,+41716422020,2326
NOA Restaurant,"Murtenstrasse 143a, 3008 Bern",info@noa-restaurant.ch,http://www.noa-restaurant.ch/,+41313810760,2326
Bergmattenhof,"Bergmattenhof 1, 4243 Dittingen",bergmattenhof@bluewin.ch,http://www.bergmattenhof.ch/,+41617613456,2326
Oishii Sushi & Grill Zürich,"Wiesenstrasse 1, 8008 Zürich",,https://oishii-zuerich.ch/,+41442619988,2326
Gasthof Linde Mühlethal AG,"Dorfstrasse 12, 4812 Mühlethal",,http://www.linde-muehlethal.ch/,+41627511037,2326
Landgasthof Weisses Kreuz,"Gen. -Guisanstrasse 6, 5316 Leuggern",kreuz-gippingen@bluewin.ch,http://www.kreuz-gippingen.ch/,+41562451310,2326
Gasthof Sternen,"Oberdorfstrasse 1, 5703 Seon",,http://www.gasthof-sternen.ch/,+41627751215,2326
Hotel & Restaurant zum Beck,"Dorfplatz 12, 6362 Stansstad",willkommen@zum-beck.ch,http://www.zum-beck.ch/,+41416101268,2326
Allmendhof-Gourmet-Paradies und Besenbeiz,"Allmend 79, 5637 Beinwil (Freiamt)",info@allmendhof-broch.ch,http://www.allmendhof-broch.ch/,+41795627869,2326
Ora Thai Restaurant,"Stampfenbachstrasse 40, 8006 Zürich",ora-thai@bluewin.ch,http://www.ora-thai.ch/,+41434439000,2326
Restaurant Le Maître Jaques,"Ruelle des Moulins 2, 1260 Nyon",,http://www.restaurantmaitrejaques.com/,+41223613434,2326
Edo Restaurant Japonais,"Route Cantonale Sierre-Montana 43, 3975 Randogne",,http://www.edo-tokyo.ch/,+41274817000,2326
Hotel & Lounge Lago Maggiore,"Viale Verbano 25, 6600 Muralto",,https://www.lagomaggiorehotel.ch/,+41916011800,2326
Gasthof Ochsen Münsingen GmbH,"Bernstrasse 2, 3110 Münsingen",info@ochsen-muensingen.ch,https://www.ochsen-muensingen.ch/,+41317211009,2326
Camping Melezza,"Via Arbigo 88, 6616 Losone",,https://www.camping-melezza.com/,+41917916563,2326
Gnädinger am Schaffhauserplatz AG,"Schaffhauserstrasse 57, 8057 Zürich",info@gnaedingerplatz.ch,http://www.gnaedingerplatz.ch/,+41443602395,2326
Kafikaufbar Engelberg GmbH,"Dorfstrasse 39, 6390 Engelberg",,https://www.kafikaufbar.ch/,+41416111177,2326
Schäfli,"Glarnerstrasse 59, 8854 Siebnen",,http://www.hotel-schaefli.ch/,+41554408436,2326
Cameretta D'Oro - Forchetta D'Oro,"Geltenwilenstrasse 15, 9000 St. Gallen",n.p72@hispeed.ch,http://www.forchettadoro.ch/,+41712225080,2326
zum Bären,"Britternstrasse 11, 4583 Aetigkofen",,,+41326611069,2326
Gasthof zum goldenen Löwen & Hotel Emmental,"Güterstrasse 9, 3550 Langnau im Emmental",,http://www.loewen-langnau.ch/,+41344026555,2326
Grill Bill Baar,"Blegistrasse 17B, 6340 Baar",baar@grillbill.ch,http://www.grillbill.ch/,+41417609500,2326
Chalet Les Fougères SA,"Rue des Combes, 1918 La Tzoumaz",,,+41273066096,2326
Hotel Restaurant zum Sternen,"Endingerstrasse 7, 5303 Würenlingen",office@sternen-wuerenlingen.ch,http://www.sternen-wuerenlingen.ch/,+41562974000,2326
Restaurant Sternen,"Laupenstrasse 1, 3176 Neuenegg",sternen.neuenegg@bluewin.ch,http://www.sternen-neuenegg.ch/,+41317412320,2326
Hotel Ristorante America,"Vicolo Torretta 3, 6600 Locarno",info@hotelamerica.ch,http://www.hotelamerica.ch/,+41917517635,2326
Fumoir de Champoz,"Clos Grasson 11, 2735 Champoz",,http://www.fumoirdechampoz.ch/,+41324921427,2326
Ristoro Alpino La Furbeda,"Via Val Malvaglia, 6713 Malvaglia",,,+41918701130,2326
Tennis Park Haugraben,"Mühlemattstrasse 9, 4112 Bättwil",info@haugraben.ch,http://www.haugraben.ch/,+41617313222,2326
AARSPORTS GmbH,"Langgass 4, 5244 Birrhard",,http://www.aarsports.ch/,+41562252266,2326
Château de Bonmont SA,"Route de Bonmont 31, 1275 Chéserex",golf@bonmont.com,http://www.bonmont.com/,+41223699900,2326
Fuji of Zermatt,"Schluhmattstrasse 19, 3920 Zermatt",,http://www.hotelalbanareal.com/,+41279666171,2326
Hintere Schmiedenmatt,"Hintere Schmiedenmatt, 4715 Herbetswil",,,+41326362975,2326
"Alters - und Pflegezentrum Herrenbergli, Zürich-Altstetten","Am Suteracher 65, 8048 Zürich",,http://www.herrenbergli.ch/,+41444348070,2326
Restaurant Schützenhaus,"Seestrasse 48, 8712 Stäfa",info@schuetzenhaus-staefa.ch,http://www.schuetzenhaus-staefa.ch/,+41449261358,2326
Chalet-India,"Oberdorfstrasse 51, 8810 Horgen",,http://www.chaletindia.ch/,+41447255544,2326
Restaurant Gasthof zum Rössli,"Zentralstrasse 1, 5610 Wohlen AG",info@gasthofroessli-wohlen.ch,http://www.gasthofroessli-wohlen.ch/,+41566221561,2326
Ristorante Pizzeria Sani,"Via Ronge 145, 6713 Malvaglia",,https://ristorante-pizzeria-sani.business.site/,+41918701515,2326
Maison de Montagne de Bretaye,1884 Villars-sur-Ollon,info@mmbretaye.ch,http://www.mmbretaye.ch/,+41244952481,2326
Restaurant de la Gare,"Route de Salavaux 18, 1595 Faoug",,http://www.delagarefaoug.ch/,+41266702162,2326
Cafe Brändle AG,"Zugerstrasse 23, 6314 Unterägeri",info@cafe-braedle.ch,http://www.cafe-braendle.ch/,+41417501332,2326
Gasthof Pizzeria Weingarten,"Untere Bahnhofstrasse 8, 8910 Affoltern am Albis",info@weingarten.ch,http://www.weingarten.ch/,+41447616392,2326
SeeHotel & Restaurant Seehof GmbH,"Bahnhofstrasse 1, 8716 Schmerikon",info@seehofschmerikon.ch,http://www.seehofschmerikon.ch/,+41552821633,2326
Le Zingue,"Rue de la Tournelle 42, 1350 Orbe",,http://www.lezingue.ch/,+41244416170,2326
Strandhotel Schmerikon,"Aabachstrasse 8, 8716 Schmerikon",info@strand-hotel.ch,http://www.strand-hotel.ch/,+41552825600,2326
Restaurant Gasthof zum Löwen,"Alte Stationsstrasse 2, 8166 Niederweningen",,http://www.loewen-niederweningen.ch/wp,+41448560129,2326
café restaurant la gare,"Place de la Gare 2, 1096 Cully",info@lagarecully.ch,http://www.lagarecully.ch/,+41217992124,2326
Fondation Opale,"Route de Crans 1, 1978 Lens",info@fondationopale.ch,https://www.fondationopale.ch/,+41274834610,2326
Café de l'amitié sàrl,"Rue de Montchoisy 7, 1207 Genève",info@cafedelamitie.ch,http://www.cafedelamitie.ch/,+41227000524,2326
Café-Restaurant Le Vieux-Chalet,"Rue du Village 116, 1874 Champéry",,http://www.vieuxchaletchampery.ch/,+41244791974,2326
Bits Café & Bar,"Im Zentrum 1, 9300 Wittenbach",,,+41712922053,2326
Star Pizzakurier,"Usterstrasse 3, 8133 Esslingen",bestellung@star-pizzakurier-esslingen.ch,http://www.star-pizzakurier-esslingen.ch/,+41445484222,2326
Säntis - das Hotel,"Schwägalp, 9107 Urnäsch",hotel@saentisbahn.ch,http://www.saentisbahn.ch/,+41713656600,2326
Yes! café-presse,"Route des Loisirs 1, 1762 Givisiez",,,+41264661793,2326
Aurora Lenzerheide AG,"Voa Sporz 1, 7078 Lenzerheide/Lai",,http://www.cafe-aurora.ch/,+41813841332,2326
Le Bistrot Le Lion d'Or - Carouge,"Rue Ancienne 53, 1227 Carouge GE",info@lebistrot.ch,https://leliondor.lebistrot.ch/,+41223421813,2326
Planet Caviar SA,"Rue Louis-Duchosal 7, 1207 Genève",,http://www.planetcaviar.com/,+41228404085,2326
la Pergola,"Rue Auguste-Bachelin 1, 2074 Marin-Epagnier",,http://www.chezross-pizzeria.ch/,+41327535350,2326
Grotto Rodai,"Via Ai Grotti 25, 6745 Giornico",grotto@grottorodai.ch,http://grottorodai.ch/,+41918641019,2326
Siam-Orchidée,"Le Crêt-du-Locle 25, 2322 Le Crêt-du-Locle",siam-orchid%C3%A9e@bluewin.ch,http://www.siam-orchidee.ch/,+41329263035,2326
Café-Restaurant de la Place,"Rue du Collège 1, 2416 Les Brenets",laplace-cafe-restaurant@bluewin.ch,http://www.laplace-cafe-restaurant.ch/,+41329322303,2326
Restaurant Seepintli GmbH,"Seestrasse 37, 2572 Sutz",kontakt@seepintli.ch,http://www.seepintli.ch/,+41323972049,2326
Restaurant Le 360,"Rue du Léman 18B, 1920 Martigny",,http://www.le360.ch/,+41277755579,2326
Restaurant Schützenhaus,"Schaffhauserstrasse 201, 8400 Winterthur",,http://www.tanzhalle-schuetzenhaus.ch/,+41522121546,2326
Café de Paris,"Rue de Conthey 12, 1950 Sion",,http://www.restaurant-entrecote.ch/fr,+41273226570,2326
Bel Lago,"Kirchrain 11, 2572 Sutz",info@bel-lago.ch,http://www.bel-lago.ch/,+41323971152,2326
Restaurant Bütschelegg,"Bütscheleggweg 16, 3088 Oberbütschel",welcome@buetschelegg.ch,http://www.buetschelegg.ch/,+41318090324,2326
Victoria,"Place de la Gare 6, 2800 Delémont",victo@bluewin.ch,http://www.victoria-delemont.ch/,+41324221757,2326
UTO KULM,"Gratstrasse, 8143 Uetliberg",,http://www.utokulm.ch/,+41444576666,2326
Restaurant Lunch 5 GmbH,"Förrlibuckstrasse 62, 8005 Zürich",info@lunch-5.ch,http://www.lunch-5.ch/,+41442715151,2326
Bowling West,"Ifangstrasse 8, 8952 Schlieren",,http://www.bowlingwest.ch/,+41447310206,2326
ORANGE Kebab-Pizza-Restaurant,"Unterdorf 27, 8752 Näfels",,https://www.orangekebap.ch/,+41556123200,2326
Simplon Bar,"Schützengasse 16, 8001 Zürich",info@simplonbar.ch,http://www.simplonbar.ch/,+41442221939,2326
Centre Manor Sierre,"Rue de Plantassage 24, 3960 Sierre",,http://centre-manor-sierre.ch/,+41274511699,2326
Hotel ristorante Pizzeria Bellavista,"Via Bartolomeo Varenna 31, 6600 Locarno",contact@bellavistalocarno.ch,https://bellavistalocarno.ch/,+41912350250,2326
Restaurant Anker,"Hauptstrasse 4, 2572 Sutz",anker.sutz@bluewin.ch,http://www.anker-sutz.ch/,+41323971164,2326
Bäckerei - Conditorei Moosberger,"Bahnhofstrasse 8, 5103 Wildegg",info@baeckerei-moosberger.ch,http://www.baeckerei-moosberger.ch/,+41628931225,2326
Restaurant Noah Lyssach,"Kernenriedstrasse 1, 3421 Lyssach",info@noahlyssach.ch,http://www.noahlyssach.ch/,+41344471414,2326
Keyann Bistrot Libanais,"Avenue Frédéric-César-de-la-Harpe 43B, 1007 Lausanne",info@keyann.ch,https://bistro-keyann.ch/,+41216010070,2326
L'unique Tartare,"Rue du Grand-Pont 35, 1950 Sion",sion@lunique-tartare.ch,http://www.lunique-tartare.ch/,+41275641111,2326
Ristorante Costa Azzurra,"Via Villibaldo Bastoria 13, 6600 Solduno",info@costa-azzurra.ch,http://www.costa-azzurra.ch/,+41917513802,2326
Hotel Hirschen,"Dorfstrasse 17, 3550 Langnau im Emmental",info@hirschen-langnau.ch,http://www.hirschen-langnau.ch/,+41344021517,2326
Auberge du Soleil SA,"Place du Soleil 1, 1183 Bursins",,https://www.aubergedusoleil.ch/,+41218241344,2326
La table de Urs Hauri,"Bahnhofplatz 9, 3110 Münsingen",kochwerkstatt@urshauri.ch,http://urshauri.ch/kochwerkstatt,+41317218811,2326
Locanda dei Mulini,"Via Mulini 31, 6883 Novazzano",locandadeimulini@gmail.com,http://www.locandadeimulini.ch/,+41916820507,2326
Restaurant Biergarten,"Hohlstrasse 25, 8004 Zürich",sigi.huber@tbvag.ch,http://www.restaurant-biergarten-zuerich.ch/de,+41442422626,2326
Grill Tartare House,"Place du Midi 30, 1950 Sion",,http://www.tartarehouse.ch/,+41273227200,2326
Restaurant Indian Tandoori Palace,"Petersgraben 21, 4051 Basel",info@indiantandooripalace.com,http://www.indiantandooripalace.com/,+41612614262,2326
Restaurant Krone Spiez,"Seestrasse 28, 3700 Spiez",,http://www.krone-spiez.ch/,+41336550226,2326
Restaurant Hof zu Wil,"Marktgasse 88, 9500 Wil SG",,http://www.hofzuwil.ch/,+41719138700,2326
Café Restaurant Rodizio le Mont-d'or,"Chemin de Contigny 1, 1007 Lausanne",rodiziogrill.lausanne@gmail.com,http://www.restaurant-lemontdor.ch/,+41216170010,2326
kunz AG art of sweets,"Hauptstrasse 57, 5070 Frick",bestellung@kunz-baeckerei.ch,http://www.kunz-baeckerei.ch/,+41628715121,2326
Restaurant St. Anton,"St. Antonstrasse 60, 9413 Oberegg",info@st-antonoberegg.ch,http://www.st-antonoberegg.ch/,+41718912442,2326
Wirtschaft Utiger,"Bernstrasse 63, 3302 Moosseedorf",,http://www.wirtschaft-utiger.ch/,+41318590235,2326
The Garden on the Lake,"Route de Saint-Maurice 18, 1814 La Tour-de-Peilz",,https://www.bon-rivage.ch/the-garden,+41219770707,2326
Gasthaus Mayor,"S-charl 563, 7550 Scuol",info@gasthaus-mayor.ch,http://www.gasthaus-mayor.ch/,+41818641412,2326
Il Faro Zentrum Pizzeria Dübendorf,"Zürichstrasse 30, 8600 Dübendorf",info@ilfaro.ch,http://www.ilfaro.ch/,+41448021102,2326
rooftop 42,"Rue du Rhône 42, 1204 Genève",info@rooftop42.com,http://www.rooftop42.com/,+41223467700,2326
Le Centre,"Rue Centrale 9, 1955 Chamoson",,http://www.cafelecentre.ch/,+41273062295,2326
Gast & Landwirtschaft Guldenthal,"Scheltenstrasse 172, 4719 Ramiswil",,http://www.guldenthal.ch/,+41623941468,2326
Ladengasse Uslu Gastro GmbH,"Zentralstrasse 16, 6030 Ebikon",info@restaurant-ladengasse.ch,http://www.restaurant-ladengasse.ch/,+41414402366,2326
Kurioz Bar & Kitchen,"Pilatusstrasse 1, 6300 Zug",,http://www.kurioz.ch/,+41417100161,2326
Restaurant IL GRANO,"Ländte 38, 3294 Büren an der Aare",info@ilgrano.ch,http://www.ilgrano.ch/,+41323510303,2326
Café Confiserie Speck - Zuger Kirschtorten,"Alpenstrasse 12, 6300 Zug",mail@speck.ch,https://www.speck.ch/,+41417280728,2326
Piz Paz,"Bahnhofstrasse 1, 3800 Interlaken",,http://speisekartenweb.de/info.php?id=152,+41338222533,2326
Klinik Arlesheim AG,"Pfeffingerweg 1, 4144 Arlesheim",,http://www.klinik-arlesheim.ch/,+41617057111,2326
Restaurant WALDHAUS,"Staldenstrasse 128, 3920 Zermatt",info@waldhaus-zermatt.ch,http://www.waldhaus-zermatt.ch/,+41279671450,2326
Restaurant Conrad,"Sihlstrasse 31, 8001 Zürich",,https://www.glockenhof.ch/de/restaurants/restaurant_conrad,+41442259191,2326
Café restaurant Rendez-vous,"Avenue de la Gare 29, 1920 Martigny",alban.97@hotmail.com,https://www.facebook.com/rdv1920/,+41275659150,2326
Vinato Event & Gastronomie,"Hofstetstrasse 8, 9300 Wittenbach",,https://www.vinato.ch/,+41796262143,2326
Hôtel Jean-Jacques Rousseau,"Promenade JJ Rousseau 1, 2520 La Neuveville",info@jjrousseau.ch,http://www.jjrousseau.ch/,+41327523652,2326
Le Carrefour SA,"Route du Golf 95, 1936 Verbier",reservation@lecarrefour.ch,http://www.lecarrefour.ch/,+41277715555,2326
Hotel Restaurant Adler,"Hauptstrasse 33, 8783 Linthal",p.welter68@icloud.com,https://adler-linthal.business.site/,+41556431515,2326
Borenco,"Via San Gottardo 56, 6648 Minusio",ristoranteborenco@gmail.com,http://www.ristoranteborenco.ch/,+41917434467,2326
Hotel-Restaurant Eierhals Royal,"Hauptseestrasse 61, 6315 Morgarten",info@hotel-eierhals.ch,https://www.hotel-eierhals.ch/,+41417545050,2326
Steiböckli GmbH Steiböckli Kafe Wybar,"Stansstaderstrasse 17, 6370 Stans",info@stei-boeckli.ch,https://www.xn--steibckli-47a.ch/,+41415300202,2326
Ristorante Da Carlo,"Zürichstrasse 67, 8600 Dübendorf",kontakt@ristorante-dacarlo.ch,http://www.ristorante-dacarlo.ch/,+41448210821,2326
la Forge,"Grand-Rue 85, 1890 St-Maurice",,http://www.rotisserie-la-forge.ch/fr,+41244851134,2326
See Imbiss,"Seestrasse 81, 8820 Wädenswil",,https://foodys24.ch/see-restaurant/pickup,+41434778684,2326
FunPlanet Rennaz/Villeneuve,"Route des Deux-Chênes 11, 1847 Rennaz",rennaz@funplanet.ch,https://www.funplanet.ch/,+41219673767,2326
Ristorante Vicania,6921 Vico Morcote,info@ristorantevicania.ch,https://www.ristorantevicania.ch/,+41919802414,2326
Restaurant Burg,"Bahnhofstrasse 15, 3942 Raron",,http://www.restaurant-burg.ch/,+41279341818,2326
Café-Restaurant le Margueron,"Route d'Anniviers 6, 3967 Vercorin",pth.pontarlier@gmail.com,,+41274555593,2326
Café-restaurant Le Salentin,"Rue Principale 35, 1902 Evionnaz",,https://le-salentin.myshopify.com/?fbclid=IwAR2EpspLNLLzgAlMsYPd3PZHknipixFFrJU_LysjkdeOnHGCLa3QK0Hg-Us,+41275651185,2326
Ristorante della Stazione Ponte Brolla,"Via Vallemaggia 106, 6652 Tegna",info@ristorantedellastazione.ch,http://www.ristorantedellastazione.ch/,+41912209712,2326
La Tavernetta,"Strada Regina 140, 6982 Agno",latavernetta.agno@gmail.com,http://www.latavernetta.ch/,+41916045649,2326
Brasserie du Grand-Pont,"Rue du Grand-Pont 6, 1950 Sion",,http://www.grand-pont.ch/,+41273222096,2326
Il Faro Wallisellen,"Bahnhofplatz 2, 8304 Wallisellen",,http://www.ilfaro.ch/,+41448304652,2326
Restaurant Swiss Chuchi Zürich,"Rosengasse 10, 8001 Zürich",,http://www.hotel-adler.ch/,+41442669666,2326
Ristorante Pizzeria Roma,"Kämmoos 3, 8608 Bubikon",info@roma-bubikon.ch,http://www.roma-bubikon.ch/,+41552432828,2326
Restaurant la MATZE,"Rue Chaponnière 7, 1201 Genève",restolamatze@gmail.com,http://www.restaurant-la-matze.ch/,+41227327961,2326
Goodwin The Steak House,"Splügenstrasse 2, 8002 Zürich",,http://www.goodwin-steakhouse.ch/,+41445588837,2326
Landgasthof Löwen,"Dorfstrasse 2, 3412 Heimiswil",,http://www.loewen-heimiswil.ch/,+41344223206,2326
Hotel Restaurant Rössli,"Dorfplatz 1, 6375 Beckenried",hotel@roessli-beckenried.ch,http://www.roessli-beckenried.ch/,+41416244511,2326
la Glacière,"Avenue Ritz 35, 1950 Sion",info@brasserielaglaciere.ch,http://www.brasserielaglaciere.ch/,+41273221533,2326
Restaurant Schlemmerei,"Kirchfeldstrasse 25, 6032 Emmen",info@schlemmerei.ch,http://www.schlemmerei.ch/,+41412685050,2326
Taillens SA,"Avenue de la Gare 8, 3963 Crans-Montana",,http://www.boulangerietaillens.ch/,+41274854030,2326
Ristorante Pomodoro,"Via A. Giovannini 15, 6710 Biasca",,http://www.ristorantepomodorobiasca.ch/,+41918624913,2326
Restaurant et traiteur Les Saveurs du Liban,"Place de la Navigation 8, 1201 Genève",lsdl@lessaveursduliban.ch,https://www.lessaveursduliban.ch/,+41227310928,2326
Stiftung VitaTertia,"Haldenstrasse 46, 9200 Gossau SG",vita@vitatertia.swiss,http://www.vitatertia.swiss/,+41713889555,2326
Le Dézaley,"Römergasse 7, 8001 Zürich",restaurant@le-dezaley.ch,http://www.le-dezaley.ch/,+41442516129,2326
lintharena ag,"Oberurnerstrasse 14, 8752 Näfels",kontakt@lintharena.ch,https://www.lintharena.ch/,+41556187070,2326
Hotel ibis Sion,"Avenue du Grand-Champsec 21, 1950 Sion",h0960@accor.com,https://www.accorhotels.com/fr/hotel-0960-ibis-sion/index.shtml#,+41272057100,2326
La Cuisine Kochschule GmbH,"Nordstrasse 201, 8037 Zürich",lacuisine@bluewin.ch,https://www.la-cuisine.ch/,+41442012434,2326
Café de la Presse,"Boulevard de Saint-Georges 62, 1205 Genève",,http://www.pubdelapresse.ch/,+41223206299,2326
Wilder Mann Sursee AG,"Unterstadt 20, 6210 Sursee",mail@wildermann-sursee.ch,http://www.wildermann-sursee.ch/,+41419211283,2326
Restaurant La Botte,"Klotenerstrasse 25, 8303 Bassersdorf",,http://labotte.ch/,+41448370101,2326
BELLAGIO LUXURY CLUB,"Rue des Fausses-Brayes 11, 2000 Neuchâtel",,https://www.facebook.com/Bellagio-Luxury-Club-1879785242300024,+41796076790,2326
Restaurant ComViet,"Gotthardstrasse 11, 8800 Thalwil",info@comviet.ch,http://www.comviet.ch/,+41447211080,2326
Taverne Le Tilleul,"Rue des Saint-Martin 9, 2088 Cressier NE",contact@taverneletilleul.ch,https://www.taverneletilleul.ch/,+41325017474,2326
Mikado Sushi,"Boulevard Georges-Favon 4, 1204 Genève",,http://www.sushi.ch/,+41225524477,2326
ABC,"Via Tesserete 7, 6900 Massagno",,,+41919664639,2326
Zeitouna Sàrl,"Route des Malliez 7, 1847 Rennaz",info@restaurant-zeitouna.ch,https://www.restaurant-zeitouna.ch/,+41219218585,2326
PLAZA,"Rue Centrale 42, 3963 Crans-Montana",cransplaza@gmail.com,,+41275654310,2326
Taverne Evolénarde,1983 Evolène,info@lataverneevolenarde.ch,http://www.lataverneevolenarde.ch/,+41272831202,2326
Mister Chicken 2 Pizza & Burger,"Bergstrasse 295, 8707 Uetikon am See",,https://misterchicken2.ch/,+41449200808,2326
Hotel KERNEN,"Dorfstrasse 58, 3778 Schönried",info@hotel-kernen.ch,http://www.hotel-kernen.ch/,+41337484020,2326
Kalasin,"Chemin de Folliéran 19, 1630 Bulle",info@kalasin.ch,https://kalasin.ch/,+41265653030,2326
QQ Sushi Zürich,"Stampfenbachstrasse 6, 8001 Zürich",,http://qq-sushi.ch/,+41442612626,2326
Restaurant Villa Sunneschy,"Seestrasse 156, 8712 Stäfa",info@villa-s.ch,http://www.villa-s.ch/,+41449273092,2326
Il Tiglio,"Zürcherstrasse 4, 8908 Hedingen",iltiglio.ch@gmail.com,http://www.il-tiglio.ch/,+41447616424,2326
Auberge de Bellelay,"L'Abbaye 1, 2713 Bellelay",restaurant@adb4u.ch,https://adb4u.ch/,+41324895252,2326
Super Officine,"Viale Stefano Franscini 1, 6900 Lugano",,http://www.superofficine.com/,+41919211643,2326
BACKbAR,"Seefeldstrasse 169, 8008 Zürich",,http://www.backbar.ch/,+41444224717,2326
Solbad & Spa Schönbühl,"Mattenweg 30, 3322 Urtenen-Schönbühl",info@solbad-schoenbuehl.ch,http://www.solbad-schoenbuehl.ch/,+41318593434,2326
Wirtschaft zum Lindenhof,"Seetalstrasse 133, 5503 Schafisheim",,http://www.pizzeria-zum-lindenhof.ch/,+41628913405,2326
Landgasthof zum Steg,"Tösstalstrasse 70, 8496 Steg im Tösstal",landgasthof.zumsteg.kuster@gmail.com,http://www.landgasthof-zum-steg.ch/,+41552451038,2326
Guarda Golf Hotel & Residences,"Route des Zirès 14, 3963 Crans-Montana",info@guardagolf.com,http://www.guardagolf.com/,+41274862000,2326
Berghotel Hahnenmoospass AG,3715 Adelboden,info@hahnemoos.ch,http://www.hahnenmoos.ch/,+41336732141,2326
Restaurant & Hotel Frohsinn AG,"Zugerstrasse 5, 6403 Küssnacht am Rigi",info@rest-frohsinn.ch,http://www.rest-frohsinn.ch/,+41418501414,2326
Ristorante St Paul,"Avenue d'Echallens 72, 1004 Lausanne",ristorante.st.paul@gmail.com,http://www.ristorante-st-paul.ch/,+41215447391,2326
Azzurro Terra e Mare,"Murtenstrasse 2, 3008 Bern",,http://www.ristorante-azzurro.ch/,+41313858585,2326
Feedy's Restaurant,"Althardstrasse 190, 8105 Regensdorf",info@feedys.ch,http://feedys.ch/,+41448881001,2326
Restaurant Forst,"Forst 101, 4922 Thunstetten",rest.forst@bluewin.ch,http://www.restaurantforst.ch/,+41629632111,2326
Auberge St-Hubert,"Mormont 48A, 2922 Courchavon",,http://www.le-saint-hubert.com/,+41324663533,2326
Gasthaus zum Rössli,"Dorfstrasse 16, 8638 Goldingen",gasthauszumroessli@bluewin.ch,http://www.gasthauszumroessli.ch/,+41552845425,2326
Restaurant Bahnhof,"Bahnhofstrasse 10, 4932 Lotzwil",,http://www.pizzeria-bahnhof-lotzwil.ch/,+41629221004,2326
Landgasthof Grossteil,"Rütistrasse 12, 6074 Giswil",info@grossteil.ch,http://www.grossteil.ch/,+41416751108,2326
Puls 5 Event Management,"Giessereistrasse 18, 8005 Zürich",info@puls5.ch,http://www.puls5.ch/,+41445441082,2326
Country-Ranch,"Zürcherstrasse 16, 8107 Buchs ZH",info@country-ranch.ch,http://www.country-ranch.ch/,+41448444000,2326
Restaurant New Bombay,"Totentanz 1, 4051 Basel",info@newbombay.ch,http://www.newbombay.ch/,+41612815055,2326
LA TANA DEL SAURO - Ristorante Funivia Serpiano,"Zona Serpiano, 6867 Serpiano",marco@b51.ch,http://www.latanadelsauro.ch/,+41919961351,2326
Waldhüs Bodmen,"Panoramastrasse 42, 3906 Saas-Fee",info@waldhues-bodmen.ch,http://www.waldhues-bodmen.ch/,+41279572075,2326
Star Fine Food GmbH,"Kreuzmattstrasse 16, 4702 Oensingen",,,+41623960212,2326
L'Europa,"Rue Richard-Wagner 1, 1202 Genève",,https://www.restaurant-pizzeria-europa-geneve.ch/,+41227400905,2326
Gasthof Drei Eidgenossen,"Dorfplatz 1, 3178 Bösingen",info@gasthof-drei-eidgenossen.ch,http://www.gasthof-drei-eidgenossen.ch/,+41265050505,2326
La Croix Blanche Epagny Sàrl,"Route de l'Intyamon 336, 1663 Epagny",,http://www.croixblancheepagny.ch/,+41269212132,2326
Restaurant Bergführer,"Sertigerstrasse 39, 7272 Davos Clavadel",info@sertigtal.ch,http://www.sertigtal.ch/,+41814135355,2326