name,address,email,website,phone,postalCode
Bellevue Parkhotel & Spa,"Bellevuestrasse 15, 3715 Adelboden",marketing@bellevue-parkhotel.ch,https://www.bellevue-parkhotel.ch/de,+41336738000,3715
Berghotel Hahnenmoospass AG,3715 Adelboden,info@hahnemoos.ch,http://www.hahnenmoos.ch/,+41336732141,3715
Bonderalp,3715 Adelboden,,,+41799375455,3715
Trattoria Alfredo,"Dorfstrasse 52, 3715 Adelboden",info@ristorante-alfredo.ch,http://www.ristorante-alfredo.ch/,+41336731940,3715
Schermtanne,"Stiegelschwandstrasse 66, 3715 Adelboden",schermtanne@bluewin.ch,http://www.schermtanne.ch/website/index.php,+41336731051,3715
Alte Taverne,"Dorfstrasse 51B, 3715 Adelboden",,,+41336732500,3715
Hohliebestübli,"Hohliebeweg 17, 3715 Adelboden",,,+41336731069,3715
des Alpes,"Hahnenmoosstrasse 34, 3715 Adelboden",info@desalpes-adelboden.ch,,+41336731224,3715
Aebi Restaurant,"Aebiweg 11, 3715 Adelboden",restaurant-aebi@vtxmail.ch,http://www.restaurant-aebi.ch/,+41336731356,3715
Waldhaus-Huldi,"Dorfstrasse 77/88, 3715 Adelboden",info@waldhaushuldi.ch,http://www.waldhaushuldi.ch/,+41336738500,3715
The Cambrian,"Dorfstrasse 7, 3715 Adelboden",info@thecambrianadelboden.com,http://www.thecambrianadelboden.com/,+41336738383,3715
Restaurant Alpenblick,"Dorfstrasse 9, 3715 Adelboden",,,+41336732773,3715
Beau-Site AG,"Dorfstrasse 5, 3715 Adelboden",,,+41336738282,3715
Brasserie 3715,"Dorfstrasse 15, 3715 Adelboden",,,+41336738885,3715
Chumihütte,"Geils, 3715 Adelboden",,,+41794899017,3715
Event-Treff Adelboden GmbH,"Dorfstrasse 56, 3715 Adelboden",,,+41336734589,3715
Restaurant Steinbock,"Engstligenstrasse 57, 3715 Adelboden",info@adelbed.ch,,+41336730593,3715
Schönegg,"Landstrasse 13, 3715 Adelboden",,,+41336731661,3715
Sillerenbühl,3715 Adelboden,,,+41336733840,3715
Arena-Restaurant,"Landstrasse 30, 3715 Adelboden",restaurant@arena-adelboden.ch,,+41336731717,3715
AlpenChic - Das Restaurant,"Risetensträssli 10, 3715 Adelboden",alpenchic@hotel-steinmattli.ch,,+41336733939,3715
Projekt Aparthotel / Hotel Restaurant Kreuz,"Dorfstrasse 26, 3715 Adelboden",hotel@kreuz-adelboden.ch,,+41336732121,3715
Restaurant Bären,"Dorfstrasse 22, 3715 Adelboden",hotel@baeren-adelboden.ch,,+41336732190,3715
Restaurant Bergbach,"Unter dem Birg 1660, 3715 Adelboden",,,+41786355833,3715
Restaurant Bristol,"Obere Dorfstrasse 6, 3715 Adelboden",bristol@bluewin.ch,,+41336731481,3715
Restaurant Chüebodmi Schranz,"Gassi 3, 3715 Adelboden",,,,3715
Restaurant SZimmer GmbH,"Dorfstrasse 13, 3715 Adelboden",info@restaurantszimmer.ch,,+41336732227,3715
Bäckerei Michel GmbH,"Dorfstrasse 10, 3715 Adelboden",info@baeckerei-adelboden.ch,http://www.baeckerei-adelboden.ch/,+41336731157,3715
Time out Pub,"Dorfstrasse 28, 3715 Adelboden",timeoutpub@hispeed.ch,https://www.timeoutpub.ch/,+41336732000,3715
Bäckerei Konditorei Confiserie Café Haueter,"Dorfstrasse 27, 3715 Adelboden",info@haueter-adelboden.ch,http://www.haueter-adelboden.ch/,+41336731234,3715
Berghaus Bärtschi,"Engstligenalp 1667, 3715 Adelboden",welcome@berghaus-baertschi.ch,,+41336731373,3715
Bergrestaurant Tschentenalp,"Bellevuegässli 4, 3715 Adelboden",restaurant@tschentenalp.ch,,+41336731653,3715
Bodehüttli,"Obere Bodenstrasse 6, 3715 Adelboden",bodehuettli@bluewin.ch,,+41336733700,3715
La Orquidea,"Dorfstrasse 15, 3715 Adelboden",office@viktoria-eden.ch,,+41336738880,3715
Le Tartare,"Dorfstrasse 88, 3715 Adelboden",info@hotelhuldi.com,,+41336738500,3715
Raclettehütte Engstligenalp Adelboden,"Engstligenalp 1667, 3715 Adelboden",kontakt@raclettehuette.ch,,+41336730307,3715
Revier Grill & Bar,"Dorfstrasse 37, 3715 Adelboden",hello@revierhotels.com,,+41583306610,3715
Schmitte-Stübli,"Dorfstrasse 2, 3715 Adelboden",,,+41336733340,3715
Adler Adelboden,"Dorfstrasse 19, 3715 Adelboden",info@adleradelboden.ch,,+41336734141,3715
Alp-Hüttli,"Dorfstrasse 68, 3715 Adelboden",,,+41775282788,3715
Fondue-Iglu Engstligenalp Adelboden,"Engstligenalp 1667, 3715 Adelboden",kontakt@fondue-iglu.ch,,+41336730306,3715
Geilsbrüggli,"Geils 1153, 3715 Adelboden",,,+41336732171,3715
Hohliebe - Stubli,"Obere Bodenstrasse, 3715 Adelboden",,,+41336731069,3715
Kiosk-Treff,"Dorfstrasse 56, 3715 Adelboden",,,,3715
Künzi Peter,"Geils 1153, 3715 Adelboden",,,+41336732171,3715
Tea Room Schmid AG,"Dorfstrasse 45, 3715 Adelboden",,,+41336731951,3715
"Weltcup Bar & Lounge, Ruedi Trummer","Dorfstrasse 40, 3715 Adelboden",,,,3715
Wildstrubel Lodge AG,"Kreuzgasse 8, 3715 Adelboden",,,+41336732107,3715
Wunderbar,"Geils, 3715 Adelboden",,,+41796537990,3715
Künzi Ernst,"Stiegelschwandstrasse 66, 3715 Adelboden",schermtanne@bluewin.ch,,+41336731051,3715