name,address,email,website,phone,postalCode
Gstaad Palace,"Palacestrasse 28, 3780 Gstaad",info@palace.ch,https://www.palace.ch/,+41337485000,3780
Hotel Restaurant Alphorn,"Gsteigstrasse 51, 3780 Gstaad",office@alphorn-gstaad.ch,http://www.alphorn-gstaad.ch/,+41337484545,3780
Hotel Olden,"Promenade 35, 3780 Gstaad",info@hotelolden.com,http://www.hotelolden.com/,+41337484950,3780
Restaurant Time Out Gstaad,"Sportzentrumstrasse 5, 3780 Gstaad",info@sportzentrum-gstaad.ch,,+41337488093,3780
Blun-Chi,"Bahnhofstrasse 2, 3780 Gstaad",,,+41337488844,3780
Le Grand Chalet,"Neueretstrasse 43, 3780 Gstaad",,http://www.grandchalet.ch/,+41337487676,3780
Arc-en-ciel,"Egglistrasse 24, 3780 Gstaad",info@arc-en-ciel.ch,http://www.arc-en-ciel.ch/,+41337484343,3780
Hotel Gstaaderhof,"Lauenenstrasse 19, 3780 Gstaad",info@gstaaderhof.ch,http://www.gstaaderhof.ch/,+41337486363,3780
Michel's Stallbeizli,"Gsteigstrasse 41a, 3780 Gstaad",michel.gstaad@bluewin.ch,http://www.stallbeizli.ch/,+41337441683,3780
Rialto,"Promenade 54, 3780 Gstaad",info@rialto-gstaad.ch,,+41337443474,3780
Wasserngrat Bergrestaurant,"Postfach, 3780 Gstaad",info@wasserngrat.ch,,+41337449622,3780
Restaurant Sommet im The Alpina Gstaad,"Alpinastrasse 23, 3780 Gstaad",,,+41338889866,3780
LEONARD' S -,"Untergstaadstrasse 17, 3780 Gstaad",,,+41337480141,3780
Bernerhof,"Bahnhofstrasse 2, 3780 Gstaad",info@bernerhof-gstaad.ch,,+41337488844,3780
Gstaad Palace,"Palacestrasse 28, 3780 Gstaad",,,+41337485828,3780
La Cave,"Promenade 35, 3780 Gstaad",,,+41337484950,3780
Park Gstaad - Restaurant,"Wispilenstrasse 29, 3780 Gstaad",restauration@parkgstaad.ch,,+41337489828,3780
Restaurant La Bagatelle,"Neueretstrasse 43, 3780 Gstaad",,,+41337487676,3780
Wally's Snack Bar,"Promenade 49, 3780 Gstaad",,https://www.facebook.com/Wallys-184468361593708,+41337447444,3780
Michel' s Stallbeizli,"Gsteigstrasse 41A, 3780 Gstaad",michel.gstaad@bluewin.ch,,+41786903947,3780
Le Grand Restaurant & La Grande Terrasse,"Palacestrasse 28, 3780 Gstaad",info@palace.ch,,+41337485000,3780
Mango Restaurant by Ruci,"Viktoriastrasse 1, 3780 Gstaad",,,,3780
Restaurant Müli,"Lauenenstrasse 19, 3780 Gstaad",info@gstaaderhof.ch,,+41337486363,3780
Mango Restaurant,"Viktoriastrasse 1, 3780 Gstaad",,,+41337483714,3780
Restaurant Megu im The Alpina Gstaad,"Alpinastrasse 23, 3780 Gstaad",restaurants@thealpinagstaad.ch,,+41338889866,3780
Restaurant Swiss Stübli im The Alpina Gstaad,"Alpinastrasse 23, 3780 Gstaad",restaurants@thealpinagstaad.ch,,+41338889866,3780
Restaurant Waldmatte,"Chalberhönistrasse 88, 3780 Gstaad",restaurant-waldmatte@bluewin.ch,,+41337442584,3780
Sommet Restaurant,"Alpinastrasse 23, 3780 Gstaad",restaurants@thealpinagstaad.ch,,+41338889866,3780
Take away Burgers,"Promenade 49, 3780 Gstaad",,,+41337447444,3780
Sportzentrum Gstaad AG,"Sportzentrumstrasse 5, 3780 Gstaad",info@sportzentrum-gstaad.ch,http://www.sportzentrum-gstaad.ch/,+41337488090,3780
Coop,"Untergstaadstrasse 20, 3780 Gstaad",,,+41337484120,3780
Charly's Gstaad AG,"Promenade 76, 3780 Gstaad",info@charlys-gstaad.ch,http://www.charlys-gstaad.ch/,+41337441544,3780
'R' - the chocolate boutique,"Viktoriastrasse 3, 3780 Gstaad",info@chocolateboutique.ch,,+41337483580,3780
Bergrestaurant Wispile,3780 Gstaad,,,+41337489632,3780
Avenue Montagne,"Wispilenstrasse 29, 3780 Gstaad",info@parkgstaad.ch,,+41337489800,3780
Berghaus Wispile,"Moosfangstrasse 46, 3780 Gstaad",rest.wispile@gstaad.ch,,+41337489632,3780
Chubut,"Wispilenstrasse 29, 3780 Gstaad",Reservation@chubut-restaurant.com,,+41337489830,3780
Gildo's Ristorante,"Palacestrasse 28, 3780 Gstaad",info@palace.ch,,+41337485000,3780
La Fromagerie,"Palacestrasse 28, 3780 Gstaad",info@palace.ch,,+41337485000,3780
Posthotel Rössli,"Promenade 10, 3780 Gstaad",info@posthotelroessli.ch,,+41337484242,3780
Saagi Stübli,"Lauenenstrasse 19, 3780 Gstaad",info@gstaaderhof.ch,,+41337486363,3780
"Sport-Hotel Victoria Gstaad, Familie Oehrli","Promenade 72, 3780 Gstaad",info@victoriagstaad.ch,,+41337484422,3780
The Lobby Bar,"Palacestrasse 28, 3780 Gstaad",info@palace.ch,,+41337485000,3780
Bergrestaurant Eggli,"Tschaanereweg 8, 3780 Gstaad",rest.eggli@bergbahnen-gstaad.ch,,+41337489559,3780
Esprit Ravet,"Bahnhofstrasse 2, 3780 Gstaad",,,+41337488844,3780
FrischTisch GmbH,"Ebnitbüelweg, 3780 Gstaad",catering@frischtisch.ch,,+41337481615,3780
KAFI COMPLET,"Promenade 70, 3780 Gstaad",,,+41337224094,3780
Park 29,"Wispilenstrasse 29, 3780 Gstaad",,,+41337489800,3780
Pizza Basta,"Bahnhofstrasse 2, 3780 Gstaad",,,+41337488844,3780
Snoasis,"Obers-haldisbargli, 3780 Gstaad",,,+41335520008,3780