name,address,email,website,phone,postalCode
PaSiWo,"Klybeckstrasse 2, 4057 Basel",,http://www.pasiwo.ch/,+41616816033,4057
Restaurant Zum Onkel,"Mörsbergerstrasse 2, 4057 Basel",bureau@zum-onkel.ch,https://www.zum-onkel.ch/,+41615546530,4057
Alters- und Pflegeheim Marienhaus,"Horburgstrasse 54, 4057 Basel",marienhaus@marienhaus.ch,http://www.marienhaus.ch/,+41616906262,4057
Zum goldenen Fass,"Hammerstrasse 108, 4057 Basel",,https://www.goldenes-fass.ch/,+41616933400,4057
KaBAR in der Kaserne,"Klybeckstrasse 1B, 4057 Basel",,,+41616814717,4057
Detto Pronto AG,"Brombacherstrasse 2, 4057 Basel",,,+41616831550,4057
Restaurant Sultan Saray,"Feldbergstrasse 53, 4057 Basel",,,+41616924135,4057
Restaurant Schiff,"Hochbergerstrasse 134, 4057 Basel",restaurantschiff@hotmail.ch,http://www.schiff-restaurant.ch/,+41616311820,4057
Eintracht,"Oetlingerstrasse 64, 4057 Basel",,,+41616914410,4057
Thai-Restaurant boo,"Klybeckstrasse 86, 4057 Basel",,,+41616814108,4057
Concordia,"Haltingerstrasse 11, 4057 Basel",,,+41616815505,4057
Depot 14,"Gärtnerstrasse 55, 4057 Basel",,,+41616312228,4057
Platanenhof,"Klybeckstrasse 241, 4057 Basel",,,+41616310090,4057
parterre one,"Klybeckstrasse 1B, 4057 Basel",one@parterre.net,http://www.parterre-one.ch/,+41616958998,4057
Restaurant zum wilden Mann,"Horburgstrasse 80, 4057 Basel",,http://www.restaurant-zumwildenmann.ch/,+41616012419,4057
Rest.- Café- Bar Globàle,"Claragraben 101, 4057 Basel",,,+41616837710,4057
"Bar Restaurant Delphin, Perihan Birdemir","Feldbergstrasse 59, 4057 Basel",,,+41616917694,4057
GYYM Health & Fitness AG Basel,"Hochbergerstrasse 70, 4057 Basel",,,+41616333020,4057
Pizza Picasso,"Klybeckstrasse 107, 4057 Basel",,,+41616919191,4057
Restaurant Baris GmbH,"Feldbergstrasse 70, 4057 Basel",,,+41616814466,4057
Siesta-Rest GmbH,"Efringerstrasse 30, 4057 Basel",,,+41616831155,4057
Thai-Family Restaurant Sudsaard,"Hammerstrasse 69, 4057 Basel",info@thaifamily.ch,,+41616814045,4057
Valentino's Place,"Kandererstrasse 35, 4057 Basel",,,+41616921155,4057
McDonald's Restaurant,"Hochbergerstrasse 70, 4057 Basel",,,+41616315677,4057
Restaurant 90 GmbH,"Uferstrasse 90, 4057 Basel",,,+41616384430,4057
Restaurant Golden Day,"Amerbachstrasse 66, 4057 Basel",,,+41616811410,4057
"Restaurant zu Hause, Thomas Meier","Hochbergerstrasse 15, 4057 Basel",info@madi.ch,https://www.madi.ch/,+41616931220,4057
Restaurant Union,"Klybeckstrasse 95, 4057 Basel",info@union-restaurant.com,,+41616837770,4057
Restaurant Künstler Klause,"Klingentalstrasse 79, 4057 Basel",,,+41616934910,4057
3RA GmbH,"Klybeckstrasse 99, 4057 Basel",,,+41616926273,4057
Chanthaburi,"Feldbergstrasse 57, 4057 Basel",,,+41616832223,4057
Fujin Sushi Bar & Restaurant,"Klybeckstrasse 92, 4057 Basel",info@fujinsushi.ch,,+41616910772,4057
LeBua thai restaurant,"Feldbergstrasse 56, 4057 Basel",info@lebua.ch,,+41617939955,4057
Punta Cana Dominikanisches Restaurant,"Drahtzugstrasse 32, 4057 Basel",info@restaurantpuntacana.ch,,,4057
Restaurant Sahara,"Hochbergerstrasse 112, 4057 Basel",info@restaurant-sahara.ch,,+41615061100,4057
Restaurant Trio,"Klingentalstrasse 1, 4057 Basel",info@trio-basel.ch,,+41615569599,4057
Evingrill Restaurant,"Horburgstrasse 21, 4057 Basel",,,+41616812020,4057
Hotel Stücki Restaurant,"Badenstrasse 1, 4057 Basel",stuecki@welcomegroup.ch,,+41616383434,4057
Itra38 Restaurant Grill Bäckerei,"Inselstrasse 76, 4057 Basel",info@itra38.ch,,+41616310360,4057
Lalibela Ethiopian Restaurant,"Rappoltshof 6, 4057 Basel",,,+41763106457,4057
Restaurant Ephesus,"Amerbachstrasse 2, 4057 Basel",,,+41616813459,4057
Restaurant Habesha,"Markgräflerstrasse 89, 4057 Basel",,,+41799489807,4057
Restaurant La Cocina,"Sperrstrasse 3, 4057 Basel",,,+41788917995,4057
Restaurant Lauch,"Klingentalstrasse 1, 4057 Basel",,,+41616925656,4057
Restaurant Rostiger Anker,"Hafenstrasse 25A, 4057 Basel",,,+41616310803,4057
Restaurant Seemanns Keller,"Südquaistrasse 21, 4057 Basel",,,+41616315818,4057
Restaurant Seemannskeller,"Südquaistrasse 21, 4057 Basel",,,+41616315818,4057
Restaurant Spicy Raveendrarajah,"Klingentalstrasse 67, 4057 Basel",,,+41616912020,4057
Restaurant Terrasse,"Haltingerstrasse 104, 4057 Basel",,,+41616891966,4057
Thai Café Restaurant,"Brombacherstrasse 44, 4057 Basel",thaicafe1@hotmail.com,,+41616812143,4057
Rhytaxi Basel,"Westquaistrasse 39, 4057 Basel",kontakt@rhytaxi-basel.ch,https://www.rheintaxi.ch/,+41612731414,4057
Nooch Asian Kitchen Stücki Park Basel,"Hochbergerstrasse 70, 4057 Basel",stuecki@nooch.ch,,+41616314800,4057
"Argentinischer Grill ¡Che, que lomo!","Horburgstrasse 74, 4057 Basel",reservationen@chequelomo.ch,,+41615432201,4057
Carrasco Tapas Bar,"Efringerstrasse 1, 4057 Basel",tapas-bar@carrasco.ch,,+41616818156,4057
Hafechäs,"Uferstrasse 40, 4057 Basel",reservation@xn--hafechs-bxa.ch,,+41786941210,4057
Hoffmann's Bagel und Coffehouse,"Feldbergstrasse 142, 4057 Basel",hoffmannsbagel@gmail.com,,+41798875285,4057
Lisboa 28 - Tapas Bar,"Kleinhüningerstrasse 117, 4057 Basel",Lisboa28.Basel@gmx.ch,,+41615362634,4057
Marché Bistro Basel-Weil,4057 Basel,basel-weil@marche-restaurants.ch,,+41616313865,4057
paloma,"Gemeinschaftszollanlage Basel-Weil, 4057 Basel",,,+41769849637,4057
Spice Inn,"Horburgstrasse 19, 4057 Basel",spice.inn.basel@gmail.com,,+41615358947,4057
Tender & Loins Steakhouse,"Hochbergerstrasse 70, 4057 Basel",basel@TENDERandLOINS.ch,,+41616333020,4057
Za Zaa - Erasmus - 100% VEGAN,"Erasmusplatz 16, 4057 Basel",info@zazaa.ch,,,4057
Sam's Pizza,"Hochbergerstrasse 70, 4057 Basel",,,+41616310460,4057
Avant-Gouz,"Hammerstrasse 141, 4057 Basel",,,+41615543553,4057
Biryani Haus,"Amerbachstrasse 14, 4057 Basel",biryanihaus@yahoo.com,,+41616830145,4057
Cafe Frühling,"Klybeckstrasse 69, 4057 Basel",,,+41616891623,4057
DejaVu Café-Bar,"Offenburgerstrasse 61, 4057 Basel",oksana.kharehenko@gmx.ch,,+41616910764,4057
Dingi,"Uferstrasse 80, 4057 Basel",,,,4057
Drei Rosen,"Klybeckstrasse 174, 4057 Basel",,,+41616816363,4057
Dreiländereck,"Westquaistrasse 75, 4057 Basel",,,+41616399540,4057
El Rincón Español de Basilea,"Kleinhüningerstrasse 151, 4057 Basel",comoencasabasel@gmail.com,,+41787093901,4057
finkmuller Klybeck,"Klybeckstrasse 70, 4057 Basel",,,,4057
Flora Buvette,"Unterer Rheinweg 44, 4057 Basel",info@goldenes-fass.ch,,,4057
Flore,"Klybeckstrasse 5, 4057 Basel",florebasel@hotmail.com,,+41774549472,4057
Freiluftrestaurant Landestelle,"Uferstrasse, 4057 Basel",info@landestelle.ch,,+41786022455,4057
Gannet,"Uferstrasse 40, 4057 Basel",reservation@gannet.lv,,+41612616688,4057
Gemeinsam Cafe,"Markgräflerstrasse 14, 4057 Basel",,,,4057
Happy Bowls,"Brombacherstrasse 2, 4057 Basel",,,,4057
La Fourchette Basel Gmbh,"Klybeckstrasse 122, 4057 Basel",,,+41616912828,4057
Patschifig,"Uferstrasse 40, 4057 Basel",,,+41786941210,4057
Restaurat Cafe Siesta,"Efringerstrasse 30, 4057 Basel",,,+41616831155,4057
Rhyschänzli Buvette,"Unterer Rheinweg, 4057 Basel",buvette@rhyschaenzli.ch,,+41612722323,4057
Riibistro,"Unterer Rheinweg 168, 4057 Basel",,,+41616819565,4057
Ristorante BASILISK da Pietro,"Klingentalstrasse 1, 4057 Basel",ristorante@basilisk-dapietro.ch,,+41615179864,4057
Roofdeck,"Westquaistrasse 19, 4057 Basel",info@roofdeck.ch,,,4057
SMUK Cafe Bar,"Feldbergstrasse 121, 4057 Basel",info@smuk.bar,,+41616838080,4057
Squadra Violi,"Hammerstrasse 163, 4057 Basel",,,+41774945277,4057
Taste Me,"Markgräflerstrasse 70, 4057 Basel",,,+41616919192,4057
The Kebab Factory,"Klybeckstrasse 73, 4057 Basel",,,,4057
The Kebap Factory,"Klybeckstrasse 73, 4057 Basel",,,,4057
The Siam Delicious,"Klybeckstrasse 74, 4057 Basel",,,+41764124542,4057
Trattoria da Checco e Gia,"Offenburgerstrasse 32, 4057 Basel",,,+41615017939,4057
TURBINE HOUSE / STOCK MILL,"Gärtnerstrasse 46, 4057 Basel",,,+41615549936,4057
Turbinenhaus / Aktienmühle,"Gärtnerstrasse 46, 4057 Basel",,,+41615549936,4057
Urban Nomad Afghan Kitchen,"Erasmusplatz 12, 4057 Basel",info@urbannomad.ch,,+41763235678,4057
Vegitat GmbH,"Klybeckstrasse 62, 4057 Basel",,,+41615546655,4057
zum wilde Maa,"Oetlingerstrasse 165, 4057 Basel",,,+41613631919,4057
Meier Thomas,"Hochbergerstrasse 15, 4057 Basel",info@madi.ch,,+41616931220,4057
Sanchez Garcia Jonathan,"Kleinhüningerstrasse 151, 4057 Basel",,,+41616310074,4057
Vaitheeswaran Sathiyalingam,"Mauerstrasse 70, 4057 Basel",,,+41616919192,4057