name,address,email,website,phone,postalCode
Yildirim's SnackHouse,"Spitalgasse 1, 4900 Langenthal",,https://www.local.ch/de/d/langenthal/4900/kebab-doener/yildirim-s-snackhouse-0AIqW7yR5-Z8jFWEYdgAIA?dwhat=lahmacun&dwhere=langenthal,+41629222627,4900
Gässli,"Spitalgasse 13, 4900 Langenthal",,,+41629221569,4900
Rebstock,"Spitalgasse 24, 4900 Langenthal",,,+41629221169,4900
Parkhotel Langenthal,"Weststrasse 90, 4900 Langenthal",info@parkhotel-langenthal.ch,http://www.parkhotel-langenthal.ch/,+41629229422,4900
Restaurant Pizzeria Schore Pintli,"Dorfgasse 66, 4900 Langenthal",,,+41629630088,4900
Felber AG,"Wiesenstrasse 5, 4900 Langenthal",office@felberbeck.ch,http://www.felberbeck.ch/,+41629220777,4900
Bierhaus GmbH,"Brauihof 12, 4900 Langenthal",mail@bierhaus-langenthal.ch,http://www.bierhaus-langenthal.ch/,+41625302245,4900
Braui Restaurant,"Brauihof 12, 4900 Langenthal",mail@bierhaus-langenthal.ch,https://www.bierhaus-langenthal.ch/,+41625302245,4900
China Restaurant Winn Fat,"Käsereistrasse 13, 4900 Langenthal",,http://www.winnfat.ch/,+41629221280,4900
El Mosquito,"Melchnaustrasse 14, 4900 Langenthal",langenthal@el-mosquito.ch,,+41629223333,4900
Mister Miagi Restaurant,"Marktgasse 6, 4900 Langenthal",info@mister-miagi.ch,,+41629222266,4900
Bären Langenthal,"St. Urbanstrasse 1, 4900 Langenthal",,http://baeren-langenthal.ch/,+41629191717,4900
Chrämerhuus,"Jurastrasse 12, 4900 Langenthal",,,+41629231550,4900
Restaurant zur alten Post,"Aarwangenstrasse 4, 4900 Langenthal",,,+41625304939,4900
Neuhüsli,"Lotzwilstrasse 36, 4900 Langenthal",,,+41629224803,4900
SUBWAY Langenthal,"Aarwangenstrasse 82, 4900 Langenthal",langenthal@subwayswiss.com,,+41629233187,4900
à la cArte,"Marktgasse 13, 4900 Langenthal",,,+41629236100,4900
Brasserie Quelle Hasli-Bier,"St. Urbanstrasse 34, 4900 Langenthal",,,+41629224444,4900
Dogidog Imbiss,"Ringstrasse 60, 4900 Langenthal",,,+41798126085,4900
Restaurant Pinocchio,"Spitalgasse 18, 4900 Langenthal",,,+41629231823,4900
Restaurant Time out,"Dorfgasse 99, 4900 Langenthal",,,+41629225430,4900
Stadthof,"Farbgasse 13, 4900 Langenthal",,,+41629222620,4900
Suteria Chocolata AG,"St. Urbanstrasse 1b, 4900 Langenthal",,,+41622128040,4900
Alberobello Ristorante Pizzeria,"Marktgasse 37, 4900 Langenthal",alberobello@oberemarktgasse.ch,http://oberemarktgasse.ch/,+41629233040,4900
Prodega - Transgourmet AG,"Gaswerkstrasse 78, 4900 Langenthal",,,+41629158585,4900
Verein maxi.mumm,"Bern-Zürichstrasse 23, 4900 Langenthal",,,+41629188058,4900
Restaurant Bowlingcenter,"Lotzwilstrasse 66, 4900 Langenthal",events@gastro-elemaent.ch,,+41629190116,4900
Migros Restaurant Langenthal MParc,"Murgenthalstrasse 17, 4900 Langenthal",,,+41585678580,4900
Hotel Restaurant Da Luca am Bahnhof,"Eisenbahnstrasse 7, 4900 Langenthal",info@daluca.ch,,+41629197200,4900
La Perla - Fashion Restaurant,"Marktgasse 46, 4900 Langenthal",laperla.fashionrestaurant@gmail.com,,+41625587982,4900
McDonald's Restaurant,"Melchnaustrasse 1, 4900 Langenthal",,,+41629229888,4900
Migros Restaurant Langenthal,"Wiesenstrasse 28, 4900 Langenthal",,,+41585673260,4900
Restaurant Delikat,"Lotzwilstrasse 66, 4900 Langenthal",,,+41629110116,4900
Restaurant Hirschenbad,"St. Urbanstrasse 92, 4900 Langenthal",,,+41629237373,4900
Restaurant Im Hard,"Weissensteinstrasse 30, 4900 Langenthal",,,+41629192217,4900
Restaurant la Piazetta,"Mühleweg 11, 4900 Langenthal",,,+41629221405,4900
Schwimmbad Restaurant,"Rumiweg 63, 4900 Langenthal",,,+41629233803,4900
Thai Chili Restaurant,"Bäreggstrasse 10, 4900 Langenthal",,,+41629294344,4900
Coop,"St. Urbanstrasse 3, 4900 Langenthal",,,+41629167003,4900
SV (Schweiz) AG,"Güterstrasse 20, 4900 Langenthal",,,+41629233007,4900
"LOKAU- Beer, Burger & Bar GmbH","St. Urbanstrasse 34, 4900 Langenthal",,http://www.lokau.ch/,+41629235351,4900
Dorfbeck Nyfeler AG,"Aarwangenstrasse 70, 4900 Langenthal",info@znueni-beck.com,,+41629221733,4900
gastro elemänt,"Lotzwilstrasse 66, 4900 Langenthal",events@gastro-elemaent.ch,,+41629190116,4900
Hotel Auberge,"Murgenthalstrasse 5, 4900 Langenthal",info@auberge-langenthal.ch,,+41629266010,4900
Kantine Z3,"Steinackerweg 18, 4900 Langenthal",z3@kantine-z3.ch,,+41629221440,4900
La Piazzetta Ristorante Pizzeria,"Mühleweg 11, 4900 Langenthal",Jacqueline.russo@bluewin.ch,,+41629221405,4900
Song Que - Vietnamesisches Take Away,"Marktgasse 34B, 4900 Langenthal",takeaway.songque@gmail.com,,+41787685832,4900
Terra Svizerra,"Weststrasse 90, 4900 Langenthal",info@parkhotel-langenthal.ch,,+41629229422,4900
Vagner's,"Mühleweg 15, 4900 Langenthal",info@vagners.ch,,+41625303535,4900
Bar Gelateria Riva GmbH,"Seilereistrasse 1, 4900 Langenthal",,,+41629230100,4900
Businesspark Langenthal AG,"Lotzwilstrasse 66, 4900 Langenthal",,,+41629190116,4900
Comme il faut,"Parkhotel Langenthal 90, 4900 Langenthal",info@parkhotel-langenthal.ch,,+41629229422,4900
fahrBAR,"Wuhrplatz 1, 4900 Langenthal",,,+41765173320,4900
Kaffee-Fabrik Daniel Heiniger,"Bahnhofstrasse 16, 4900 Langenthal",,,+41629229595,4900
Mamma Mia,"Marktgasse 34, 4900 Langenthal",,,+41629225646,4900
Metrpol mode lounge,"Brauihof 22, 4900 Langenthal",,,,4900
Pizzeria Sternen,"St. Urbanstrasse 37, 4900 Langenthal",,,+41629221601,4900
Rumi,"Jurastrasse 18, 4900 Langenthal",,,,4900
"Schaub Restaurants GmbH, Zweigniederlassung Langenthal","Melchnaustrasse 1, 4900 Langenthal",,,,4900
Schore Pintli,"Dorfgasse 66, 4900 Langenthal",,,+41629228028,4900
Thien Loc - Asia Take Away,"Marktgasse 34B, 4900 Langenthal",,,+41787685832,4900
Zum Wiener,"Brauihof 18, 4900 Langenthal",,,+41625303836,4900
Architekturbüro Ledermann AG,"Mittelstrasse 40, 4900 Langenthal",,http://www.arch-ledermann.ch/,+41629232244,4900
Felber AG,"Dennliweg 21, 4900 Langenthal",office@felberbeck.ch,http://www.felberbeck.ch/,+41629238580,4900
Klinik SGM Langenthal,"Weissensteinstrasse 30, 4900 Langenthal",physio@klinik-sgm.ch,http://www.klinik-sgm.ch/,+41629192211,4900