name,address,email,website,phone,postalCode
Grill Bill Baar,"Blegistrasse 17B, 6340 Baar",baar@grillbill.ch,http://www.grillbill.ch/,+41417609500,6340
Restaurant Moosrank,"Moosrank 2, 6340 Baar",info@moosrank.ch,http://www.moosrank.ch/,+41417111885,6340
hello world,"Grabenstrasse 3, 6340 Baar",welcome@helloworld-baarzug.ch,http://www.helloworld-baarzug.ch/,+41415303737,6340
Hong Kong Dragon,"Oberdorfstrasse 13, 6340 Baar",info@hongkongdragon.ch,http://www.hongkongdragon.ch/,+41417601960,6340
Pizzeria 33,"Marktgasse 15, 6340 Baar",,https://www.facebook.com/Pizzeria-33-Baar-1729527680700744,+41417631770,6340
Restaurant Benjarong Thai Cuisine,"Dorfstrasse 7, 6340 Baar",mail@benjarong.ch,http://benjarong.ch/,+41415302455,6340
Restaurant im Park,"Bahnhofstrasse 12, 6340 Baar",kontakt@restaurant-im-park.ch,https://www.restaurant-im-park.ch/,+41417698923,6340
Ristorante La Strada,"Neuhofstrasse 1, 6340 Baar",info@ristorantelastrada.ch,https://www.ristorantelastrada.ch/,+41417608138,6340
Cherry Bowl,"Sihlbruggstrasse 105, 6340 Baar",,http://www.cherrybowl.ch/,+41417605555,6340
Café-Bäckerei Dorfplatz,"Rigistrasse 171a, 6340 Baar",info@dorfcafe.ch,,+41417606564,6340
Ruan Siam,"Neugasse 8, 6340 Baar",info@ruan-siam.ch,,+41417618484,6340
Gasthaus Bauernhof AG,"Talacher 2, 6340 Baar",,,+41417110527,6340
Krone,"Rathausstrasse 3, 6340 Baar",,,+41417617201,6340
Langgasse,"Langgasse 32, 6340 Baar",,,+41417611286,6340
Mahalaxmi India,"Büelstrasse 1, 6340 Baar",,http://www.mahalaxmiindia.ch/,+41417630869,6340
Hotel - Restaurant Ebel,"Arbachstrasse 1, 6340 Baar",,,+41417618601,6340
Maienrisli Brasserie,"Rathausstrasse 9, 6340 Baar",info@maienrisli.ch,,+41417616256,6340
Restaurant Testarossa,"Oberdorfstrasse 8A, 6340 Baar",,,+41417612101,6340
Baarburg,"Marktgasse 14, 6340 Baar",,,+41417611733,6340
Bären,"Büelstrasse 9, 6340 Baar",,,+41417611656,6340
Blickensdorf,"Blickensdorferstrasse 4, 6340 Baar",,,+41417614009,6340
Brauerei,"Langgasse 41, 6340 Baar",,,+41417611585,6340
Hirssattel,"Hirssattel, 6340 Baar",,,+41417619525,6340
Höllgrotten,"Höllgrotten 1, 6340 Baar",restaurant-hoellgrotten@gmx.ch,,+41417616605,6340
Löwen,"Zugerstrasse 12, 6340 Baar",,,+41417609064,6340
Neuhof-Kulinaria,"Oberneuhofstrasse 8, 6340 Baar",,,+41417618125,6340
Neumühle,"Bahnhofstrasse 9, 6340 Baar",,,+41417608585,6340
Silvia's Café-Bar,"Dorfstrasse 13, 6340 Baar",,,+41417617020,6340
Sport Inn Waldmannhalle,"Neugasse 55, 6340 Baar",,,+41417660088,6340
Restaurant Fontana,"Baarermattstrasse 11, 6340 Baar",,,+41417093939,6340
Restaurant Time Out,"Gewerbestrasse 11, 6340 Baar",restaurant.tcbaar@gmail.com,,+41417614665,6340
Dukes Restaurant,"Sihlbruggstrasse 3, 6340 Sihlbrugg",info@dukes.ch,,+41432444040,6340
McDonald's Restaurant,"Zugerstrasse 62, 6340 Baar",,,+41417606506,6340
McDonald's Restaurant,"Blegistrasse 1, 6340 Baar",,,+41417632777,6340
Coop,"Lättichstrasse 10, 6340 Baar",,,+41413670900,6340
Coop,"Poststrasse 3, 6340 Baar",,,+41412522110,6340
Bäckerei Hotz Rust AG,"Schutzengelstrasse 18, 6340 Baar",info@zugerbeck.ch,http://www.zugerbeck.ch/,+41417603131,6340
Autosattlerei Mohler GmbH,"Oberneuhofstrasse 13, 6340 Baar",info@sattler.ch,http://www.sattler.ch/,+41417630909,6340
dieci Pizza Kurier Baar-Zug,"Neugasse 11, 6340 Baar",,http://www.pizzakurier.ch/,+41417606145,6340
La Pizza Zustelldienst AG,"Oberneuhofstrasse 8, 6340 Baar",,http://www.pizzaservice.ch/,+41417631600,6340
El Pescador Upstairs,"Sihlbruggstrasse 107, 6340 Sihlbrugg",info@el-pescador.ch,,+41417677001,6340
Hof-Märcht Filiale Lättich,"Lättichstrasse 4, 6340 Baar",info@hofmaercht.ch,,+41417661602,6340
MY oriental cuisine,"Langgasse 4, 6340 Baar",contact@myorientalcuisine.ch,,+41417615353,6340
Story,"Neuhofstrasse 12, 6340 Baar",story@zuwebe.ch,,+41417816161,6340
BBQ AG,"Bahnhofstrasse 6, 6340 Baar",,,+41417610040,6340
BP Service Baar,"Zugerstrasse 60, 6340 Baar",,,+41417619346,6340
Cheers Baar,"Dorfstrasse 34, 6340 Baar",,,+41417631737,6340
"Clubrestaurant FC Baar, Affentranger Markus","Schutzengelstrasse 41, 6340 Baar",,,,6340
Divan Ocakbasi & Grillhaus,"Büelstrasse 1, 6340 Baar",,,+41417630869,6340
Kebab und Pizza House Baar,"Oberdorfstrasse 1, 6340 Baar",,,+41417615555,6340
Ristorante Pizzeria Maddalena,"Zugerstrasse 3, 6340 Baar",,,+41415410900,6340
Royal Siam,"Langgasse 40, 6340 Baar",info@royalsiam.ch,,+41792667788,6340
Sunshine Bar Gmbh,"Dorfstrasse 42, 6340 Baar",,,+41417612727,6340
Hotel Krone,"Haldenstrasse 1, 6340 Baar",info@krone-saasgrund.ch,,+41279572233,6340
Bütler Leni und Bütler Madlen (-Zürcher),"Langgasse 32, 6340 Baar",,,+41417611286,6340
Dialoghotel Eckstein,"Langgasse 9, 6340 Baar",,https://www.dialoghotel-eckstein.ch/,+41417664600,6340
Zuger Kantonsspital,"Landhausstrasse 11, 6340 Baar",info@zgks.ch,http://www.zgks.ch/,+41413991111,6340
Baggenstos Markus,"Dorfstrasse 25, 6340 Baar",,,+41417619164,6340
Höllgrotten Baar,6340 Baar,,,+41417618370,6340