name,address,email,website,phone,postalCode
La Tegola,"Viale Verbano, 6600 Muralto",,https://www.ristorantelategola.ch/,+41917437121,6600
Ristorante Bistro del Casinò di Locarno,"Largo Franco Zorzi 1, 6600 Locarno",info@casinolocarno.ch,https://www.casinolocarno.ch/it/ristorante-bistro,+41917563030,6600
Ristorante Pizzeria Perbacco,"Via Giuseppe Cattori 4, 6600 Locarno",info@RistorantePerbacco.ch,https://www.ristoranteperbacco.ch/,+41916010799,6600
altulipanobianco,"Piazza Filippo Franzoni 1, 6600 Locarno",info@altulipanobianco.ch,http://altulipanobianco.ch/,+41912247075,6600
ALLETORRI SNACK BAR,"Via Giovanni Varesi 14, 6600 Locarno",,http://alletorri.ch/,+41917514545,6600
Hotel-Restaurant dell'Angelo,"Vicolo Della Motta 1, 6600 Locarno",hotel@dellangelo.ch,http://www.dellangelo.ch/,+41917596868,6600
Lungolago Locarno,"Via Bramantino 1, 6600 Locarno",bar@lungolago.ch,http://lungolago.ch/,+41917515246,6600
Da Valentino,"Via Torretta 7, 6600 Locarno",,http://www.ristorantedavalentino.ch/,+41917520110,6600
Hotel & Lounge Lago Maggiore,"Viale Verbano 25, 6600 Muralto",,https://www.lagomaggiorehotel.ch/,+41916011800,6600
Hotel Ristorante America,"Vicolo Torretta 3, 6600 Locarno",info@hotelamerica.ch,http://www.hotelamerica.ch/,+41917517635,6600
Hotel ristorante Pizzeria Bellavista,"Via Bartolomeo Varenna 31, 6600 Locarno",contact@bellavistalocarno.ch,https://bellavistalocarno.ch/,+41912350250,6600
Ristorante Costa Azzurra,"Via Villibaldo Bastoria 13, 6600 Solduno",info@costa-azzurra.ch,http://www.costa-azzurra.ch/,+41917513802,6600
Birreria Rondalli,"Via nuova Dogana 4, 6600 Muralto",,,+41917511413,6600
Bar La Vela Reto,"Viale Verbano 41, 6600 Muralto",,,+41917438695,6600
Svizzero,"Largo Franco Zorzi 18, 6600 Locarno",,http://www.ristorantesvizzero.ch/,+41917512874,6600
Osteria Borghese,"Via Borghese 20, 6600 Locarno",,,+41917510498,6600
Govinda Ristorante,"Via della Motta 10, 6600 Locarno",radhakanta16@yahoo.com,,+41917523852,6600
Oldrati,"Viale Verbano 1, 6600 Muralto",ristorante@oldrati-locarno.ch,,+41917438544,6600
Panorama,"Via Luigi Lavizzari 2, 6600 Locarno",,,+41917516050,6600
Osteria Croce Federale,"Via Alberto Vigizzi 1, 6600 Solduno",,,+41917510229,6600
Movie Restaurant & Tapas Bar,"Via Franchino Rusca 1, 6600 Locarno",info@movielocarno.ch,https://www.facebook.com/movielocarno/,+41918402244,6600
BLU Restaurant & Lounge,"Via Gioacchino Respini 11, 6600 Locarno",info@blu-locarno.ch,https://www.blu-locarno.ch/,+41917590090,6600
Osteria del Centenario,"Viale Verbano 17, 6600 Muralto",,http://www.osteriacentenario.ch/,+41917438222,6600
La Fontana Ristorante & Bar,6600 Locarno,ristorante@lafontana-locarno.com,http://www.lafontana-locarno.com/,+41917560079,6600
Hotel Belvedere Locarno,"Via ai Monti 44, 6600 Locarno",info@belvedere-locarno.com,http://www.belvedere-locarno.com/,+41917510363,6600
Osteria Pozzo con Alloggio,"Via Borghese 19, 6600 Locarno",,http://www.amicidibacco.ch/,+41917510232,6600
Ristorante Amici di Bacco - La Morettina,"Via Francesco Ballerini 1, 6600 Locarno",info@amicidibacco.ch,http://www.amicidibacco.ch/,+41917511116,6600
Casa del Popolo,"Via delle Corporazioni 1, 6600 Locarno",ali.temel@ticino.com,,+41917511208,6600
Ristorante Vallemaggia,"Via Bartolomeo Varenna 1, 6600 Locarno",ristorantevallemaggia@proinfirmis.ch,,+41917520001,6600
Bar Pasticceria Fontana,"Largo Franco Zorzi 6, 6600 Locarno",,,+41917514933,6600
Cittadella,"Via Cittadella 18, 6600 Locarno",,,+41917515885,6600
delle Valli,"Via Vallemaggia 14, 6600 Locarno",,,+41917513273,6600
Euro Bar,"Via Alberto Vigizzi 4, 6600 Solduno",,,+41917518268,6600
Fevi,"Via alla Peschiera, 6600 Locarno",,,+41917519007,6600
Ristorante Bar Piazza,"Piazza Grande 18, 6600 Locarno",,,+41917520061,6600
Ristorante Bubo,"Via vecchio Naviglio 4, 6600 Locarno",,,+41917514111,6600
Ristorante Fiorentina,"Via Sant'Antonio 10, 6600 Locarno",info@ristorantefiorentina.ch,,+41917515050,6600
La Farfalla,"Via della Posta 44, 6600 Locarno",allido@tertianum.ch,,+41917563745,6600
Pardo Bar,"Via Della Motta 3, 6600 Locarno",info@pardobar.com,,+41917522123,6600
Ristorante La Rinascente,"Via al Tazzino 3, 6600 Locarno",,,+41917511331,6600
Campeggio Delta,"Via Gioacchino Respini 7, 6600 Locarno",,,+41917511478,6600
Cantinone,"Piazza Muraccio 3, 6600 Locarno",,,+41917515797,6600
Il Boccalino,"Vicolo della Motta 7, 6600 Locarno",,,+41917519681,6600
Incontro,"Via Municipio 2, 6600 Muralto",,,+41917436630,6600
Pax,"Piazza Stazione 9, 6600 Muralto",,,+41917439143,6600
Portico,"Piazza Grande 22, 6600 Locarno",,,+41917512307,6600
Ristorante Albergo Corona,"Piazza Orelli 12, 6600 Locarno",,,+41796204584,6600
Ristorante La Chiesa,"Via del Tiglio 1, 6605 Locarno",,,+41917520303,6600
Robinia,"Via Serafino Balestra 40, 6600 Locarno",,,+41917522481,6600
Saleggi,"Via Angelo Nessi 13, 6600 Locarno",,,+41917514197,6600
Stella,"Via Gregorio Mantegazza 5, 6600 Locarno",,,+41917512135,6600
Trattoria del lago,"Viale Verbano 35, 6600 Muralto",,,+41917435198,6600
Verzaschese,"Via Patocchi 17, 6605 Locarno",,,+41917510495,6600
OM Asian Food e Stranamore Pizzeria,"Via Vallemaggia 81, 6600 Solduno",,https://www.om-asianfood.ch/,+41917511015,6600
GASTHAUS & Restaurant Scaletta,"Ringstrasse 106, 6600 Locarno",info@ristorantescaletta.ch,,+41917435298,6600
Restaurant Elvetico,"Via Vallemaggia 31, 6600 Locarno",info@elvetico.ch,,+41917566060,6600
Restaurant & Snack Bar Corona,"Via dell'Ospedale, 6600 Locarno",hotel-corona@ticino.com,,+41917514336,6600
Team Cleaning Service Sagl,"Via San Gottardo 27, 6600 Muralto",,http://www.novaltec.ch/,+41912255617,6600
Pizza 'La Piazza',"Piazza Solduno 3, 6600 Solduno",,http://www.pizza-lapiazza.ch/,+41917520220,6600
Le Gourmet,"Via al Tazzino 3, 6600 Locarno",info@legourmetcatering.ch,http://www.legourmetcatering.ch/,+41917511331,6600
Ristorante il Chiodo,"Viale Verbano 13, 6600 Muralto",email@ilchiodo.ch,,+41917591122,6600
Caffè Bartolomeo,"Via Bartolomeo Rusca 8, 6600 Locarno",,,+41792836918,6600
La Dolcevita,"Via Vincenzo D'Alberti 4, 6600 Locarno",,,+41792467692,6600
Pizza Compare,"Via Vallemaggia 3, 6600 Locarno",,,+41912208460,6600
Vera Gelateria SA,"Via Stazione 2, 6600 Muralto",,,+41917430074,6600
Al Parco,"Via San Gottardo 8, 6600 Muralto",alparco@tertianum.ch,,+41917591260,6600
Al Pozz,"Viale Verbano 21, 6600 Muralto",,,+41917446364,6600
Archetto Take Away,"Via Marcacci 11, 6600 Locarno",archettolocarno@gmail.com,,+41765340482,6600
Calzerotti Food Truck,"Via Giovanni Varesi 1, 6600 Locarno",calzerotti@gmail.com,,+41763250685,6600
Feel Good Food - Caffè Dell'arte,"Via Cittadella 9, 6600 Locarno",feelgoodfood@caffedellarte.ch,,+41764276600,6600
Gran Caffè Verbano,"Piazza Grande 5, 6600 Locarno",info@bar-verbano.ch,,+41917520015,6600
Griechische Insel,"Via Vigizzi 7, 6604 Locarno",info@isolagreca.ch,,+41912252427,6600
Hüttenmoser Locarno SA,"Via al Tazzino 3, 6600 Locarno",,,+41917511334,6600
INERTA Umwelttechnik AG,"Via della Pace 5, 6600 Locarno",,,+41917542626,6600
Inka Bistrot Bar,"Piazza Grande 13, 6600 Locarno",inka.locarno@gmail.com,,+41912357773,6600
La Trattoria,"Via Marcacci 9, 6600 Locarno",info@latrattorialocarno.ch,,+41917516444,6600
Old Wild West,"Via Stazione 7, 6600 Muralto",muralto@oldwildwest.ch,,+41917446482,6600
Pizzeria e Gelateria Primavera,"Via dell'Ospedale 4, 6600 Locarno",pinoprimavera@bluewin.ch,,+41917517736,6600
REGINETTA,"Via della Motta 8, 6600 Locarno",areginetta@hotmail.com,,+41917523553,6600
Ristorante America,"Piazza Grande, 6600 Locarno",info@hotelamerica.ch,,+41917517635,6600
Ristorante Negromante,"Via Borghese 14, 6600 Locarno",,,+41917514044,6600
Ristorante Pizzeria Debarcadero Locarno,"Via Lungolago Giuseppe Motta 1, 6600 Locarno",info@ristorantedebarcadero.swiss,,+41912235370,6600
Tyrell's,"Via Lungolago Giuseppe Motta 7, 6600 Locarno",reservation@tyrells.ch,,+41917511386,6600
Al Barétt,"Via Vallemaggia, 6600 Locarno",,,,6600
Al Böcc V.largo Zotzi,"Largo Franco Zorzi, 6600 Locarno",,,,6600
Al Porto,"Piazza Stazione 6, 6600 Muralto",,,+41917436516,6600
Al Porto Cafe Lago,"Viale Verbano, 6600 Muralto",,,+41917435683,6600
Al Torchio,"Viale Verbano 15, 6600 Muralto",,,+41917434377,6600
Albocc,"Largo Franco Zorzi 12, 6600 Locarno",info@fiordipanna.ch,,,6600
Aminta Ramada Hotel Arcadia al Lago,"Via Lungolago Giuseppe Motta, 6600 Locarno",,,+41917561818,6600
Bar AREA 51,"Via Alberto Vigizzi 22, 6600 Solduno",,,,6600
Bar&Café Selz,"Via Franchino Rusca 8, 6600 Locarno",rrachele@yahoo.com,,+41917510898,6600
Bar Castello Locarno,"Via Franchino Rusca 8, 6600 Locarno",info@barcastello.biz,,+41799054017,6600
Bar Festival,"Viale Francesco Balli 2, 6600 Locarno",,,+41917521259,6600
Bar Oasi di Aliu Fitim,"Via alla Ramogna 4, 6600 Locarno",,,+41912350089,6600
Barlume,"Piazzetta dei Riformati 3, 6600 Locarno",barlumelocarno@gmail.com,,,6600
Bazoo Sagl,"Via Duni 6, 6600 Locarno",,,+41917511862,6600
Bubo Locarno,"Via vecchio Naviglio 4, 6600 Locarno",info@bubolocarno.ch,,+41917514111,6600
Burbai,"Viale Verbano 45, 6600 Muralto",,,+41917431153,6600
C'era Una Volta,"Piazza Grande 13, 6600 Locarno",,,+41912357773,6600
Cafe Paolino,"Largo Franco Zorzi 4, 6600 Locarno",,,+41917513432,6600
Capanna Lo Stallone Alpe Cardada,"Alpe Cardada, 6600 Locarno",capanna@stallone.ch,,+41917436146,6600
Casinò Locarno SA,"Largo Franco Zorzi 1, 6600 Locarno",,,+41917563030,6600
Chenal Bar Gelateria,"Viale Verbano, 6600 Muralto",,,,6600
Coffe and Juice,"Via Vincenzo Vela 1, 6600 Locarno",,,+41792284563,6600
Emporio,"Piazza Stazione, 6600 Muralto",,,+41917433262,6600
Fashion 2shè,"Via Bernardino Luini 12, 6600 Locarno",,,+41917519717,6600
Il Chiringuito,"Viale Verbano 27, 6600 Muralto",,,+41917807544,6600
La Barca,"Via Lungolago Giuseppe Motta 7, 6600 Locarno",,,+41917520313,6600
La Mini Gelateria,"Via Franchino Rusca 8, 6600 Locarno",,,+41786107833,6600
La Nostrana,"Piazza Grande, 6600 Locarno",,,+41917514939,6600
La Veranda,"Via Giuseppe Cattori 6, 6600 Locarno",h6834@accor.com,,+41917562626,6600
Locanda Locarnese,"Via Bossi 1, 6600 Locarno",info@locandalocarnese.ch,,+41917568756,6600
McDonald's Ristorante,"Via Stazione 1, 6600 Muralto",,,+41917446606,6600
Mono Bar,"Via Antonio Ciseri 19, 6600 Locarno",info@monobar.ch,,+41917510886,6600
Pasta e Pizza Punto P,"Via ai Saleggi 5, 6600 Locarno",,,+41917512626,6600
Porchetta,"Piazza Grande / Locarno on ice, 6600 Locarno",,,,6600
Pronto Pizza Damiano,"Via San Gottardo 30, 6600 Muralto",,,,6600
Ristorante Balena,"Via Lungolago Giuseppe Motta 7, 6600 Locarno",info@balena-locarno.ch,,+41917511386,6600
Ristorante Enoteca Bottega del Vino,"Via Bernardino Luini 13, 6600 Locarno",info@anceda.ch,,+41917518279,6600
Ristorante Fevi SA,"Via alla Peschiera, 6600 Locarno",,,+41917519007,6600
Ristorante Osteria Chiara,"Vicolo Chiara 1, 6600 Muralto",osteriachiaramuralto@gmail.com,,+41917433296,6600
Ristorante Sensi,"Viale Verbano 9, 6600 Muralto",,,+41917431717,6600
Saray Kebab,"Viale Francesco Balli 3, 6600 Locarno",,,,6600
Spaghetti Pomodoro,"Viale Verbano 13, 6600 Muralto",info@spaghettipomodoro.ch,,+41917591122,6600
SR Take Away Mexican & Indian,"Via San Gottardo 19, 6600 Muralto",,,+41912255454,6600
Trinity Boat Locarno,"Via Lungolago Giuseppe Motta 8, 6600 Locarno",slaintesagl@gmail.com,,+41917520313,6600
Hotel Geranio au Lac,"Viale Verbano 13, 6600 Muralto",smart@hotelgeranio.ch,http://www.hotelgeranio.ch/,+41917358000,6600