name,address,email,website,phone,postalCode
Hotel City Zürich,"Löwenstrasse 34, 8001 Zürich",hotelcity@hotelcity.ch,http://www.hotelcity.ch/,+41442171717,8001
Astra Kitchen & Bar,"Löwenstrasse 25, 8001 Zürich",astra@astra-kitchenbar.ch,http://www.astra-kitchenbar.ch/,+41445440073,8001
Cèdre-Bellevue,"Schifflände 5, 8001 Zürich",,http://www.libanesisch.ch/,+41442528370,8001
Hotel Glockenhof,"Sihlstrasse 31, 8001 Zürich",info@glockenhof.ch,http://www.glockenhof.ch/,+41442259191,8001
China Restaurant Chop-Stick,"Niederdorfstrasse 82, 8001 Zürich",,http://www.china-restaurant-chopstick.ch/,+41442627833,8001
Bärengasse Restaurant,"Bahnhofstrasse 25, 8001 Zürich",reservation@restaurant-baerengasse.ch,http://www.restaurant-baerengasse.ch/,+41442100808,8001
Restaurant Pavillon,"Talstrasse 1, 8001 Zürich",,http://www.aupavillon.ch/,+41442205022,8001
Haus Hiltl,"Sihlstrasse 28, 8001 Zürich",info@hiltl.ch,http://hiltl.ch/de/standorte/haus-hiltl,+41442277000,8001
Restaurant zum Grünen Glas,"Untere Zäune 15, 8001 Zürich",reservation@gruenesglas.ch,http://www.gruenesglas.ch/,+41442516504,8001
Rosaly's Restaurant & Bar,"Freieckgasse 7, 8001 Zürich",info@rosalys.ch,http://www.rosalys.ch/,+41442614430,8001
Restaurant Le Cèdre - Maurice,"Nüschelerstrasse 31, 8001 Zürich",,http://www.libanesisch.ch/,+41442219802,8001
Casino Zürich,"Gessnerallee 3, 8001 Zürich",,https://www.swisscasinos.ch/zuerich,+41433303030,8001
Steakhouse Old Town,"Niederdorfstrasse 19, 8001 Zürich",,http://www.hotel-oldtown.ch/,+41433218484,8001
Collana Bar e Caffè,"Theaterstrasse 9, 8001 Zürich",,http://www.commercio.ch/collana,+41442505910,8001
Commihalle,"Stampfenbachstrasse 8, 8001 Zürich",commihalle@commercio.ch,http://www.commercio.ch/commihalle,+41442505960,8001
Hotel Kindli,"Pfalzgasse 1, 8001 Zürich",hotel@kindli.ch,http://www.kindli.ch/,+41438887676,8001
Hotel Adler Zürich,"Rosengasse 10, 8001 Zürich",info@hotel-adler.ch,http://www.hotel-adler.ch/,+41442669696,8001
Churrasco Steak & Nikkei Cuisine,"Glockengasse 9, 8001 Zürich",info@churrasco.ch,http://churrasco.ch/,+41442211144,8001
Simon's Steakhouse Grill & Restaurant & Bar,"Niederdorfstrasse 13, 8001 Zürich",info@simonsteakhouse.ch,http://www.simonsteakhouse.ch/,+41442605646,8001
Hirschen,"Niederdorfstrasse 13, 8001 Zürich",info@hirschen-zuerich.ch,http://www.hirschen-zuerich.ch/,+41432683333,8001
Hiltl Vegi-Metzg,"St. Annagasse 18, 8001 Zürich",vegimetzg@hiltl.ch,,+41442277027,8001
LY'S ASIA TAKE AWAY,"Stadelhoferstrasse 22, 8001 Zürich",stadelhofen@lys-asia.ch,https://www.lys-asia.ch/,+41442515300,8001
Restaurant Mohini,"Weinbergstrasse 15, 8001 Zürich",,http://www.mohini.ch/,+41442525211,8001
Hiltl Dachterrasse,"Bahnhofstrasse 88, 8001 Zürich",dachterrasse@hiltl.ch,http://www.hiltl.ch/de/standorte/hiltl-dachterrasse,+41448888800,8001
Baur's,"Talstrasse 1, 8001 Zürich",info@baurs-zurich.ch,http://www.baurs-zurich.ch/,+41442205060,8001
Vis à Vis,"Talstrasse 40, 8001 Zürich",,http://www.vis-a-vis.ch/,+41442117310,8001
Hotel Florhof,"Florhofgasse 4, 8001 Zürich",,http://www.hotelflorhof.ch/,+41442502626,8001
Hiltl Pflanzbar,"Talstrasse 62, 8001 Zürich",club@hiltl.ch,http://www.hiltl.ch/de/standorte/pflanzbar,+41434973616,8001
Simplon Bar,"Schützengasse 16, 8001 Zürich",info@simplonbar.ch,http://www.simplonbar.ch/,+41442221939,8001
Restaurant Conrad,"Sihlstrasse 31, 8001 Zürich",,https://www.glockenhof.ch/de/restaurants/restaurant_conrad,+41442259191,8001
Restaurant Swiss Chuchi Zürich,"Rosengasse 10, 8001 Zürich",,http://www.hotel-adler.ch/,+41442669666,8001
Le Dézaley,"Römergasse 7, 8001 Zürich",restaurant@le-dezaley.ch,http://www.le-dezaley.ch/,+41442516129,8001
QQ Sushi Zürich,"Stampfenbachstrasse 6, 8001 Zürich",,http://qq-sushi.ch/,+41442612626,8001
Restaurant Kindli,"Strehlgasse 24, 8001 Zürich",restaurant@kindli.ch,https://www.kindli.ch/restaurant,+41438887678,8001
Mère Catherine,"Nägelihof 3, 8001 Zürich",,https://www.commercio.ch/de/mere-catherine-alleine,+41442505940,8001
Bonnie Prince Pub,"Zähringerstrasse 38, 8001 Zürich",info@bonnie.ch,,+41442527066,8001
Wühre Restaurant,"Wühre 11, 8001 Zürich",,,+41442113881,8001
Restaurant Zunfthaus zur Schmieden,"Marktgasse 20, 8001 Zürich",info@zunfthausschmiden.ch,,+41442505848,8001
Barfüsser Sushi Bar und Lounge,"Spitalgasse 14, 8001 Zürich",info@barfuesser.ch,http://www.barfuesser.ch/,+41442514064,8001
Rheinfelder Bierhalle,"Niederdorfstrasse 76, 8001 Zürich",,,+41442515464,8001
Haue,"Limmatquai 52, 8001 Zürich",,,+41442523362,8001
George Bar & Grill,"Gessnerallee 5, 8001 Zürich",office@george-grill.ch,http://www.george-grill.ch/,+41444445060,8001
Wolf Bierhalle,"Limmatquai 132, 8001 Zürich",,,+41442510130,8001
Piadina Bar,"Niederdorfstrasse 2, 8001 Zürich",,http://www.piadina-bar.ch/,+41442516594,8001
Restaurant Café Zähringer Genossenschaft,"Zähringerplatz 11, 8001 Zürich",,,+41442520500,8001
Tasca Romero,"Niederdorfstrasse 37, 8001 Zürich",,,+41442525290,8001
Kunsthausrestaurant,"Heimplatz 1, 8001 Zürich",kunsthausrestaurant@remimag.ch,,+41442515353,8001
Goethe-Stübli,"Glockengasse 7, 8001 Zürich",,,+41442212120,8001
Gräbli-Bar,"Gräbligasse 1, 8001 Zürich",,,+41442519595,8001
Neumärt,"Neumarkt 28, 8001 Zürich",,,+41442510012,8001
Züri-Bar,"Niederdorfstrasse 24, 8001 Zürich",zueri-bar@bluewin.ch,,+41442618874,8001
James Joyce,"Pelikanstrasse 8, 8001 Zürich",,,+41442211828,8001
Johanniter,"Niederdorfstrasse 70, 8001 Zürich",,,+41442536200,8001
Bierhalle Kropf,"In Gassen 16, 8001 Zürich",,,+41442211805,8001
Big Ben Pub,"Niederdorfstrasse 52, 8001 Zürich",,,+41442621585,8001
Toscano Ristorante,"Schmidgasse 3, 8001 Zürich",,,+41442615450,8001
Bauschänzli,"Stadthausquai 2, 8001 Zürich",,,+41442124919,8001
Reithalle,"Gessnerallee 8, 8001 Zürich",,,+41442120766,8001
Ristorante La Pasta AG,"Niederdorfstrasse 80, 8001 Zürich",,,+41447402000,8001
Zum weissen Kreuz,"Rössligasse 3, 8001 Zürich",,,+41442525165,8001
Cantinetta Antinori,"Augustinergasse 25, 8001 Zürich",info@cantinetta-antinori.ch,,+41442117210,8001
Mövenpick Ice Cream Gallery,"Theaterstrasse 8, 8001 Zürich",,,+41432680420,8001
Widder Restaurant,"Widdergasse 6, 8001 Zürich",,,+41442242412,8001
Dolce Vita II,"Häringstrasse 2, 8001 Zürich",,,+41442513900,8001
Bodega Española,"Münstergasse 15, 8001 Zürich",,,+41442512310,8001
NEUMARKT,"Neumarkt 5, 8001 Zürich",mail@wirtschaft-neumarkt.ch,,+41442527939,8001
SAM'S Pizza Land,"Schweizergasse 6, 8001 Zürich",,,+41442111630,8001
Kronenhalle,"Rämistrasse 4, 8001 Zürich",,,+41442629900,8001
1001 GmbH,"Niederdorfstrasse 4, 8001 Zürich",,,+41442529060,8001
Skebe,"St. Urbangasse 4, 8001 Zürich",info@skebe.ch,,+41442604131,8001
Bü's Restaurant,"Kuttelgasse 15, 8001 Zürich",,,+41442119411,8001
Schlauch,"Obere Zäune 17, 8001 Zürich",,,+41442512304,8001
Positano,"Stampfenbachstrasse 6, 8001 Zürich",info@positano.ch,,+41432437610,8001
Spanische Weinhalle,"Münstergasse 15, 8001 Zürich",,,+41442512310,8001
King's Cave,"Central 1, 8001 Zürich",kingscave@central.ch,,+41442565555,8001
BARADOX,"Sihlstrasse 73, 8001 Zürich",,,+41442210626,8001
Walliser Kanne,"Lintheschergasse 21, 8001 Zürich",info@walliserkanne-zuerich.ch,https://www.walliserkanne-zuerich.ch/,+41442113133,8001
Ellermann 's Hummerbar,"Bahnhofstrasse 87, 8001 Zürich",reservation@hummerbar.ch,http://www.hummerbar.ch/,+41442277621,8001
Hotel Central Plaza,"Central 1, 8001 Zürich",,http://www.central.ch/,+41442565656,8001
VIOR Restaurant und Club,"Löwenstrasse 2, 8001 Zürich",info@vior.ch,http://www.vior.ch/,+41445000100,8001
Rheinfelder Bierhaus,"Marktgasse 19, 8001 Zürich",,http://www.restaurant-rheinfelderbierhaus.ch/,+41442512991,8001
Raclette-Stube,"Zähringerstrasse 16, 8001 Zürich",,http://www.fondue-stuben.ch/,+41442514130,8001
Blockhus,"Kruggasse 2, 8001 Zürich",,http://www.restaurant-blockhus.ch/,+41442521453,8001
Aurora Gastro AG,"Bahnhofstrasse 61, 8001 Zürich",info@aurora-restaurant.ch,https://www.aurora-restaurant.ch/,+41442100318,8001
Central 1,"Central 1, 8001 Zürich",,,+41442565656,8001
Churrasco,"Glockengasse 9, 8001 Zürich",info@churrasco.ch,http://www.churrasco.ch/,+41442211144,8001
Indisches Restaurant Kormasutra,"Mühlegasse 5, 8001 Zürich",info@kormasutra.ch,,+41442524848,8001
Löweneck AG,"Löwenstrasse 34, 8001 Zürich",koenig@loeweneck.com,,+41445776800,8001
Restaurant Alexis & Winebar,"Niederdorfstrasse 40, 8001 Zürich",zuerich@alexis-cana.ch,,+41442523788,8001
Restaurant La Soupière,"Bahnhofplatz 7, 8001 Zürich",info@hotelschweizerhof.com,,+41442188840,8001
Ristorante Klingler's,"Münzplatz 3, 8001 Zürich",contact@ristorante-klinglers.ch,,+41433212222,8001
Six-Bar,"Rosengasse 6, 8001 Zürich",kontakt@regenbogenbar.ch,,+41433009988,8001
Yooji's Bahnhofstrasse,"Bahnhofstrasse 102, 8001 Zürich",bahnhofstrasse@yoojis.ch,https://www.yoojis.com/standorte/zuerich-i-bahnhofstrasse,+41442121225,8001
Yooji's Bellevue,"St. Urbangasse 8, 8001 Zürich",bellevue@yoojis.ch,https://www.yoojis.com/standorte/zuerich-i-bellevue,+41442531111,8001
01 Bar,"Limmatquai 86, 8001 Zürich",,,+41432680066,8001
El Lokal,"Gessnerallee 11, 8001 Zürich",,,+41433448750,8001
HATECKE,"Usteristrasse 12, 8001 Zürich",,,+41445428685,8001
Maki Haus Inh. Yao,"Stampfenbachstrasse 12, 8001 Zürich",,,+41442110101,8001
Maxim,"Schoffelgasse 2, 8001 Zürich",,,+41442617030,8001
Ojo De Agua Weinkontor GmbH,"Oetenbachgasse 13, 8001 Zürich",,,+41442104700,8001
Pizzeria Ristorante Molino Select,"Limmatquai 16, 8001 Zürich",select@molino.ch,,+41442610117,8001
Restaurant Hato,"Brandschenkestrasse 20, 8001 Zürich",,,+41442801880,8001
Ristorante Il Gattopardo,"Rössligasse 7, 8001 Zürich",,,+41763341123,8001
Talacker,"Talacker 41, 8001 Zürich",,,+41442112050,8001
UBS Restaurant UBStairs,"Paradeplatz 6, 8001 Zürich",,,+41442376000,8001
Williams ButchersTable Bellevue,"Schifflände 6, 8001 Zürich",bellevue@williamsbutcherstable.ch,,+41445067506,8001
AURA Group AG,"Bleicherweg 5, 8001 Zürich",welcome@aura-zurich.ch,,+41444481144,8001
Brasserie Louis,"Niederdorfstrasse 10, 8001 Zürich",info@brasserie-louis.ch,,+41442507680,8001
Café Felix am Bellevue,"Bellevueplatz 5, 8001 Zürich",info@felixambellevue.ch,,+41442518060,8001
Dialog,"Münstergasse 4, 8001 Zürich",,,+41442519100,8001
Kaufleuten,"Pelikanstrasse 18, 8001 Zürich",,,+41442253333,8001
La Piazzetta,"Pelikanstrasse 37, 8001 Zürich",,,+41442111313,8001
LaZoupa,"Torgasse 5, 8001 Zürich",,,+41435424686,8001
Restaurant Heugümper,"Waaggasse 4, 8001 Zürich",info@restaurantheuguemper.ch,,+41442111660,8001
Restaurant Schipfe16,"Schipfe 16, 8001 Zürich",,,+41442112122,8001
Restaurant Schützengasse,"Schützengasse 32, 8001 Zürich",,,+41445001030,8001
Restaurant Weisser Wind,"Oberdorfstrasse 20, 8001 Zürich",,,+41442511845,8001
Storchen Zürich,"Weinplatz 2, 8001 Zürich",info@storchen.ch,,+41442272113,8001
TAO'S,"Augustinergasse 3, 8001 Zürich",welcome@taos-lounge.ch,,+41444481122,8001
zur Waag,"Münsterhof 8, 8001 Zürich",reservation@zunfthaus-zur-waag.ch,,+41442169966,8001
Confiserie Sprüngli AG,"Bahnhofstrasse 21, 8001 Zürich",info@spruengli.ch,,+41442244646,8001
China Restaurant,"Bahnhofpassage, 8001 Zürich",,,+41442222828,8001
SUAN-LONG,"Bahnhofpassage, 8001 Zürich",,,+41442222828,8001
Bistro Karl der Grosse,"Kirchgasse 14, 8001 Zürich",karl.essen@zuerich.ch,,+41444156860,8001
Mensa UZH Zentrum,"Künstlergasse 10, 8001 Zürich",,,+41446342370,8001
Ban Song Thai,"Kirchgasse 6, 8001 Zürich",,,+41442523331,8001
Bar Basso,"Sihlstrasse 59, 8001 Zürich",pronto@barbasso.ch,,+41434972528,8001
Café & Take-Away Schurter,"Niederdorfstrasse 90, 8001 Zürich",,,+41442523232,8001
Cafeteria UZH Rämistrasse,"Rämistrasse 74, 8001 Zürich",,,+41446343114,8001
Carlton,"Bahnhofstrasse 41, 8001 Zürich",,,+41442271919,8001
Carrousel,"Zähringerstrasse 33, 8001 Zürich",,,+41442536202,8001
Dinghy Bar,"Brandschenkestrasse 5, 8001 Zürich",,,+41443901314,8001
Garten Laube,"Zähringerstrasse 33, 8001 Zürich",,,+41442536201,8001
GRANDE,"Limmatquai 118, 8001 Zürich",,,+41442621516,8001
Haus zum Rüden,"Limmatquai 42, 8001 Zürich",info@hauszumrueden.ch,,+41442619566,8001
Klein Istanbul - Mezes,"Schmidgasse 6, 8001 Zürich",,,+41432680121,8001
Kropf,"In Gassen 16, 8001 Zürich",,,+41442211805,8001
Limmatstube,"Limmatquai 142, 8001 Zürich",,,+41442676040,8001
Odéon,"Limmatquai 2, 8001 Zürich",,,+41442511650,8001
Oepfelchammer,"Rindermarkt 12, 8001 Zürich",,,+41442512336,8001
Piazzetta,"Pelikanstrasse 37, 8001 Zürich",,,+41442111313,8001
Reblaube,"Glockengasse 7, 8001 Zürich",,,+41442212120,8001
Restaurant Antica Roma,"Sihlamtsstrasse 5, 8001 Zürich",,,+41443123333,8001
Restaurant Bernadette,"Sechseläutenplatz 1, 8001 Zürich",,,+41442686464,8001
Restaurant Hirschberg GmbH,"Seilergraben 9, 8001 Zürich",,,+41442626363,8001
Restaurant Time Out,"Hirschengraben 64, 8001 Zürich",,,+41442505787,8001
Restaurant Zeughauskeller,"Bahnhofstrasse 28a, 8001 Zürich",,,+41442201515,8001
Thai Ban Song Thai,"Kirchgasse 6, 8001 Zürich",,,+41442523331,8001
VAPIANO,"Rämistrasse 8, 8001 Zürich",,,+41442520062,8001
Weinstube Limmathof,"Limmatquai 142, 8001 Zürich",,,+41442676040,8001
Wirtschaft NEUMARKT,"Neumarkt 5, 8001 Zürich",mail@wirtschaft-neumarkt.ch,,+41442527939,8001
Zum Schwarzen Chessel,"Niederdorfstrasse 64, 8001 Zürich",,,+41442514133,8001
Zunfthaus am Neumarkt,"Neumarkt 5, 8001 Zürich",mail@wirtschaft-neumarkt.ch,,+41442527939,8001
Zunfthaus zur Meisen,"Münsterhof 20, 8001 Zürich",,,+41442112144,8001
Sternen Grill + Sternen Grill Restaurant im oberen Stock,"Theaterstrasse 22, 8001 Zürich",info@belgrillgrill.ch,http://www.sternengrill.ch/,+41432682080,8001
Restaurant Konshi,"Uraniastrasse 3, 8001 Zürich",,http://www.konshi.ch/,+41442251188,8001
Takano City,"Löwenstrasse 29, 8001 Zürich",,http://www.takano.ch/,+41444632228,8001
Falafel&Mezze House,"Rathausbrücke 1, 8001 Zürich",oran.c@hotmail.com,,+41442110314,8001
Restaurant Di Gioia,"Brandschenkestrasse 5, 8001 Zürich",,,+41442019080,8001
Restaurant Neue Taverne,"Glockengasse 8, 8001 Zürich",,,+41442211262,8001
tempSTAFF AG,"Untere Zäune 11, 8001 Zürich",info@tempstaff.ch,,+41442510917,8001
UBS Restaurant Elite,"Nüschelerstrasse 6, 8001 Zürich",,,+41442345071,8001
2. Akt Restaurant& Bar,"Selnaustrasse 2, 8001 Zürich",info@2akt.ch,,+41442016564,8001
Café Restaurant Mohrenkopf,"Niederdorfstrasse 31, 8001 Zürich",info@mohrenkopf.info,,+41442620545,8001
Magoosh Grill - Restaurant - Bar,"Stampfenbachstrasse 6, 8001 Zürich",,,+41442626476,8001
N-68 Restaurant,"Niederdorfstrasse 68, 8001 Zürich",yotsaksri@hotmail.com,,+41442610812,8001
Palette Restaurant Café Bar,"Schützengasse 7, 8001 Zürich",info@palette-zuerich.ch,,+41442009500,8001
Restaurant - Boucherie AuGust,"Rennweg 1, 8001 Zürich",info@au-gust.ch,,+41442242828,8001
Restaurant Münsterhof,"Münsterhof 6, 8001 Zürich",hello@mhof.ch,,+41442623300,8001
Restaurant Spitz,"Museumstrasse 2, 8001 Zürich",info@restaurantspitz.ch,,+41442219477,8001
Migros Restaurant City,"Löwenstrasse 31-35, 8001 Zürich",,,+41442271060,8001
2. Akt Restaurant-Bar,"Selnaustrasse 2, 8001 Zürich",,,+41442016564,8001
Altstadt Hotel Restaurant,"Kirchgasse 4, 8001 Zürich",service@hotel-altstadt.ch,,,8001
Da Capo Restaurant,8001 Zürich,,,,8001
Dal Nastro - Restaurant & Bar,"Sihlporte 3, 8001 Zürich",,,+41443014141,8001
Globus Restaurant,"Schweizergasse 11, 8001 Zürich",office@lunchgate.com,,+41442266060,8001
Insider Restaurant & Bar,"Löwenstrasse 64, 8001 Zürich",,,+41442102030,8001
Lotti Restaurant Bar Cafe Grill,"Werdmühleplatz 3, 8001 Zürich",,,+41433990101,8001
Moudi Bar&Restaurant,"Brandschenkestrasse 5, 8001 Zürich",,,+41443901314,8001
ooo Rooftop Restaurant,"Bahnhofstrasse 74, 8001 Zürich",,,+41444000555,8001
Restaurant Bar noon,"Oberdorfstrasse 9, 8001 Zürich",,,+41433439688,8001
Restaurant Baur by Orsini,"Poststrasse 12, 8001 Zürich",,,+41442152525,8001
Restaurant - Boucherie AuGust,"Rennweg 1, 8001 Zürich",info@au-gust.ch,,+41442242828,8001
Restaurant Madrid,"Froschaugasse 15, 8001 Zürich",,,+41442511333,8001
Restaurant New Bombay,"Predigerplatz 34, 8001 Zürich",,,+41442511804,8001
Restaurant Rechberg 1837,"Chorgasse 20, 8001 Zürich",,,+41442221837,8001
Restaurant Sushi Shin,"Zinnengasse 7, 8001 Zürich",,,+41444009989,8001
Restaurant/Take Away Tschingg Oberdorf,"Oberdorfstrasse 2, 8001 Zürich",info@tschingg.eu,,+41432103808,8001
SBB Restaurant Oase,8001 Zürich,,,,8001
Sopra Restaurant,"Seidengasse 1, 8001 Zürich",,,+41442204551,8001
Mörgeli Bilderrahmen,"Schipfe 3, 8001 Zürich",,http://www.einrahmungen-zuerich.ch/,+41442117070,8001
Coop,"Bahnhofstrasse 57, 8001 Zürich",,,+41442269213,8001
ATELIER BAR,"Talacker 16, 8001 Zürich",reservation@atelierbar.ch,http://www.atelierbar.ch/,+41442100809,8001
Blumen-Krämer AG,"Talstrasse 62, 8001 Zürich",talstrasse@blumenkraemer.ch,http://www.blumenkraemer.ch/,+41442259585,8001
Stiftung zum Glockenhaus,"Sihlstrasse 33, 8001 Zürich",,http://www.glockenhof.org/,+41442259393,8001
Confiseur Bachmann AG,"Bahnhofstrasse 89, 8001 Zürich",,https://www.confiserie.ch/de/zuerich-bahnhofstrasse,+41442219780,8001
Metzgerei Zgraggen GmbH,"Stüssihofstatt 10, 8001 Zürich",,http://www.metzgerei-zgraggen.ch/#,+41442513693,8001
Safari Bar,"Zähringerstrasse 29, 8001 Zürich",info@safaribar.ch,,+41442621240,8001
O'Tabe GmbH,"Talstrasse 20, 8001 Zürich",info@otabe.ch,,+41442111281,8001
Café Gourmet,"Bahnhofplatz 7, 8001 Zürich",info@hotelschweizerhof.com,,+41442188141,8001
Regenbogen Bar,"Rosengasse 6, 8001 Zürich",kontakt@regenbogenbar.ch,http://www.regenbogenbar.ch/,+41433009988,8001
Schweizerhof Bar,"Bahnhofplatz 7, 8001 Zürich",info@hotelschweizerhof.com,,+41442188888,8001
Cakefriends,8001 Zürich,,,,8001
Kantorei,"Spiegelgasse 33, 8001 Zürich",,,+41442522727,8001
Kaufleuten Restaurants AG,"Pelikanstrasse 18, 8001 Zürich",info@kaufleuten.ch,,+41442253300,8001
Lumière AG,"Widdergasse 5, 8001 Zürich",info@restaurant-lumiere.ch,,+41442115665,8001
Oliver Twist Pub / Mr. Pickwick Pub,"Rindermarkt 6, 8001 Zürich",,,+41442524710,8001
Outback Lodge - Australian Bar & Food House,"Stadelhoferstrasse 18, 8001 Zürich",stadelhofen@outback-lodge.ch,,+41442521575,8001
Papa Joe's,"Schifflände 18, 8001 Zürich",,,+41442698888,8001
Sala of Tokyo,"Schützengasse 5, 8001 Zürich",,,+41442715290,8001
Zunfthaus zur Zimmerleuten,"Limmatquai 40, 8001 Zürich",,,+41442505363,8001
Aelpli Bar,"Ankengasse 5, 8001 Zürich",,,+41796930173,8001
gelateria caffetteria oro the gallery,"Löwenstrasse 40, 8001 Zürich",info@gelateriaoro.ch,http://gelateriaoro.com/,+41754950000,8001
Hiltl Akademie,"Sihlstrasse 24, 8001 Zürich",akademie@hiltl.ch,,+41442277013,8001
Läderach Chocolatier Suisse,"Bahnhofstrasse 106, 8001 Zürich",customerservice.ch@laderach.com,,+41442115372,8001
Paddy Reilly's,"Talstrasse 82, 8001 Zürich",,,+41434973966,8001
Petra's Tip-Top-Bar,"Seilergraben 13, 8001 Zürich",tiptopbar@icloud.com,,+41442517820,8001
Splendid Piano Bar,"Rosengasse 5, 8001 Zürich",info@splendidpianobar.ch,,+41442525850,8001
UBS Switzerland AG Bahnhofstrasse 45,"Bahnhofstrasse 45, 8001 Zürich",,,+41442341111,8001
Vohdin Urs,"Oberdorfstrasse 12, 8001 Zürich",,,+41442524919,8001
Autogrill Schweiz AG,"Limmatquai 66, 8001 Zürich",admin.grandcafe@autogrill.net,,+41442523119,8001
Bar Incontro,"Talacker 50, 8001 Zürich",info@barincontro.ch,,+41434973777,8001
Bar Zänker,"Zähringerstrasse 39, 8001 Zürich",bar@ebrietas.ch,,+41442626460,8001
barfussbar,"Stadthausquai 12, 8001 Zürich",,,+41442513331,8001
BarMünster,"Münstergasse 30, 8001 Zürich",info@barmuenster.ch,,+41442616061,8001
Bauernschänke,"Rindermarkt 24, 8001 Zürich",hunger@bauernschaenke.ch,,+41442624130,8001
Belgrill AG,"Theaterstrasse 22, 8001 Zürich",,,+41442514949,8001
Bernhard Bar Cafe,"Sechseläutenplatz 1, 8001 Zürich",info@belcanto.ch,,+41442686574,8001
Bistrot chez Marion,"Mühlegasse 22, 8001 Zürich",mail@chezmarion.ch,,+41442010201,8001
Black Tap Craft Burgers And Beer,"Werdmühlestrasse 4, 8001 Zürich",info@blacktap.ch,,,8001
Bovelli Caffe & Cocktailbar,"Sihlstrasse 20, 8001 Zürich",signore@bovelli.ch,,+41442104060,8001
Brasserie Schiller,"Sechseläutenplatz 10, 8001 Zürich",info@brasserie-schiller.ch,,+41442222030,8001
Burgermeister Oberdorf,"Oberdorfstrasse 8, 8001 Zürich",info@burger-meister.ch,,+41442608808,8001
Caffe Bellavista,"Rämistrasse 7, 8001 Zürich",info@caffebellavista.com,,+41432685300,8001
Caffé Handelshof GmbH,"Uraniastrasse 35, 8001 Zürich",,,+41442104646,8001
Central Garten,"Central 1, 8001 Zürich",restaurant@central.ch,,+41442565656,8001
Cicchetteria da Rosa,"Spitalgasse 5, 8001 Zürich",info@cicchetteriadarosa.ch,,+41442610303,8001
delish Café Take-out,"Marktgasse 17, 8001 Zürich",info@delish.ch,,+41442661015,8001
Dupont Brasserie & Bar,"Beatenplatz 4, 8001 Zürich",info@dupont.ch,,+41445429220,8001
Ebrietas Bar,"Zähringerstrasse 39, 8001 Zürich",bar@ebrietas.ch,,+41442626460,8001
Edomae,"Talstrasse 62, 8001 Zürich",info@edomae.ch,,+41445440033,8001
Hasta Ice Cream,"Spitalgasse 5, 8001 Zürich",info@hasta.ch,,+41792609751,8001
Hiltl Laden,"St. Annagasse 18, 8001 Zürich",guestrelations@hiltl.ch,,+41442277027,8001
Igniv Zurich by Andreas Caminada,"Marktgasse 17, 8001 Zürich",culinary@marktgassehotel.ch,,+41442661010,8001
Il Golosone,"Uraniastrasse 20, 8001 Zürich",Sally_76@hotmail.de,,,8001
Joe & The Juice,"Schifflände 26, 8001 Zürich",care@joejuice.com,,,8001
Jules Verne Panoramabar,"Uraniastrasse 9, 8001 Zürich",info@jules-verne.ch,,+41438886667,8001
Just Coffee,"Hornergasse 15, 8001 Zürich",info@just-coffee.ch,,+41445859688,8001
Kaffeehandel,"Münstergasse 19, 8001 Zürich",info@schwarzenbach.ch,,+41442611315,8001
Kian,"Stampfenbachstrasse 24, 8001 Zürich",,,+41795991111,8001
Konrad,"Lintheschergasse 23, 8001 Zürich",info@konrad.bar,,+41442110815,8001
Kraftwerk,"Selnaustrasse 25, 8001 Zürich",booking@kraftwerk.host,,+41798170703,8001
L'essenza,"Löwenstrasse 2, 8001 Zürich",lessenza.zh@gmail.com,,+41768230669,8001
Lucky Dumpling,"Sihlporte 3, 8001 Zürich",welcome@luckydumpling.ch,,+41435582827,8001
Lucky Noodle,"Sihlporte 3, 8001 Zürich",welcome@luckynoodle.ch,,+41435582827,8001
Luigia Zurich,"Talstrasse 61, 8001 Zürich",zurich@luigia.ch,,+41447002222,8001
Luv Drink & Dine,"Münzplatz 3, 8001 Zürich",contact@luvrestaurant.ch,,+41433212222,8001
Marktgasse Hotel Zürich,"Marktgasse 17, 8001 Zürich",info@marktgassehotel.ch,,+41442661010,8001
Moudi am Schanzengraben,"Brandschenkestrasse 5, 8001 Zürich",,,+41443901314,8001
Mövenpick Wein Schweiz AG,"Bahnhofstrasse, 8001 Zürich",jelmoli@moevenpick-wein.ch,,+41442204748,8001
MyVi's,"Schmidgasse 6, 8001 Zürich",reservation@myvis.ch,,+41432680121,8001
Osteria Borgo,"Niederdorfstrasse 33, 8001 Zürich",info@osteria-borgo.ch,,+41442520870,8001
Pascals Diner,"Bahnhofstrasse 1, 8001 Zürich",,,,8001
Pompidou GmbH,"Seidengasse 1, 8001 Zürich",bonjour-zuerich-jelmoli@pompidou.ch,,+41796928115,8001
Rice Up! Bahnhofstrasse,"Bahnhofstrasse 79, 8001 Zürich",bahnhofstrasse@riceup.ch,,+41445780660,8001
Rising Sun,"Mühlegasse 14, 8001 Zürich",risingsunasiarestaurant@gmail.com,,+41438171888,8001
Ristorante Bianchi,"Limmatquai 82, 8001 Zürich",info@bianchi-zuerich.ch,,+41442629844,8001
Ristorante Bindella,"In Gassen 6, 8001 Zürich",ristorante.zuerich@bindella.ch,,+41442212546,8001
Ristorante Ornellaia,"St. Annagasse 2, 8001 Zürich",info@ristorante-ornellaia.ch,,+41442120022,8001
Ristorante Pulcino,"Niederdorfstrasse 7, 8001 Zürich",info@pulcino.ch,,+41442625462,8001
Ristorante Vallocaia,"Niederdorfstrasse 15, 8001 Zürich",info@vallocaia.ch,,+41432685168,8001
Ritù,"Weite Gasse 6, 8001 Zürich",ritugastroag@gmail.com,,+41912241250,8001
Saftlade,"Münstergasse 31, 8001 Zürich",,,+41442620331,8001
SAIGON,"Sihlstrasse 97, 8001 Zürich",,,+41442100585,8001
Santa Lucia Niederdorf,"Marktgasse 21, 8001 Zürich",niederdorf@santalucia.ch,,+41442623626,8001
Santa Lucia Paradeplatz,"Waaggasse 5-7, 8001 Zürich",paradeplatz@santalucia.ch,,+41442116525,8001
Santa Lucia Teatro,"Rämistrasse 32, 8001 Zürich",teatro@santalucia.ch,,+41442620444,8001
SelnauWok GmbH,"Selnaustrasse 5, 8001 Zürich",,,+41442026477,8001
Sora Sushi,"Bahnhofplatz 15, 8001 Zürich",info@sora-sushi.ch,,+41442171510,8001
Spaghetti Factory Rosenhof,"Niederdorfstrasse 5, 8001 Zürich",rosenhof@spaghetti-factory.ch,,+41442519400,8001
Storchen Zürich,"Weinplatz 2, 8001 Zürich",info@storchen.ch,,+41442272727,8001
Stripped Pizza GO Bellevue,"Bellevueplatz 2, 8001 Zürich",contact@stripped-pizza.com,,,8001
Stripped Pizza Talacker,"Talacker 41, 8001 Zürich",,,,8001
Terrasse,"Limmatquai 3, 8001 Zürich",info@terrasse-zuerich.ch,,+41442511074,8001
Thai Heaven,"Stüssihofstatt 3, 8001 Zürich",info@bluemonkey.ch,,+41442617618,8001
Tina Bar,"Niederdorfstrasse 10, 8001 Zürich",tina@tina-bar.ch,,+41442507686,8001
Toth's Chimney Cake,"Münstergasse 29, 8001 Zürich",contact@toths.ch,,+41788050010,8001
Union Diner Bellevue,"St. Urbangasse 4, 8001 Zürich",bel@uniondiner.ch,,+41435000535,8001
Walliser Keller SwissAlpeChuchi,"Zähringerstrasse 21, 8001 Zürich",info@walliser-keller.ch,,+41442694444,8001
Wystube Isebähnli,"Froschaugasse 26, 8001 Zürich",wystube@isebaehnli.com,,+41432437787,8001
Confiserie Sprüngli AG,"Löwenstrasse 49, 8001 Zürich",,,+41442119612,8001
Kaimug Box Shopville Zürich Hauptbahnhof,8001 Zürich,,,+41585639055,8001
1904 DESIGNED BY LAGONDA,"Löwenstrasse 42, 8001 Zürich",zuerich@r-experience.com,,+41716946050,8001
Adler Gasthof,"Oberdorfstrasse 1a, 8001 Zürich",gaestehaus@gastlicheradler.ch,,+38972523962,8001
Ali Baba Kebap Haus,"Bahnhofstrasse 5, 8001 Zürich",,,+41763230727,8001
Ass-Bar GmbH,"Stüssihofstatt 6, 8001 Zürich",info@aess-bar.ch,,+41766050434,8001
Atrio Pizzeria & Bar,8001 Zürich,,,,8001
Babalu,"Schmidgasse 6, 8001 Zürich",,,+41442519732,8001
Babu's Bakery & Coffeehouse,"Löwenstrasse 1, 8001 Zürich",,,+41442128745,8001
Bäckerei Hug,"Goethestrasse 14, 8001 Zürich",,,+41442610430,8001
Bäckerei Urs Vohdin,"Oberdorfstrasse 12, 8001 Zürich",,,,8001
Bad Hunter,"Seidengasse 1, 8001 Zürich",,,,8001
Banhmi Kitchen,"Bahnhofstrasse 3, 8001 Zürich",,,,8001
Bar Andorra,"Münstergasse 20, 8001 Zürich",info@andorra.ch,,+41442526570,8001
Bar Corazon,"Zähringerplatz 11, 8001 Zürich",info@bar-corazon.ch,,,8001
Bei Tony,"Niederdorfstrasse 13, 8001 Zürich",turm@bei-tony.ch,,+41432683940,8001
Belcafé Pizza und Bar,"Bellevueplatz 1, 8001 Zürich",info@belcafe.ch,,+41442519800,8001
Blue Monkey,"Stüssihofstatt 3, 8001 Zürich",info@bluemonkey.ch,,+41442617618,8001
Blueberry American Bakery,8001 Zürich,,,,8001
Blueberry American Bakery,8001 Zürich,,,,8001
Boréal Coffee Company Sàrl,"Talacker 41, 8001 Zürich",,,+41442219516,8001
Brasserie Federal,"Bahnhofplatz 15, 8001 Zürich",,,+41442171585,8001
Brasserie Lipp,"Uraniastrasse 9, 8001 Zürich",,,+41438886666,8001
Brezelkönig,8001 Zürich,,,,8001
Brezelkönig,8001 Zürich,,,,8001
Brezelkönig,8001 Zürich,,,,8001
Brezelkönig,8001 Zürich,,,,8001
Brezelkönig,8001 Zürich,,,,8001
Buchmann Beck Rennweg,"Rennweg 4, 8001 Zürich",,,+41442212140,8001
Buffet Bellevue,"Bellevueplatz 2, 8001 Zürich",,,+41432684767,8001
Buffet Express,8001 Zürich,,,,8001
Burger King,8001 Zürich,,,,8001
Burger King,8001 Zürich,,,,8001
Burger King Express,8001 Zürich,,,,8001
Burrito Brothers,"Löwenstrasse 51, 8001 Zürich",,,,8001
cabaret voltaire,"Spiegelgasse 1, 8001 Zürich",,,+41432685720,8001
Café 1842,"Napfgasse 4, 8001 Zürich",1842@arbeitskette.ch,,+41442515150,8001
Café Henrici,"Niederdorfstrasse 1, 8001 Zürich",,,+41442515454,8001
Café Oscar,8001 Zürich,,,,8001
Cafe Presse Club,"Münsterhof 15, 8001 Zürich",,,+41442118040,8001
Cafe Takeaway Leonhardstreppe,"Weinbergstrasse 25, 8001 Zürich",,,+41767213152,8001
Caffé Al Leone,"Bahnhofstrasse 32, 8001 Zürich",,,+41442210047,8001
Caffè Spettacolo,8001 Zürich,,,,8001
Candrian Catering AG,"Sechseläutenplatz 10, 8001 Zürich",,,+41442222030,8001
Cartell,"Sihlporte 3, 8001 Zürich",miguel.anaya@cartell.ch,,,8001
Casco Viejo,"Rosengasse 7, 8001 Zürich",,,+41442608211,8001
Chastablick,"Bahnhofstrasse 14, 8001 Zürich",,,,8001
Chez Hugo,"Basteiplatz, 8001 Zürich",shaun.knight@gmx.net,,+41799313611,8001
Chinarestaurant Chopstick GmbH,"Limmatquai 138, 8001 Zürich",,,+41442610042,8001
ClubGourmet,"Bahnhofplatz 7, 8001 Zürich",,,,8001
Coco,"Bleicherweg 1a, 8001 Zürich",,,+41442119898,8001
Confiserie Honold,"Rennweg 53, 8001 Zürich",infohonold@honold.ch,,+41442115258,8001
Confiserie Sprüngli,8001 Zürich,,,,8001
Corazon,"Zähringerplatz 11, 8001 Zürich",,,,8001
CUPCAKE AFFAIR GmbH,"Spitalgasse 10, 8001 Zürich",zuerich@cupcake-affair.ch,,+41764610464,8001
D-Vino Weinbars AG,"Schützengasse 12, 8001 Zürich",,,+41444034860,8001
Da Capo Bar,8001 Zürich,,,,8001
Dada Bar,"Limmatquai 136, 8001 Zürich",reception@limmatblick.ch,,+41442546000,8001
dieci Gelateria & Take Away,"Niederdorfstrasse 40, 8001 Zürich",,,+41432685302,8001
Dim Sum Take-Away,"Platzpromenade 1, 8001 Zürich",,,+41442128544,8001
Don Camillo,"Oberdorfstrasse 51, 8001 Zürich",,,+41447405550,8001
Dunkin' Donuts,8001 Zürich,,,,8001
Espressino,8001 Zürich,,,,8001
ETH Mensa Polyterrasse,"Leonhardstrasse 34, 8001 Zürich",,,+41446326200,8001
Fleming's Club,"Brandschenkestrasse 10, 8001 Zürich",zuerich@flemings-hotels.com,,+41445630000,8001
Fo Ke Kio Best Asian Food,"Talacker 50, 8001 Zürich",,,+41765726099,8001
Franzos,"Limmatquai 138, 8001 Zürich",,,+41445424633,8001
Frau,"Bahnhofstrasse 4, 8001 Zürich",info@ristorante-olivo.ch,,+41447289595,8001
Frisk Fisk,"Niederdorfstrasse 31, 8001 Zürich",,,+41445216006,8001
Funky Chicken,"Löwenstrasse 51, 8001 Zürich",info@thefunkychicken.ch,,,8001
Gaststube Haldenegg,"Leonhardstrasse 1, 8001 Zürich",,,+41442614055,8001
Gelatissimo,"Gessnerallee 8, 8001 Zürich",info@gelati-gelatissimo.ch,,,8001
Globus Bellevue,"Theaterstrasse 12, 8001 Zürich",,,+41585786767,8001
Glogge-Egge,"Sihlstrasse 31, 8001 Zürich",,,+41442259191,8001
Golden Coffee,8001 Zürich,,,,8001
Gran Café Motta,"Limmatquai 66, 8001 Zürich",info-ch@autogrill.net,,+41442523119,8001
Griederbar,"Bahnhofstrasse 30, 8001 Zürich",,,+41442243700,8001
Hallo,8001 Zürich,,,,8001
Hausbar,"Schweizergasse 8, 8001 Zürich",,,+41442119109,8001
Haute SA,"Talstrasse 65, 8001 Zürich",welcome@haute.ch,,+41433447272,8001
Hechtplatz Sommergarten,"Hechtplatz 7, 8001 Zürich",,,,8001
Helvti Diner Bellevue,"St. Urbangasse 4, 8001 Zürich",,,+41435000535,8001
Hitzberger,8001 Zürich,,,,8001
Holy Cow ! Gourmet Burger Company SA,"Zähringerstrasse 28, 8001 Zürich",,,+41213122404,8001
Honold Confiserie AG,"Rennweg 53, 8001 Zürich",infohonold@honold.ch,,+41442115258,8001
Hôtel Bourbon at Turm,"Obere Zäune 19, 8001 Zürich",,,+41432512020,8001
Il Baretto,8001 Zürich,,,,8001
Image,"Bahnhof, 8001 Zürich",,,,8001
Imagine im Zürcher Hauptbahnhof,"Hauptbahnhof Bahnhofhalle, 8001 Zürich",,,+41442171570,8001
Infinity Bar & Lounge,"Zähringerstrasse 11, 8001 Zürich",info@infinity-bar.ch,,+41432448890,8001
Jelmoli AG,"Seidengasse 1, 8001 Zürich",,,+41442204411,8001
Joe & The Juice,"Limmatquai 70, 8001 Zürich",,,,8001
Joe & The Juice,"Sihlstrasse 37, 8001 Zürich",,,,8001
John Baker first Ltd.,"Stadelhoferstrasse 28, 8001 Zürich",john@johnbaker.ch,,+41442819292,8001
Juice Market,"Augustinergasse 42, 8001 Zürich",,,+41442116933,8001
Juicery 21,"Sihlstrasse 93, 8001 Zürich",,,+41442219395,8001
Kaffeehaus Zur Weltkugel,"Bärengasse 20, 8001 Zürich",,,+41442608330,8001
Kafi Züri,"Bahnhofstrasse 9, 8001 Zürich",info@kafi-zueri.ch,,+41432110909,8001
Kaimug Box,"Rathausbrücke 1, 8001 Zürich",,,+41585639050,8001
Kaisin.,"Talacker 34, 8001 Zürich",info@kaisin.ch,,+41762748609,8001
Kon-Tiki,"Niederdorfstrasse 24, 8001 Zürich",info@kontikibar.ch,,+41442513577,8001
Küchenwerkstatt,"Oberdorfstrasse 22, 8001 Zürich",info@kuechenwerkstatt.ch,,+41435395486,8001
Kultur Lokal Rank,"Niederdorfstrasse 60, 8001 Zürich",info@amrank.ch,,+41447778001,8001
Kunsthausrestaurant,"Heimplatz 1, 8001 Zürich",kunsthausrestaurant@remimag.ch,,+41442515353,8001
Kunsthausrestaurant,"Heimplatz 1, 8001 Zürich",,,+41442515353,8001
La Bottega di Mario,"Nüschelerstrasse 6, 8001 Zürich",,,+41442271922,8001
Läckerli Huus,8001 Zürich,,,+41612642223,8001
Lady Hamilton's Pub,"Beatengasse 11, 8001 Zürich",,,+41433448860,8001
Le Cafe am Talaker,"Bärengasse 16, 8001 Zürich",,,+41442117347,8001
Le Café enSoie by ViCAFE,"Strehlgasse 26, 8001 Zürich",,,+41442219549,8001
Le Coquin,"Kruggasse 4, 8001 Zürich",,,+41445423272,8001
Le Prêt-à-manger,8001 Zürich,,,,8001
Le Raymond Bar,"Bleicherweg 8, 8001 Zürich",mail@leraymond.bar,,+41442210205,8001
Le Relais de l'Entrecôte,"Storchengasse 7, 8001 Zürich",,,+41448039991,8001
Lenzo Palace,"Usteristrasse 21, 8001 Zürich",oemerinal@outlook.com,,+41442219557,8001
Lima bar Zurich,"Talacker 34, 8001 Zürich",Geo.base91@gmail.com,,+41442253375,8001
Lindas Paradise,"Zähringerstrasse 12, 8001 Zürich",,,+41788851464,8001
Lobby,"Bahnhofstrasse 87, 8001 Zürich",reservation@hotelstgotthard.ch,,+41442277700,8001
Long Huang,"Talstrasse 83, 8001 Zürich",,,+41432110207,8001
Magic Masala,"Kruggasse 4, 8001 Zürich",,,+41432436545,8001
Manuel's,"Löwenstrasse 12, 8001 Zürich",hola@manuels.ch,,+41445452140,8001
Manzoni Bar,"Bahnhofstrasse 87, 8001 Zürich",info@manzonibar.ch,,,8001
Marinello Rathausbrücke,"Rathausbrücke, 8001 Zürich",,,,8001
Marry Jane - Finest Swiss Cannabis,"Niederdorfstrasse 58, 8001 Zürich",,,+41445859797,8001
McDonald’s,"Bahnhofplatz 5, 8001 Zürich",,,+41442118070,8001
McDonald's,"Gottfried-Keller-Strasse 7, 8001 Zürich",,,+41433439711,8001
McDonald's,"Niederdorfstrasse 30, 8001 Zürich",,,,8001
McDonald's Bahnhofstrasse Zurich,"Bahnhofstrasse 79, 8001 Zürich",,,+41442210919,8001
McDonald's Suisse Restaurants Sàrl,"Löwenstrasse 53, 8001 Zürich",,,+41442101407,8001
Metropol,"Fraumünsterstrasse 12, 8001 Zürich",,,+41442005900,8001
Milchbar,"Kappelergasse 16, 8001 Zürich",,,+41442119012,8001
Montmartre - Café et Bistro,"Weggengasse 4, 8001 Zürich",,,+41442111920,8001
Moser’s Backparadies,8001 Zürich,,,,8001
Mövenpick,8001 Zürich,,,,8001
Müesli Bar,8001 Zürich,,,,8001
Nagasui AG,"Selnaustrasse 16, 8001 Zürich",,,+41442883888,8001
Negishi Sushi Bar Niederdorf,"Nägelihof 1, 8001 Zürich",niederdorf@negishi.ch,,+41442520510,8001
Negishi Sushi Bar Zürich Pelikanplatz,"Pelikanplatz 15, 8001 Zürich",,,+41445250999,8001
Nelson Pub Zürich,"Beatengasse 11, 8001 Zürich",,,+41442126016,8001
Nordsee,8001 Zürich,,,,8001
Nordsee,8001 Zürich,,,,8001
Ojo de Agua Weinkontor,"Oetenbachgasse 13, 8001 Zürich",,,+41442104700,8001
ONA POKÉ AG,"Lintheschergasse 13, 8001 Zürich",,,+41432511313,8001
Orient Catering GmbH,"Weinbergfussweg 4, 8001 Zürich",,,+41442014647,8001
Orsini,"Waaggasse 7, 8001 Zürich",,,+41442152727,8001
Oskar Kowalski Bar Cafe,"Bahnhofstrasse 4, 8001 Zürich",info@oskar-kowalski.ch,,+41433448285,8001
Pasta Barn,8001 Zürich,,,,8001
Pasta Box,8001 Zürich,,,,8001
Piazzetta,"Bahnhofstrasse 87, 8001 Zürich",reservation@hotelstgotthard.ch,,+41442277700,8001
Picnic,"Bahnhofstrasse 52, 8001 Zürich",,,+41442119282,8001
Pier 7,"Limmatquai 7, 8001 Zürich",info@pier7.ch,,+41442617077,8001
Pizza Pasta Ciao Ristorante,"Weinbergstrasse 26, 8001 Zürich",,,+41442623355,8001
Platzhirsch,"Spitalgasse 3, 8001 Zürich",,,+41442507080,8001
PURO - The Social Club,"Fraumünsterstrasse 25, 8001 Zürich",,,+41442219933,8001
Raclette Factory AG,"Rindermarkt 1, 8001 Zürich",,,+41442610410,8001
Rapido,8001 Zürich,,,,8001
Rathaus-Café,"Limmatquai 61, 8001 Zürich",,,+41442610770,8001
Regenbogenbar,"Rosengasse 6, 8001 Zürich",,,+41433009988,8001
Restaurants Commercio-Piccadilly AG,"Nägelihof 1, 8001 Zürich",,,+41442505900,8001
Rice Up!,8001 Zürich,,,,8001
Rio Bar,"Gessnerallee 17, 8001 Zürich",,,+41432440909,8001
Ristorante Del Sole,"Löwenstrasse 64, 8001 Zürich",,,+41434973545,8001
Rive Gauche,"Talstrasse 1, 8001 Zürich",,,+41442205020,8001
Roof Garden,"Schweizergasse 11, 8001 Zürich",,,+41442271919,8001
Rössli Bar,"Rössligasse 7, 8001 Zürich",,,+41442567052,8001
Rüden Bar,"Limmatquai 42, 8001 Zürich",,,+41442619566,8001
Santa Lucia Corso,"Theaterstrasse 10, 8001 Zürich",corso@santalucia.ch,,+41442618070,8001
Scent of Bamboo,8001 Zürich,,,,8001
schminkbar by bea petri,"Beatengasse 9, 8001 Zürich",info@schminkbar.ch,,+41433330808,8001
Sein,"Schützengasse 5, 8001 Zürich",,,+41442211065,8001
Sesam Falafelbar,"Seidengasse 6, 8001 Zürich",,,,8001
Snack Bar,8001 Zürich,,,,8001
SO Pizza,"Limmatquai 54, 8001 Zürich",limmatquai@so.pizza,,+41764120054,8001
Spiga,"Löwenstrasse 61, 8001 Zürich",,,+41442101676,8001
Starbucks,"Limmatquai 144, 8001 Zürich",,,,8001
Starbucks,"Museumstrasse 1, 8001 Zürich",,,+41434972908,8001
Starbucks,"Limmatquai 4, 8001 Zürich",,,+41442617231,8001
Starbucks Coffee,"Rennweg 48, 8001 Zürich",,,+41434972640,8001
Sterne Foifi,"Theaterstrasse 22, 8001 Zürich",,,,8001
Suan Long,8001 Zürich,,,,8001
Suan Long Enge AG,"Bahnhofplatz 15, 8001 Zürich",,,+41442125838,8001
Suan Long Niederdorf,"Niederdorfstrasse 45, 8001 Zürich",,,+41442610539,8001
Substar GmbH,"Sihlstrasse 99, 8001 Zürich",,,+41435407246,8001
Subway,"Sihlstrasse 99, 8001 Zürich",,,+41435407246,8001
Superguud,8001 Zürich,,,,8001
Superguud,8001 Zürich,,,,8001
Sushi Shop,"Uraniastrasse 40, 8001 Zürich",,,,8001
Tasty,"Poststrasse 12, 8001 Zürich",,,,8001
Tchibo (Schweiz) AG,"Museumstrasse 1, 8001 Zürich",,,+41442100683,8001
Teecafe Schwarzenbach,"Münstergasse 17, 8001 Zürich",,,+41442611380,8001
Thai Bamboo,"Schoffelgasse 3, 8001 Zürich",,,,8001
The Butcher Niederdorf Zürich,"Stüssihofstatt 15, 8001 Zürich",niederdorf@butcher.ch,,+41432436143,8001
The LASAGNERIA,"Uraniastrasse 31, 8001 Zürich",eat@thelasagneria.com,,+41797335050,8001
The Lion Pub Zürich,"Oetenbachgasse 24, 8001 Zürich",info@thelion.ch,,+41438886669,8001
TimeOut - Hotel St.Josef,"Hirschengraben 64, 8001 Zürich",,,+41442505757,8001
Union Diner Bellevue,"St. Urbangasse 4, 8001 Zürich",,,+41442604131,8001
Valmann Cafe,"Talstrasse 58, 8001 Zürich",info@valmann.ch,,+41442219742,8001
Vanini Swiss Chocolate Since 1871,"Kuttelgasse 17, 8001 Zürich",info@vanini1871.ch,,+41442219636,8001
Veltlinerkeller,"Schlüsselgasse 8, 8001 Zürich",info@veltlinerkeller.ch,,+41442254040,8001
ViCafe Bellevue,"Theaterstrasse 14, 8001 Zürich",,,+41448866611,8001
Vicafe Espresso Bars AG,"Bahnhofstrasse 93, 8001 Zürich",,,+41442219648,8001
Viet Street Food,"Usteristrasse 21, 8001 Zürich",,,+41445590830,8001
Walliser Keller im Niederdorf,"Zähringerstrasse 21, 8001 Zürich",,,+41442694444,8001
Weinschenke Hotel Hirschen,"Hirschengasse, 8001 Zürich",info@weinschenke.ch,,+41432683333,8001
Wesley's Kitchen,8001 Zürich,,,,8001
Yooji's Hauptbahnhof,"Halle Löwenstrasse, 8001 Zürich",,,+41442100707,8001
Yooji's Sushi Deli,8001 Zürich,,,,8001
Yooji's Sushi Deli,8001 Zürich,,,,8001
Yummy Tummy Creperie,"Museumstrasse 1, 8001 Zürich",,,,8001
YYooji s Sushi Sins & Take Away,"St. Urbangasse 8, 8001 Zürich",,,+41442531111,8001
Zapote - Californian Burritos & Salads,"Löwenstrasse 11, 8001 Zürich",,,+41446660690,8001
ZHONG HUA VONG,"Zähringerstrasse 24, 8001 Zürich",,,+41442514480,8001
Zum Roten Kamel,"Niederdorfstrasse 1, 8001 Zürich",,,+41442515454,8001
Zum Weissen Schwan,"Predigerplatz 34, 8001 Zürich",,,+41442511804,8001
Zunfthaus zum Widder,"Rennweg 7, 8001 Zürich",,,+41442242526,8001
Zunfthaus zur Saffran,"Limmatquai 54, 8001 Zürich",,,+41442513740,8001
Zur Schtund,"Augustinergasse 28, 8001 Zürich",,,+41442242428,8001
Züri-Bistro,8001 Zürich,,,,8001
Papeterie Zumstein AG,"Oberdorfstrasse 24, 8001 Zürich",info@zumstein.ch,http://www.zumstein.ch/,+41439287770,8001
atelier 10punkt3 ag,"Löwenstrasse 53, 8001 Zürich",,http://www.10punkt3.ch/,+41443812233,8001
Burri Optik und Kontaktlinsen beim Bellevue in Zürich,"Limmatquai 4, 8001 Zürich",info@burrioptik.ch,http://www.burrioptik.ch/,+41442510893,8001
ARVINO Luxury Wine Shop - Zurigo,"St. Annagasse 9, 8001 Zürich",arvino.zurich@arvi.ch,https://arvi.ch/,+41438100888,8001
Savoy Baur en Ville,"Poststrasse 12, 8001 Zürich",,,+41442152525,8001
Dr. med. dent. Kersten Sabine,"Rennweg 19, 8001 Zürich",info@dr-kersten.ch,http://www.dr-kersten.ch/,+41442115021,8001
Vidal AG,"Talacker 16, 8001 Zürich",,http://www.vidal-teppiche.com/,+41442212573,8001
Orientteppiche Vidal AG,"Talacker 16, 8001 Zürich",,,+41442212573,8001
Seiler Mario,"Steinbockgasse 3, 8001 Zürich",,,+41442513973,8001
Baur au Lac,"Talstrasse 1, 8001 Zürich",,https://www.bauraulac.ch/,+41442205020,8001
Coop,"Bahnhofstrasse 57, 8001 Zürich",,,+41442269100,8001
Coop,"Theaterstrasse 18, 8001 Zürich",,,+41432688700,8001