name,address,email,website,phone,postalCode
Fujiya of Japan,"Tessinerplatz 5, 8002 Zürich",,http://www.fujiya.ch/,+41442081555,8002
Goodwin The Steak House,"Splügenstrasse 2, 8002 Zürich",,http://www.goodwin-steakhouse.ch/,+41445588837,8002
Juan Costa Restaurant am Bleicherweg Old Inn,"Bleicherweg 47, 8002 Zürich",,,+41442865115,8002
Fork & Bottle,"Allmendstrasse 20, 8002 Zürich",,,+41442011817,8002
La Mimosa,"General-Wille-Strasse 8, 8002 Zürich",,,+41442027040,8002
Le Jardin,"Stockerstrasse 17, 8002 Zürich",,,+41442869400,8002
Bederhof,"Brandschenkestrasse 177, 8002 Zürich",,,+41442851500,8002
TARTUFO,"Lavaterstrasse 87, 8002 Zürich",,,+41442011613,8002
Barfly'z,"Gotthardstrasse 21, 8002 Zürich",,,+41442020011,8002
Vee's Bistro,"Alfred-Escher-Strasse 11, 8002 Zürich",,,+41442014490,8002
Almodòbar AG,"Bleicherweg 68, 8002 Zürich",info@almodobar.com,,+41438444488,8002
Belvoirpark Restaurant,"Seestrasse 125, 8002 Zürich",bankett@belvoirpark.ch,,+41442868844,8002
Ona Poké,"Bleicherweg 19, 8002 Zürich",,,+41449911919,8002
Restaurant Yooji's AG Dreikönig,"Beethovenstrasse 32, 8002 Zürich",,,+41445781707,8002
LE POISSON,"Claridenstrasse 30, 8002 Zürich",,,+41442862222,8002
parkhuus Restaurant,"Dreikönigstrasse 25, 8002 Zürich",zurph-parkhuus@hyatt.com,,+41438831234,8002
Restaurant Glärnischhof,"Claridenstrasse 30, 8002 Zürich",,,+41442862222,8002
China Restaurant,"Tessinerplatz 12, 8002 Zürich",,,+41442020933,8002
SUAN-LONG,"Tessinerplatz 12, 8002 Zürich",,,+41442020933,8002
Cafeteria KS Enge/Freudenberg,"Brandschenkestrasse 125, 8002 Zürich",,,+41442017288,8002
L'Altro,"Sternenstrasse 11, 8002 Zürich",,,+41442014398,8002
Restaurant Rietberg,"Waffenplatzstrasse 63, 8002 Zürich",,,+41442023214,8002
Sternen Da Guido,"Seestrasse 82, 8002 Zürich",daguido2019@gmail.com,,+41442011676,8002
Swiss Life Restaurant Quai40,"General-Guisan-Quai 40, 8002 Zürich",,,+41432847377,8002
Restaurant & Pizzeria 99,"Bederstrasse 99, 8002 Zürich",info@ristorante-99.ch,,+41442016076,8002
Restaurant San Marco,"General-Wille-Strasse 21, 8002 Zürich",,,+41442017166,8002
Restaurant Lotus Garden,"Waffenplatzstrasse 1, 8002 Zürich",,,+41432430725,8002
Beyond restaurant,"Claridenstrasse 36, 8002 Zürich",beyond@bluewin.ch,,+41433668345,8002
Dr. Dog Restaurant,"Tessinerplatz 10, 8002 Zürich",box@drdog.ch,,+41435572020,8002
Leafs Restaurant,"Engimattstrasse 14, 8002 Zürich",leafs@engimatt.ch,,+41442841616,8002
Korner Gourmet Burger Restaurant & Craft Beer Bar,"Gartenstrasse 10, 8002 Zürich",,,+41445429250,8002
McDonald's Restaurant,"Tessinerplatz 10, 8002 Zürich",,,+41442800942,8002
Restaurant Ascot,"Tessinerplatz 9, 8002 Zürich",,,+41442081414,8002
Restaurant Le Rendez-vous,"Seestrasse 3, 8002 Zürich",,,+41442012420,8002
Restaurant Weisses Rössli,"Bederstrasse 96, 8002 Zürich",,,+41442126300,8002
Safran Restaurant Take Away Und Shisha Lounge,"Bederstrasse 94, 8002 Zürich",,,,8002
Juan Costa GmbH,"Bleicherweg 47, 8002 Zürich",info@juancosta.ch,,+41442865111,8002
SouSou,"General-Wille-Strasse 18, 8002 Zürich",,,+41442019530,8002
Kai Sushi Lessing,"Lessingstrasse 3, 8002 Zürich",lessing@kaisushi.ch,,+41443108181,8002
Nooch Coffee & Asian Kitchen,"Gotthardstrasse 62, 8002 Zürich",enge@nooch.ch,,+41442026670,8002
Spectaturs,"Tödistrasse 44, 8002 Zürich",info@spectaturs.com,,+41438176566,8002
1Komma7 grill&bar,"Claridenstrasse 14, 8002 Zürich",reservation@1komma7.ch,,+41442082404,8002
Coworking Lounge Tessinerplatz,"Tessinerplatz 7, 8002 Zürich",info@tessinerplatz.ch,,+41445527299,8002
dean & david ZH Bleicherweg GmbH,"Bleicherweg 19, 8002 Zürich",schweiz.bleicherweg@deandanddavid.com,,+41432224845,8002
Hiltl am Strand,"Mythenquai 95, 8002 Zürich",amstrand@hiltl.ch,,+41433445701,8002
La Stanza,"Bleicherweg 10, 8002 Zürich",mail@lastanza.ch,,+41438176282,8002
Migg's Mix Sandwiches,"Stockerstrasse 60, 8002 Zürich",mail@miggs-mix-sandwiches.ch,,+41442023841,8002
Oak Bar,"Claridenstrasse 30, 8002 Zürich",info@hotelglaernischhof.ch,,+41442862222,8002
Palavrion Zürich,"Beethovenstrasse 32, 8002 Zürich",palavrion-zuerich@marche-int.com,,+41442865454,8002
Schalom Air Catering AG,"Lavaterstrasse 33, 8002 Zürich",,,+41442805005,8002
Sportsbar 1904,"Seestrasse 27, 8002 Zürich",info@fifamuseum.org,,+41433882700,8002
Vegyoza,"Tessinerplatz 7, 8002 Zürich",Info@vegyoza.com,,+41445527299,8002
Allegrotto,"Bederstrasse 102, 8002 Zürich",,,+41442804030,8002
Babi's Bagel Shop,"Bederstrasse 102, 8002 Zürich",info@koscherbagel.ch,,+41432224659,8002
Bar Enge,"Seestrasse 7, 8002 Zürich",,,+41794410724,8002
Bar Nocciolina,"Bleicherweg 18, 8002 Zürich",,,+41442020606,8002
Bistro,"Seestrasse 27, 8002 Zürich",,,+41433882500,8002
Brezelkönig,8002 Zürich,,,,8002
Caffe Spettacolo,"Tessinerplatz 10, 8002 Zürich",,,+41438176972,8002
castellan's,"Stockerstrasse 17, 8002 Zürich",,,+41442869420,8002
Don Leone,"Waffenplatzstrasse 15, 8002 Zürich",,,+41442819430,8002
Hafen Enge,"Mythenquai 21, 8002 Zürich",,,+41442029171,8002
HappyChef/Gourmet Kebab,"Bleicherweg 44, 8002 Zürich",info@happy-chef.ch,,+41442012686,8002
HEIDI & TELL Co.,"Gotthardstrasse 66, 8002 Zürich",,,+41445558880,8002
Herbs Pasta & Bar,"Stockerstrasse 17, 8002 Zürich",,,+41442869421,8002
IL TARTUFO,"Lavaterstrasse 87, 8002 Zürich",,,+41442011613,8002
Jade,"Brandschenkestrasse 25, 8002 Zürich",,,+41791378450,8002
kochevents.ch,"Waffenplatzstrasse 11, 8002 Zürich",,,+41443620880,8002
Lawrence,"Tessinerplatz 9, 8002 Zürich",,,+41442081445,8002
Leonardo,"Bederstrasse 77, 8002 Zürich",,,+41444322400,8002
Lo Spaccio,"Bleicherweg 20, 8002 Zürich",,,,8002
Marvelous und dr dog,"Tessinerplatz 10, 8002 Zürich",,,,8002
Nadas,"Bederstrasse 77, 8002 Zürich",savefood@sustainabilityhub.ch,,+41763822588,8002
NapaGrill Zürich,"Brandschenkestrasse 130, 8002 Zürich",,,+41442898080,8002
ONYX Bar,"Dreikönigstrasse 25, 8002 Zürich",,,+41438831234,8002
Piazza - Bistra Am See,"General-Guisan-Quai, 8002 Zürich",,,,8002
Poushe Strudelhouse,"Waffenplatzstrasse 5, 8002 Zürich",info@poushe.ch,,+41445558475,8002
Quai Café Zürich,"Mythenquai 2, 8002 Zürich",,,,8002
Ristorante 33,"Bleicherweg 33, 8002 Zürich",,,+41442813333,8002
Ristorante Pizzeria 99,"Bederstrasse 99, 8002 Zürich",info@ristorante-99.ch,,+41442016076,8002
Ruen Thai By Suthita,"General-Wille-Strasse 18, 8002 Zürich",,,+41442811414,8002
Salz and Pfeffer Showkuche An Der Gourmesse,"Gotthardstrasse 5, 8002 Zürich",,,+41443602089,8002
Samigo Amusement,"Mythenquai 59, 8002 Zürich",,,+41793602065,8002
Samigo Amusement,"Mythenquai 59, 8002 Zürich",,,,8002
Savoir Vivre,"Claridenstrasse 30, 8002 Zürich",info@hotelglaernischhof.ch,,+41442862222,8002
Silberkugel,"Bleicherweg 33, 8002 Zürich",,,+41442016868,8002
Sommerdorf Zurich,"Tessinerplatz 7, 8002 Zürich",info@sommerdorf-zurich.ch,,+41797778989,8002
Suan Long,8002 Zürich,,,,8002
Theater Bistro PurPur,"Grütlistrasse 36, 8002 Zürich",,,+41442013223,8002
Turf Bar,"Tessinerplatz 9, 8002 Zürich",,,+41442081414,8002