name,address,email,website,phone,postalCode
Ristorante La Casa,"Riedtlistrasse 2, 8006 Zürich",,http://www.ristorante-lacasa.ch/,+41438100454,8006
Restaurant Alten Löwen,"Universitätstrasse 111, 8006 Zürich",info@altenloewen.ch,http://www.altenloewen.ch/,+41433431169,8006
Hot Pasta AG,"Universitätstrasse 15, 8006 Zürich",info@hotpasta.ch,http://hotpasta.ch/,+41435357665,8006
Ora Thai Restaurant,"Stampfenbachstrasse 40, 8006 Zürich",ora-thai@bluewin.ch,http://www.ora-thai.ch/,+41434439000,8006
Casa Ferlin AG,"Stampfenbachstrasse 38, 8006 Zürich",info@casaferlin.com,http://www.casaferlin.ch/,+41443623509,8006
Restaurante & Pizzeria Degli Amici,"Schaffhauserstrasse 29, 8006 Zürich",,https://www.degli-amici.ch/,+41443642477,8006
Chiantiquelle,"Stampfenbachstrasse 38, 8006 Zürich",info@casaferlin.com,,+41443623509,8006
Corallo,"Weinbergstrasse 117, 8006 Zürich",,,+41443620059,8006
Kreis 6,"Scheuchzerstrasse 65, 8006 Zürich",,,+41443628006,8006
eCHo,"Neumühlequai 42, 8006 Zürich",info@echorestaurant.ch,http://www.echorestaurant.ch/,+41443607318,8006
Restaurant Differente,"Schaffhauserstrasse 1, 8006 Zürich",info@hotel-krone.ch,,+41443605656,8006
Corner 48,"Stampfenbachplatz 4, 8006 Zürich",,,+41438100648,8006
Restaurant Rigihof,"Universitätstrasse 101, 8006 Zürich",info@rigihof-restaurant.ch,,+41443640351,8006
Ristorante Culmann,"Culmannstrasse 1, 8006 Zürich",info@culmann.ch,,+41442513651,8006
Uni - Point,"Universitätstrasse 43, 8006 Zürich",,,+41442622445,8006
White Elephant,"Neumühlequai 42, 8006 Zürich",info@whiteelephant.ch,http://www.whiteelephant.ch/,+41443607322,8006
Frieden,"Stampfenbachstrasse 32, 8006 Zürich",info@didisfrieden.ch,,+41442531810,8006
Restaurant Stapferstube Da Rizzo,"Culmannstrasse 45, 8006 Zürich",mail@stapferstube.com,,+41443501100,8006
Scala,"Riedtlistrasse 2, 8006 Zürich",,,+41443638550,8006
Al Forno,"Universitätstrasse 40, 8006 Zürich",,,+41442516577,8006
Cafeteria BS für Detailhandel - Niklausstrasse,"Niklausstrasse 16, 8006 Zürich",,,+41443682721,8006
Mensa Institut Minerva,"Scheuchzerstrasse 2, 8006 Zürich",,,+41443684015,8006
mesa,"Weinbergstrasse 75, 8006 Zürich",,,+41433217575,8006
Primitivo,"Wasserwerkstrasse, 8006 Zürich",,,+41763830550,8006
Restaurant African Queen,"Stampfenbachstrasse 70, 8006 Zürich",,,+41432550103,8006
Restaurant Chuchi am Wasser,"Wasserwerkstrasse 21, 8006 Zürich",,,+41444157690,8006
Restaurant UniTurm,"Rämistrasse 71, 8006 Zürich",,,+41446342141,8006
Thali Indian Restaurant,"Schaffhauserstrasse 32, 8006 Zürich",,https://thali-express.ch/,+41435418510,8006
Bombay Karachi Take-Away,"Stampfenbachstrasse 32, 8006 Zürich",,,+41442626500,8006
Moving Heads GmbH,"Ottikerstrasse 4, 8006 Zürich",,,+41799489959,8006
Take Easy Thai Take Away,"Stampfenbachstrasse 63, 8006 Zürich",,,+41799039310,8006
Restaurant Drei Stuben,"Beckenhofstrasse 5, 8006 Zürich",,,+41443503300,8006
Restaurant Galbani GmbH,"Schaffhauserstrasse 29, 8006 Zürich",,,+41432338052,8006
Restaurant Haldenbach,"Haldenbachstrasse 2, 8006 Zürich",,,+41442618040,8006
Restaurant Perle de Beirut,"Weinbergstrasse 107, 8006 Zürich",,,,8006
Restaurant Rondino,"Lindenbachstrasse 1, 8006 Zürich",,,+41444140900,8006
Restaurant Rubina,"Universitätstrasse 56, 8006 Zürich",,,+41443503015,8006
Ta Ty Asian Restaurant,"Hotzestrasse 65, 8006 Zürich",,,+41443637575,8006
dieci Pizza Kurier Zürichberg,"Landoltstrasse 7, 8006 Zürich",,http://www.pizzakurier.ch/,+41443619095,8006
Bäckerei-Konditorei Stocker,"Weinbergstrasse 93, 8006 Zürich",,http://www.gipfeli.ch/,+41443620202,8006
Lenox Bar,"Neumühlequai 42, 8006 Zürich",info@lenoxbar.ch,http://www.lenoxbar.ch/,+41443607324,8006
Bäckerei Conditorei Stocker,"Universitätstrasse 115, 8006 Zürich",,http://www.gipfeli.ch/,+41443620022,8006
LINDE OBERSTRASS,"Universitätstrasse 91, 8006 Zürich",linde@remimag.ch,,+41443622109,8006
Miyuko,"Beckenhofstrasse 7, 8006 Zürich",info@miyuko.ch,,+41443502143,8006
El Alebrije,"Weinbergstrasse 107, 8006 Zürich",,,,8006
Prisma,"Stampfenbachstrasse 110, 8006 Zürich",prismacafe@hotmail.ch,,+41443502631,8006
Sprössling,"Hotzestrasse 65, 8006 Zürich",dwe@walterbuchmann.ch,,+41443602399,8006
Bamboo Inn,"Culmannstrasse 19, 8006 Zürich",,,+41442613370,8006
Café & Beck Oberstrass,"Universitätstrasse 9, 8006 Zürich",,,+41448075748,8006
Cafe Weinberg,"Weinbergstrasse 68, 8006 Zürich",,,+41443622454,8006
Con Gusto,"Schaffhauserplatz, 8006 Zürich",perselloc@gmail.com,,+41412186816,8006
Domino's Pizza Zürich Uni,"Universitätstrasse 11, 8006 Zürich",marketing@dominos.ch,,,8006
Hausammann,"Universitätstrasse 88, 8006 Zürich",,,+41443621997,8006
J's Exclusive Rooftop Terrace,"Kinkelstrasse 18, 8006 Zürich",,,,8006
Kleine Freiheit,"Weinbergstrasse 30, 8006 Zürich",mail@kleinefreiheit.ch,,,8006
Moudi's lecker Cafe,"Kronenstrasse 48, 8006 Zürich",,,+41438100345,8006
Pizza Calimero,"Weinbergstrasse 157, 8006 Zürich",,,+41443643030,8006
Ristorante la Pergolina,"Weinbergstrasse 107, 8006 Zürich",,,,8006
Settanta2,"Beckenhofstrasse 72, 8006 Zürich",,,+41786843306,8006
Thai Mähnamnan,"Beckenhofstrasse 70, 8006 Zürich",,,+41765345329,8006
The Alehouse - Palmhof,"Universitätstrasse 23, 8006 Zürich",,,+41445428745,8006
Thip & More,"Stampfenbachstrasse 56, 8006 Zürich",,,+41793747825,8006
Uni Falafel,"Sonneggstrasse 2, 8006 Zürich",,,,8006
Valento,"Stampfenbachstrasse 102, 8006 Zürich",,,,8006
ZAWAN Thai Kitchen,"Rigiplatz 1, 8006 Zürich",,,+41448658888,8006
Sundaram Ravichandiran,"Stampfenbachplatz 4, 8006 Zürich",,,+41438100648,8006