name,address,email,website,phone,postalCode
Restaurant Hafenkneipe,"Metzgergasse 1, 9320 Arbon",,,+41714404146,9320
Restaurant Bali,"Fetzislohstrasse 8, 9320 Frasnacht",,,+41714462666,9320
Rotes Kreuz,"Hafenstrasse 3, 9320 Arbon",,,+41714461918,9320
Restaurant Post,"St. Gallerstrasse 216, 9320 Stachen",info@post-eat.ch,https://post-eat.ch/Startseite,+41714460272,9320
Hotel Wunderbar,"Weitegasse 8, 9320 Arbon",welcome@hotel-wunderbar.ch,http://www.hotel-wunderbar.ch/,+41714400505,9320
Sonnhalden Arbon,"Rebenstrasse 57, 9320 Arbon",,http://www.sonnhalden.ch/,+41714472424,9320
PAB Chicken,"St. Gallerstrasse 16, 9320 Arbon",,http://www.pabchicken.ch/,+41715701903,9320
Restaurant Mühle,"Mühlestrasse 12, 9320 Stachen",info@muehlefeilen.ch,,+41714402090,9320
Thai-Restaurant Rose,"Rebhaldenstrasse 5, 9320 Arbon",rose.arbon@gmx.ch,,+41765350979,9320
Wirtschaft zum Bühlhof,"Bühlhof 1, 9320 Frasnacht",,,+41714461088,9320
Alpenblick Pizzeria,"St. Gallerstrasse 112, 9320 Arbon",,,+41714461385,9320
Harmonie,"St. Gallerstrasse 12, 9320 Arbon",,,+41714461725,9320
Hotel Brauerei Frohsinn,"Romanshornerstrasse 15, 9320 Arbon",info@frohsinn-arbon.ch,,+41714478484,9320
Römerhof,"Freiheitsgasse 3, 9320 Arbon",,,+41714473030,9320
Aach,"Schöntalstrasse 1, 9320 Arbon",,,+41714461483,9320
Frohsinn Stachen,"Niederfeld 26, 9320 Stachen",,,+41714461509,9320
Plaza,"Friedenstrasse 18, 9320 Arbon",info@plaza-bar.ch,,+41714462383,9320
Restaurant Michelas Ilge,"Kapellgasse 6, 9320 Arbon",,,+41714404748,9320
Restaurant Weiher Theres Glarner,"St. Gallerstrasse 53, 9320 Arbon",,,+41714462154,9320
Schmiedstube,"Schmiedgasse 3, 9320 Arbon",,,+41714461577,9320
Seerestaurant Buchhorn,"Philosophenweg 11, 9320 Arbon",restaurant@strandbad-arbon.ch,,+41714461760,9320
Spaghettibeizli,"Kupferwiesenstrasse 4, 9320 Arbon",,,+41714468607,9320
Trischli Restaurant Bar Disco,"Badgasse 13, 9320 Arbon",,,+41714461163,9320
Weinberg,"Rebenstrasse 60, 9320 Arbon",,,+41714463266,9320
Hotel Restaurant Bellevue,"Römerstrasse 21, 9320 Arbon",,,+41714402216,9320
China-Restaurant Shanghai,"St. Gallerstrasse 56, 9320 Arbon",,,+41714462067,9320
McDonald's Restaurant,"Pündtstrasse 2, 9320 Arbon",,,+41714468811,9320
Restaurant Giesserei,"Giessereistrasse 12, 9320 Arbon",,,+41715717100,9320
Restaurant Löwen,"Freiheitsgasse 9, 9320 Arbon",,,+41714200838,9320
Restaurant Obertor,"Hauptstrasse 29, 9320 Arbon",,,+41714404310,9320
Restaurant Panorama zum Seeparksaal,"Wassergasse 14, 9320 Arbon",,,+41714461515,9320
Coop,"St. Gallerstrasse 15, 9320 Arbon",,,+41714471580,9320
Cafe Zwei,"Schmiedgasse 2, 9320 Arbon",genuss@cafezwei.ch,,+41714400888,9320
Seegarten,"Seestrasse 66, 9320 Arbon",info@hotelseegarten.ch,,+41714475757,9320
Tapas Spanish Food,"Hauptstrasse 23, 9320 Arbon",tapasbarspanishfood@gmail.com,,+41767258310,9320
Tzatziki,"Hauptstrasse 9320, 9320 Arbon",info@tzatziki.ch,,+41715535115,9320
BP Service Arbon,"Landquartstrasse 91, 9320 Arbon",,,+41714460488,9320
Circle 1 Bistro & Take Away,"Egnacherstrasse 1, 9320 Frasnacht",info@circle-1.ch,,+41798013090,9320
I Cugini,"Rathausgasse 7, 9320 Arbon",,,+41779834910,9320
Il Giardino,"Speiserslehn 27, 9320 Stachen",,,+41714465012,9320
Kochwerkstatt zum Goldige Öpfel,"Egnacherstrasse 57, 9320 Frasnacht",,,+41714460651,9320
Kulturzentrum Presswerk,"Hamelstrasse 15, 9320 Arbon",,,+41714460423,9320
Lutzifer Pub,"Mayrstrasse 7, 9320 Arbon",,,+41765788937,9320
Nefis Kebab Hüsli,"Hauptstrasse 19, 9320 Arbon",,,+41714460412,9320
Wirtschaft zum Schloss,"Schloss, 9320 Arbon",,,+41714401228,9320
Wirtschaft zum Storchen,"Walhallastrasse 5, 9320 Arbon",Raffaele.Arbon@gmail.com,,+41714465288,9320
Zum Goldige Öpfel,"Egnacherstrasse 57, 9320 Frasnacht",,,+41714461501,9320
Senevita Giesserei,"Giessereistrasse 12, 9320 Arbon",giesserei@senevita.ch,http://www.giesserei.senevita.ch/,+41715717171,9320